{
"type": "FeatureCollection",
"name": "area1",
"crs": { "type": "name", "properties": { "name": "urn:ogc:def:crs:OGC:1.3:CRS84" } },
"features": [
{ "type": "Feature", "properties": { "Name": null, "description": "DIVISION<BR><BR><B>ELEVATION</B> = 0", "timestamp": null, "begin": null, "end": null, "altitudeMode": "relativeToGround", "tessellate": -1, "extrude": 1, "visibility": -1, "drawOrder": null, "icon": null, "id": "areasnuevas-1" }, "geometry": null },
{ "type": "Feature", "properties": { "Name": null, "description": "DIVISION<BR><BR><B>ELEVATION</B> = 0", "timestamp": null, "begin": null, "end": null, "altitudeMode": "relativeToGround", "tessellate": -1, "extrude": 1, "visibility": -1, "drawOrder": null, "icon": null, "id": "areasnuevas-2" }, "geometry": { "type": "Polygon", "coordinates": [ [ [ -58.765607313399997, -27.545228884899998, 0.0 ], [ -58.770006318900002, -27.544679724, 0.0 ], [ -58.770297631199988, -27.548468927599998, 0.0 ], [ -58.769669094199998, -27.547624791, 0.0 ], [ -58.768866295700008, -27.547320129799999, 0.0 ], [ -58.767764252, -27.547562012699998, 0.0 ], [ -58.767140074, -27.5478028677, 0.0 ], [ -58.766355073500002, -27.548146562900001, 0.0 ], [ -58.765607313399997, -27.545228884899998, 0.0 ] ] ] } },
{ "type": "Feature", "properties": { "Name": null, "description": "DIVISION<BR><BR><B>ELEVATION</B> = 0", "timestamp": null, "begin": null, "end": null, "altitudeMode": "relativeToGround", "tessellate": -1, "extrude": 1, "visibility": -1, "drawOrder": null, "icon": null, "id": "areasnuevas-3" }, "geometry": { "type": "Polygon", "coordinates": [ [ [ -58.754037982900002, -27.548620101099999, 0.0 ], [ -58.754216453300003, -27.548594823799998, 0.0 ], [ -58.755412049400007, -27.548374796699999, 0.0 ], [ -58.756558352, -27.548021848499999, 0.0 ], [ -58.75937403919999, -27.546966043200001, 0.0 ], [ -58.758873611200002, -27.5485113336, 0.0 ], [ -58.758320166399997, -27.548740689, 0.0 ], [ -58.757687085299999, -27.5492404831, 0.0 ], [ -58.757267109399997, -27.549868064399998, 0.0 ], [ -58.756839803, -27.550781089, 0.0 ], [ -58.756413116600001, -27.551841192, 0.0 ], [ -58.755921759, -27.552759420099999, 0.0 ], [ -58.754037982900002, -27.548620101099999, 0.0 ] ] ] } },
{ "type": "Feature", "properties": { "Name": null, "description": "DIVISION<BR><BR><B>ELEVATION</B> = 0", "timestamp": null, "begin": null, "end": null, "altitudeMode": "relativeToGround", "tessellate": -1, "extrude": 1, "visibility": -1, "drawOrder": null, "icon": null, "id": "areasnuevas-4" }, "geometry": { "type": "Polygon", "coordinates": [ [ [ -58.762439535200009, -27.545832662599999, 0.0 ], [ -58.763213543799999, -27.545607187400002, 0.0 ], [ -58.764222941900002, -27.545401676400001, 0.0 ], [ -58.765406085599999, -27.5452540022, 0.0 ], [ -58.766168354599998, -27.548228312700001, 0.0 ], [ -58.76586523, -27.548361026799999, 0.0 ], [ -58.764891589299999, -27.548842521200001, 0.0 ], [ -58.763563736499997, -27.550219614, 0.0 ], [ -58.762439535200009, -27.545832662599999, 0.0 ] ] ] } },
{ "type": "Feature", "properties": { "Name": null, "description": "DIVISION<BR><BR><B>ELEVATION</B> = 0", "timestamp": null, "begin": null, "end": null, "altitudeMode": "relativeToGround", "tessellate": -1, "extrude": 1, "visibility": -1, "drawOrder": null, "icon": null, "id": "areasnuevas-5" }, "geometry": { "type": "Polygon", "coordinates": [ [ [ -58.759877601200003, -27.546777204, 0.0 ], [ -58.762246188, -27.5458889855, 0.0 ], [ -58.76339956, -27.550389795200001, 0.0 ], [ -58.763107662300001, -27.550692509299999, 0.0 ], [ -58.76255699179999, -27.5513687764, 0.0 ], [ -58.76213438740001, -27.551555204500001, 0.0 ], [ -58.761889025599999, -27.551177098299991, 0.0 ], [ -58.7617510774, -27.550482556199999, 0.0 ], [ -58.761557166599999, -27.549749735599999, 0.0 ], [ -58.760727326800001, -27.5488489484, 0.0 ], [ -58.7593873848, -27.548415736300001, 0.0 ], [ -58.759347500099999, -27.548414149500001, 0.0 ], [ -58.759877601200003, -27.546777204, 0.0 ] ] ] } },
{ "type": "Feature", "properties": { "Name": null, "description": "DIVISION<BR><BR><B>ELEVATION</B> = 0", "timestamp": null, "begin": null, "end": null, "altitudeMode": "relativeToGround", "tessellate": -1, "extrude": 1, "visibility": -1, "drawOrder": null, "icon": null, "id": "areasnuevas-6" }, "geometry": null },
{ "type": "Feature", "properties": { "Name": null, "description": "DIVISION<BR><BR><B>ELEVATION</B> = 0", "timestamp": null, "begin": null, "end": null, "altitudeMode": "relativeToGround", "tessellate": -1, "extrude": 1, "visibility": -1, "drawOrder": null, "icon": null, "id": "areasnuevas-7" }, "geometry": { "type": "Polygon", "coordinates": [ [ [ -58.762440920300001, -27.540426708799998, 0.0 ], [ -58.763286638700002, -27.539689367400001, 0.0 ], [ -58.7651638854, -27.541211333, 0.0 ], [ -58.764369254199998, -27.541990103700002, 0.0 ], [ -58.762440920300001, -27.540426708799998, 0.0 ] ] ] } },
{ "type": "Feature", "properties": { "Name": null, "description": "DIVISION<BR><BR><B>ELEVATION</B> = 0", "timestamp": null, "begin": null, "end": null, "altitudeMode": "relativeToGround", "tessellate": -1, "extrude": 1, "visibility": -1, "drawOrder": null, "icon": null, "id": "areasnuevas-8" }, "geometry": { "type": "Polygon", "coordinates": [ [ [ -58.761618813799998, -27.5411434494, 0.0 ], [ -58.762440920300001, -27.540426708799998, 0.0 ], [ -58.764369254199998, -27.541990103700002, 0.0 ], [ -58.763596807899987, -27.542747116899999, 0.0 ], [ -58.761618813799998, -27.5411434494, 0.0 ] ] ] } },
{ "type": "Feature", "properties": { "Name": null, "description": "DIVISION<BR><BR><B>ELEVATION</B> = 0", "timestamp": null, "begin": null, "end": null, "altitudeMode": "relativeToGround", "tessellate": -1, "extrude": 1, "visibility": -1, "drawOrder": null, "icon": null, "id": "areasnuevas-9" }, "geometry": { "type": "Polygon", "coordinates": [ [ [ -58.7608184447, -27.541841224599999, 0.0 ], [ -58.761618813799998, -27.5411434494, 0.0 ], [ -58.763596807899987, -27.542747116899999, 0.0 ], [ -58.762844785299997, -27.543484099899999, 0.0 ], [ -58.7608184447, -27.541841224599999, 0.0 ] ] ] } },
{ "type": "Feature", "properties": { "Name": null, "description": "DIVISION<BR><BR><B>ELEVATION</B> = 0", "timestamp": null, "begin": null, "end": null, "altitudeMode": "relativeToGround", "tessellate": -1, "extrude": 1, "visibility": -1, "drawOrder": null, "icon": null, "id": "areasnuevas-10" }, "geometry": { "type": "Polygon", "coordinates": [ [ [ -58.760038174100011, -27.542521464299998, 0.0 ], [ -58.7608184447, -27.541841224599999, 0.0 ], [ -58.762844785299997, -27.543484099899999, 0.0 ], [ -58.762111646500003, -27.544202562799999, 0.0 ], [ -58.760038174100011, -27.542521464299998, 0.0 ] ] ] } },
{ "type": "Feature", "properties": { "Name": null, "description": "DIVISION<BR><BR><B>ELEVATION</B> = 0", "timestamp": null, "begin": null, "end": null, "altitudeMode": "relativeToGround", "tessellate": -1, "extrude": 1, "visibility": -1, "drawOrder": null, "icon": null, "id": "areasnuevas-11" }, "geometry": { "type": "Polygon", "coordinates": [ [ [ -58.760038174100011, -27.542521464299998, 0.0 ], [ -58.762111646500003, -27.544202562799999, 0.0 ], [ -58.761843988800003, -27.544464859200001, 0.0 ], [ -58.761424668700002, -27.544607593599999, 0.0 ], [ -58.759085581799987, -27.543351916199999, 0.0 ], [ -58.760038174100011, -27.542521464299998, 0.0 ] ] ] } },
{ "type": "Feature", "properties": { "Name": null, "description": "DIVISION<BR><BR><B>ELEVATION</B> = 0", "timestamp": null, "begin": null, "end": null, "altitudeMode": "relativeToGround", "tessellate": -1, "extrude": 1, "visibility": -1, "drawOrder": null, "icon": null, "id": "areasnuevas-12" }, "geometry": { "type": "Polygon", "coordinates": [ [ [ -58.7721404945, -27.532666219300001, 0.0 ], [ -58.772656064300001, -27.532913623199999, 0.0 ], [ -58.770691809100001, -27.535217597300001, 0.0 ], [ -58.769600824599998, -27.5351050029, 0.0 ], [ -58.7721404945, -27.532666219300001, 0.0 ] ] ] } },
{ "type": "Feature", "properties": { "Name": null, "description": "DIVISION<BR><BR><B>ELEVATION</B> = 0", "timestamp": null, "begin": null, "end": null, "altitudeMode": "relativeToGround", "tessellate": -1, "extrude": 1, "visibility": -1, "drawOrder": null, "icon": null, "id": "areasnuevas-13" }, "geometry": { "type": "Polygon", "coordinates": [ [ [ -58.771624906500008, -27.532418803700001, 0.0 ], [ -58.7721404945, -27.532666219300001, 0.0 ], [ -58.769600824599998, -27.5351050029, 0.0 ], [ -58.7686562377, -27.5350075104, 0.0 ], [ -58.771624906500008, -27.532418803700001, 0.0 ] ] ] } },
{ "type": "Feature", "properties": { "Name": null, "description": "DIVISION<BR><BR><B>ELEVATION</B> = 0", "timestamp": null, "begin": null, "end": null, "altitudeMode": "relativeToGround", "tessellate": -1, "extrude": 1, "visibility": -1, "drawOrder": null, "icon": null, "id": "areasnuevas-14" }, "geometry": { "type": "Polygon", "coordinates": [ [ [ -58.759085581799987, -27.543351916199999, 0.0 ], [ -58.761424668700002, -27.544607593599999, 0.0 ], [ -58.759569170699997, -27.545298161, 0.0 ], [ -58.757918374299997, -27.544411956400001, 0.0 ], [ -58.759085581799987, -27.543351916199999, 0.0 ] ] ] } },
{ "type": "Feature", "properties": { "Name": null, "description": "DIVISION<BR><BR><B>ELEVATION</B> = 0", "timestamp": null, "begin": null, "end": null, "altitudeMode": "relativeToGround", "tessellate": -1, "extrude": 1, "visibility": -1, "drawOrder": null, "icon": null, "id": "areasnuevas-15" }, "geometry": null },
{ "type": "Feature", "properties": { "Name": null, "description": "DIVISION<BR><BR><B>ELEVATION</B> = 0", "timestamp": null, "begin": null, "end": null, "altitudeMode": "relativeToGround", "tessellate": -1, "extrude": 1, "visibility": -1, "drawOrder": null, "icon": null, "id": "areasnuevas-16" }, "geometry": null },
{ "type": "Feature", "properties": { "Name": null, "description": "DIVISION<BR><BR><B>ELEVATION</B> = 0", "timestamp": null, "begin": null, "end": null, "altitudeMode": "relativeToGround", "tessellate": -1, "extrude": 1, "visibility": -1, "drawOrder": null, "icon": null, "id": "areasnuevas-17" }, "geometry": null },
{ "type": "Feature", "properties": { "Name": null, "description": "DIVISION<BR><BR><B>ELEVATION</B> = 0", "timestamp": null, "begin": null, "end": null, "altitudeMode": "relativeToGround", "tessellate": -1, "extrude": 1, "visibility": -1, "drawOrder": null, "icon": null, "id": "areasnuevas-18" }, "geometry": { "type": "Polygon", "coordinates": [ [ [ -58.765607313399997, -27.545228884899998, 0.0 ], [ -58.770006318900002, -27.544679724, 0.0 ], [ -58.770297631199988, -27.548468927599998, 0.0 ], [ -58.769669094199998, -27.547624791, 0.0 ], [ -58.768866295700008, -27.547320129799999, 0.0 ], [ -58.767764252, -27.547562012699998, 0.0 ], [ -58.767140074, -27.5478028677, 0.0 ], [ -58.766355073500002, -27.548146562900001, 0.0 ], [ -58.765607313399997, -27.545228884899998, 0.0 ] ] ] } },
{ "type": "Feature", "properties": { "Name": null, "description": "DIVISION<BR><BR><B>ELEVATION</B> = 0", "timestamp": null, "begin": null, "end": null, "altitudeMode": "relativeToGround", "tessellate": -1, "extrude": 1, "visibility": -1, "drawOrder": null, "icon": null, "id": "areasnuevas-19" }, "geometry": { "type": "Polygon", "coordinates": [ [ [ -58.759877601200003, -27.546777204, 0.0 ], [ -58.762246188, -27.5458889855, 0.0 ], [ -58.76339956, -27.550389795200001, 0.0 ], [ -58.763107662300001, -27.550692509299999, 0.0 ], [ -58.76255699179999, -27.5513687764, 0.0 ], [ -58.76213438740001, -27.551555204500001, 0.0 ], [ -58.761889025599999, -27.551177098299991, 0.0 ], [ -58.7617510774, -27.550482556199999, 0.0 ], [ -58.761557166599999, -27.549749735599999, 0.0 ], [ -58.760727326800001, -27.5488489484, 0.0 ], [ -58.7593873848, -27.548415736300001, 0.0 ], [ -58.759347500099999, -27.548414149500001, 0.0 ], [ -58.759877601200003, -27.546777204, 0.0 ] ] ] } },
{ "type": "Feature", "properties": { "Name": null, "description": "DIVISION<BR><BR><B>ELEVATION</B> = 0", "timestamp": null, "begin": null, "end": null, "altitudeMode": "relativeToGround", "tessellate": -1, "extrude": 1, "visibility": -1, "drawOrder": null, "icon": null, "id": "areasnuevas-20" }, "geometry": { "type": "Polygon", "coordinates": [ [ [ -58.752474627600009, -27.5518565914, 0.0 ], [ -58.753120964099999, -27.549907167, 0.0 ], [ -58.7538327356, -27.548649170600001, 0.0 ], [ -58.755796973, -27.552965303600001, 0.0 ], [ -58.755309810900002, -27.5534579626, 0.0 ], [ -58.754052848599997, -27.554352533799999, 0.0 ], [ -58.753671233200002, -27.554525221199999, 0.0 ], [ -58.752089772, -27.554629738199999, 0.0 ], [ -58.752474627600009, -27.5518565914, 0.0 ] ] ] } },
{ "type": "Feature", "properties": { "Name": null, "description": null, "timestamp": null, "begin": null, "end": null, "altitudeMode": null, "tessellate": null, "extrude": null, "visibility": null, "drawOrder": null, "icon": null, "id": null }, "geometry": null },
{ "type": "Feature", "properties": { "Name": null, "description": null, "timestamp": null, "begin": null, "end": null, "altitudeMode": null, "tessellate": null, "extrude": null, "visibility": null, "drawOrder": null, "icon": null, "id": null }, "geometry": null }
]
}
