{
  "type": "FeatureCollection",
  "name": "ejercitoarg",
  "crs": {
    "type": "name",
    "properties": {
      "name": "urn:ogc:def:crs:OGC:1.3:CRS84"
    }
  },
  "features": [
    {
      "type": "Feature",
      "properties": {
        "fid": 1,
        "id": "ejercitoarg-1"
      },
      "geometry": {
        "type": "Polygon",
        "coordinates": [
          [
            [
              -58.803551130327776,
              -27.53792718240525
            ],
            [
              -58.79472777064945,
              -27.539185547460043
            ],
            [
              -58.79449090193325,
              -27.53999978367197
            ],
            [
              -58.794446489048966,
              -27.54065117264151
            ],
            [
              -58.79449090193325,
              -27.541332170200576
            ],
            [
              -58.794505706228016,
              -27.54167266898011
            ],
            [
              -58.79453531481754,
              -27.54174669045392
            ],
            [
              -58.80396565058112,
              -27.540310673861978
            ],
            [
              -58.803551130327776,
              -27.53792718240525
            ]
          ]
        ]
      }
    }
  ]
}