{
  "type": "FeatureCollection",
  "name": "hipico2",
  "crs": {
    "type": "name",
    "properties": {
      "name": "urn:ogc:def:crs:OGC:1.3:CRS84"
    }
  },
  "features": [
    {
      "type": "Feature",
      "properties": {
        "fid": 1,
        "id": "hipico2-1"
      },
      "geometry": {
        "type": "Polygon",
        "coordinates": [
          [
            [
              -58.76541127911445,
              -27.540964467263404
            ],
            [
              -58.76516378685955,
              -27.541208539399204
            ],
            [
              -58.76328734628811,
              -27.539689345813855
            ],
            [
              -58.76545593498763,
              -27.53780136234048
            ],
            [
              -58.765066663250025,
              -27.538399572263106
            ],
            [
              -58.7651363093117,
              -27.540086001899468
            ],
            [
              -58.76541127911445,
              -27.540964467263404
            ]
          ]
        ]
      }
    }
  ]
}