{
"type": "FeatureCollection",
"name": "hipico4",
"crs": { "type": "name", "properties": { "name": "urn:ogc:def:crs:OGC:1.3:CRS84" } },
"features": [
{ "type": "Feature", "properties": { "fid": 1 }, "geometry": { "type": "Polygon", "coordinates": [ [ [ -58.765412406198919, -27.540976476545207 ], [ -58.765644974297764, -27.541791086730914 ], [ -58.765604476978403, -27.542294621538449 ], [ -58.764906772681947, -27.543136592676952 ], [ -58.764902419803107, -27.543142811075324 ], [ -58.765136231581586, -27.543805070501115 ], [ -58.763931105978592, -27.543964261499237 ], [ -58.762757072367428, -27.544178174402969 ], [ -58.76187157244037, -27.54445924600903 ], [ -58.765412406198919, -27.540976476545207 ] ] ] } }
]
}
