{
"type": "FeatureCollection",
"name": "hipico_zonificacion",
"crs": { "type": "name", "properties": { "name": "urn:ogc:def:crs:OGC:1.3:CRS84" } },
"features": [
{ "type": "Feature", "properties": { "Name": null, "description": "DIVISION<BR><BR><B>ELEVATION</B> = 0", "timestamp": null, "begin": null, "end": null, "altitudeMode": "relativeToGround", "tessellate": -1, "extrude": 1, "visibility": -1, "drawOrder": null, "icon": null, "id": "areasnuevas-1", "fid": null, "layer": "area1", "path": "C:/Users/Agos/Downloads/area1.geojson" }, "geometry": { "type": "Polygon", "coordinates": [ ] } },
{ "type": "Feature", "properties": { "Name": null, "description": "DIVISION<BR><BR><B>ELEVATION</B> = 0", "timestamp": null, "begin": null, "end": null, "altitudeMode": "relativeToGround", "tessellate": -1, "extrude": 1, "visibility": -1, "drawOrder": null, "icon": null, "id": "areasnuevas-2", "fid": null, "layer": "area1", "path": "C:/Users/Agos/Downloads/area1.geojson" }, "geometry": { "type": "Polygon", "coordinates": [ ] } },
{ "type": "Feature", "properties": { "Name": null, "description": "DIVISION<BR><BR><B>ELEVATION</B> = 0", "timestamp": null, "begin": null, "end": null, "altitudeMode": "relativeToGround", "tessellate": -1, "extrude": 1, "visibility": -1, "drawOrder": null, "icon": null, "id": "areasnuevas-3", "fid": null, "layer": "area1", "path": "C:/Users/Agos/Downloads/area1.geojson" }, "geometry": { "type": "Polygon", "coordinates": [ ] } },
{ "type": "Feature", "properties": { "Name": null, "description": "DIVISION<BR><BR><B>ELEVATION</B> = 0", "timestamp": null, "begin": null, "end": null, "altitudeMode": "relativeToGround", "tessellate": -1, "extrude": 1, "visibility": -1, "drawOrder": null, "icon": null, "id": "areasnuevas-4", "fid": null, "layer": "area1", "path": "C:/Users/Agos/Downloads/area1.geojson" }, "geometry": { "type": "Polygon", "coordinates": [ ] } },
{ "type": "Feature", "properties": { "Name": null, "description": "DIVISION<BR><BR><B>ELEVATION</B> = 0", "timestamp": null, "begin": null, "end": null, "altitudeMode": "relativeToGround", "tessellate": -1, "extrude": 1, "visibility": -1, "drawOrder": null, "icon": null, "id": "areasnuevas-5", "fid": null, "layer": "area1", "path": "C:/Users/Agos/Downloads/area1.geojson" }, "geometry": { "type": "Polygon", "coordinates": [ ] } },
{ "type": "Feature", "properties": { "Name": null, "description": "DIVISION<BR><BR><B>ELEVATION</B> = 0", "timestamp": null, "begin": null, "end": null, "altitudeMode": "relativeToGround", "tessellate": -1, "extrude": 1, "visibility": -1, "drawOrder": null, "icon": null, "id": "areasnuevas-6", "fid": null, "layer": "area1", "path": "C:/Users/Agos/Downloads/area1.geojson" }, "geometry": { "type": "Polygon", "coordinates": [ ] } },
{ "type": "Feature", "properties": { "Name": null, "description": "DIVISION<BR><BR><B>ELEVATION</B> = 0", "timestamp": null, "begin": null, "end": null, "altitudeMode": "relativeToGround", "tessellate": -1, "extrude": 1, "visibility": -1, "drawOrder": null, "icon": null, "id": "areasnuevas-7", "fid": null, "layer": "area1", "path": "C:/Users/Agos/Downloads/area1.geojson" }, "geometry": { "type": "Polygon", "coordinates": [ [ [ -58.762440920300001, -27.540426708799998, 0.0 ], [ -58.763286638700002, -27.539689367400001, 0.0 ], [ -58.7651638854, -27.541211333, 0.0 ], [ -58.764369254199998, -27.541990103700002, 0.0 ], [ -58.762440920300001, -27.540426708799998, 0.0 ] ] ] } },
{ "type": "Feature", "properties": { "Name": null, "description": "DIVISION<BR><BR><B>ELEVATION</B> = 0", "timestamp": null, "begin": null, "end": null, "altitudeMode": "relativeToGround", "tessellate": -1, "extrude": 1, "visibility": -1, "drawOrder": null, "icon": null, "id": "areasnuevas-8", "fid": null, "layer": "area1", "path": "C:/Users/Agos/Downloads/area1.geojson" }, "geometry": { "type": "Polygon", "coordinates": [ [ [ -58.761618813799998, -27.5411434494, 0.0 ], [ -58.762440920300001, -27.540426708799998, 0.0 ], [ -58.764369254199998, -27.541990103700002, 0.0 ], [ -58.763596807899987, -27.542747116899999, 0.0 ], [ -58.761618813799998, -27.5411434494, 0.0 ] ] ] } },
{ "type": "Feature", "properties": { "Name": null, "description": "DIVISION<BR><BR><B>ELEVATION</B> = 0", "timestamp": null, "begin": null, "end": null, "altitudeMode": "relativeToGround", "tessellate": -1, "extrude": 1, "visibility": -1, "drawOrder": null, "icon": null, "id": "areasnuevas-9", "fid": null, "layer": "area1", "path": "C:/Users/Agos/Downloads/area1.geojson" }, "geometry": { "type": "Polygon", "coordinates": [ [ [ -58.7608184447, -27.541841224599999, 0.0 ], [ -58.761618813799998, -27.5411434494, 0.0 ], [ -58.763596807899987, -27.542747116899999, 0.0 ], [ -58.762844785299997, -27.543484099899999, 0.0 ], [ -58.7608184447, -27.541841224599999, 0.0 ] ] ] } },
{ "type": "Feature", "properties": { "Name": null, "description": "DIVISION<BR><BR><B>ELEVATION</B> = 0", "timestamp": null, "begin": null, "end": null, "altitudeMode": "relativeToGround", "tessellate": -1, "extrude": 1, "visibility": -1, "drawOrder": null, "icon": null, "id": "areasnuevas-10", "fid": null, "layer": "area1", "path": "C:/Users/Agos/Downloads/area1.geojson" }, "geometry": { "type": "Polygon", "coordinates": [ [ [ -58.760038174100011, -27.542521464299998, 0.0 ], [ -58.7608184447, -27.541841224599999, 0.0 ], [ -58.762844785299997, -27.543484099899999, 0.0 ], [ -58.762111646500003, -27.544202562799999, 0.0 ], [ -58.760038174100011, -27.542521464299998, 0.0 ] ] ] } },
{ "type": "Feature", "properties": { "Name": null, "description": "DIVISION<BR><BR><B>ELEVATION</B> = 0", "timestamp": null, "begin": null, "end": null, "altitudeMode": "relativeToGround", "tessellate": -1, "extrude": 1, "visibility": -1, "drawOrder": null, "icon": null, "id": "areasnuevas-11", "fid": null, "layer": "area1", "path": "C:/Users/Agos/Downloads/area1.geojson" }, "geometry": { "type": "Polygon", "coordinates": [ [ [ -58.760038174100011, -27.542521464299998, 0.0 ], [ -58.762111646500003, -27.544202562799999, 0.0 ], [ -58.761843988800003, -27.544464859200001, 0.0 ], [ -58.761424668700002, -27.544607593599999, 0.0 ], [ -58.759085581799987, -27.543351916199999, 0.0 ], [ -58.760038174100011, -27.542521464299998, 0.0 ] ] ] } },
{ "type": "Feature", "properties": { "Name": null, "description": "DIVISION<BR><BR><B>ELEVATION</B> = 0", "timestamp": null, "begin": null, "end": null, "altitudeMode": "relativeToGround", "tessellate": -1, "extrude": 1, "visibility": -1, "drawOrder": null, "icon": null, "id": "areasnuevas-12", "fid": null, "layer": "area1", "path": "C:/Users/Agos/Downloads/area1.geojson" }, "geometry": { "type": "Polygon", "coordinates": [ [ [ -58.7721404945, -27.532666219300001, 0.0 ], [ -58.772656064300001, -27.532913623199999, 0.0 ], [ -58.770691809100001, -27.535217597300001, 0.0 ], [ -58.769600824599998, -27.5351050029, 0.0 ], [ -58.7721404945, -27.532666219300001, 0.0 ] ] ] } },
{ "type": "Feature", "properties": { "Name": null, "description": "DIVISION<BR><BR><B>ELEVATION</B> = 0", "timestamp": null, "begin": null, "end": null, "altitudeMode": "relativeToGround", "tessellate": -1, "extrude": 1, "visibility": -1, "drawOrder": null, "icon": null, "id": "areasnuevas-13", "fid": null, "layer": "area1", "path": "C:/Users/Agos/Downloads/area1.geojson" }, "geometry": { "type": "Polygon", "coordinates": [ [ [ -58.771624906500008, -27.532418803700001, 0.0 ], [ -58.7721404945, -27.532666219300001, 0.0 ], [ -58.769600824599998, -27.5351050029, 0.0 ], [ -58.7686562377, -27.5350075104, 0.0 ], [ -58.771624906500008, -27.532418803700001, 0.0 ] ] ] } },
{ "type": "Feature", "properties": { "Name": null, "description": "DIVISION<BR><BR><B>ELEVATION</B> = 0", "timestamp": null, "begin": null, "end": null, "altitudeMode": "relativeToGround", "tessellate": -1, "extrude": 1, "visibility": -1, "drawOrder": null, "icon": null, "id": "areasnuevas-14", "fid": null, "layer": "area1", "path": "C:/Users/Agos/Downloads/area1.geojson" }, "geometry": { "type": "Polygon", "coordinates": [ [ [ -58.759085581799987, -27.543351916199999, 0.0 ], [ -58.761424668700002, -27.544607593599999, 0.0 ], [ -58.759569170699997, -27.545298161, 0.0 ], [ -58.757918374299997, -27.544411956400001, 0.0 ], [ -58.759085581799987, -27.543351916199999, 0.0 ] ] ] } },
{ "type": "Feature", "properties": { "Name": null, "description": "DIVISION<BR><BR><B>ELEVATION</B> = 0", "timestamp": null, "begin": null, "end": null, "altitudeMode": "relativeToGround", "tessellate": -1, "extrude": 1, "visibility": -1, "drawOrder": null, "icon": null, "id": "areasnuevas-15", "fid": null, "layer": "area1", "path": "C:/Users/Agos/Downloads/area1.geojson" }, "geometry": { "type": "Polygon", "coordinates": [ ] } },
{ "type": "Feature", "properties": { "Name": null, "description": "DIVISION<BR><BR><B>ELEVATION</B> = 0", "timestamp": null, "begin": null, "end": null, "altitudeMode": "relativeToGround", "tessellate": -1, "extrude": 1, "visibility": -1, "drawOrder": null, "icon": null, "id": "areasnuevas-16", "fid": null, "layer": "area1", "path": "C:/Users/Agos/Downloads/area1.geojson" }, "geometry": { "type": "Polygon", "coordinates": [ ] } },
{ "type": "Feature", "properties": { "Name": null, "description": "DIVISION<BR><BR><B>ELEVATION</B> = 0", "timestamp": null, "begin": null, "end": null, "altitudeMode": "relativeToGround", "tessellate": -1, "extrude": 1, "visibility": -1, "drawOrder": null, "icon": null, "id": "areasnuevas-17", "fid": null, "layer": "area1", "path": "C:/Users/Agos/Downloads/area1.geojson" }, "geometry": { "type": "Polygon", "coordinates": [ ] } },
{ "type": "Feature", "properties": { "Name": null, "description": "DIVISION<BR><BR><B>ELEVATION</B> = 0", "timestamp": null, "begin": null, "end": null, "altitudeMode": "relativeToGround", "tessellate": -1, "extrude": 1, "visibility": -1, "drawOrder": null, "icon": null, "id": "areasnuevas-18", "fid": null, "layer": "area1", "path": "C:/Users/Agos/Downloads/area1.geojson" }, "geometry": { "type": "Polygon", "coordinates": [ ] } },
{ "type": "Feature", "properties": { "Name": null, "description": "DIVISION<BR><BR><B>ELEVATION</B> = 0", "timestamp": null, "begin": null, "end": null, "altitudeMode": "relativeToGround", "tessellate": -1, "extrude": 1, "visibility": -1, "drawOrder": null, "icon": null, "id": "areasnuevas-19", "fid": null, "layer": "area1", "path": "C:/Users/Agos/Downloads/area1.geojson" }, "geometry": { "type": "Polygon", "coordinates": [ ] } },
{ "type": "Feature", "properties": { "Name": null, "description": "DIVISION<BR><BR><B>ELEVATION</B> = 0", "timestamp": null, "begin": null, "end": null, "altitudeMode": "relativeToGround", "tessellate": -1, "extrude": 1, "visibility": -1, "drawOrder": null, "icon": null, "id": "areasnuevas-20", "fid": null, "layer": "area1", "path": "C:/Users/Agos/Downloads/area1.geojson" }, "geometry": { "type": "Polygon", "coordinates": [ ] } },
{ "type": "Feature", "properties": { "Name": null, "description": null, "timestamp": null, "begin": null, "end": null, "altitudeMode": null, "tessellate": null, "extrude": null, "visibility": null, "drawOrder": null, "icon": null, "id": null, "fid": null, "layer": "area1", "path": "C:/Users/Agos/Downloads/area1.geojson" }, "geometry": { "type": "Polygon", "coordinates": [ ] } },
{ "type": "Feature", "properties": { "Name": null, "description": null, "timestamp": null, "begin": null, "end": null, "altitudeMode": null, "tessellate": null, "extrude": null, "visibility": null, "drawOrder": null, "icon": null, "id": null, "fid": null, "layer": "area1", "path": "C:/Users/Agos/Downloads/area1.geojson" }, "geometry": { "type": "Polygon", "coordinates": [ ] } },
{ "type": "Feature", "properties": { "Name": null, "description": "DIVISION<BR><BR><B>ELEVATION</B> = 0", "timestamp": null, "begin": null, "end": null, "altitudeMode": "relativeToGround", "tessellate": -1, "extrude": 1, "visibility": -1, "drawOrder": null, "icon": null, "id": "hipico1-1", "fid": null, "layer": "hipico1", "path": "C:/Users/Agos/Downloads/hipico1.geojson" }, "geometry": { "type": "Polygon", "coordinates": [ ] } },
{ "type": "Feature", "properties": { "Name": null, "description": "DIVISION<BR><BR><B>ELEVATION</B> = 0", "timestamp": null, "begin": null, "end": null, "altitudeMode": "relativeToGround", "tessellate": -1, "extrude": 1, "visibility": -1, "drawOrder": null, "icon": null, "id": "hipico1-2", "fid": null, "layer": "hipico1", "path": "C:/Users/Agos/Downloads/hipico1.geojson" }, "geometry": { "type": "Polygon", "coordinates": [ ] } },
{ "type": "Feature", "properties": { "Name": null, "description": "DIVISION<BR><BR><B>ELEVATION</B> = 0", "timestamp": null, "begin": null, "end": null, "altitudeMode": "relativeToGround", "tessellate": -1, "extrude": 1, "visibility": -1, "drawOrder": null, "icon": null, "id": "hipico1-3", "fid": null, "layer": "hipico1", "path": "C:/Users/Agos/Downloads/hipico1.geojson" }, "geometry": { "type": "Polygon", "coordinates": [ ] } },
{ "type": "Feature", "properties": { "Name": null, "description": "DIVISION<BR><BR><B>ELEVATION</B> = 0", "timestamp": null, "begin": null, "end": null, "altitudeMode": "relativeToGround", "tessellate": -1, "extrude": 1, "visibility": -1, "drawOrder": null, "icon": null, "id": "hipico1-4", "fid": null, "layer": "hipico1", "path": "C:/Users/Agos/Downloads/hipico1.geojson" }, "geometry": { "type": "Polygon", "coordinates": [ ] } },
{ "type": "Feature", "properties": { "Name": null, "description": "DIVISION<BR><BR><B>ELEVATION</B> = 0", "timestamp": null, "begin": null, "end": null, "altitudeMode": "relativeToGround", "tessellate": -1, "extrude": 1, "visibility": -1, "drawOrder": null, "icon": null, "id": "hipico1-5", "fid": null, "layer": "hipico1", "path": "C:/Users/Agos/Downloads/hipico1.geojson" }, "geometry": { "type": "Polygon", "coordinates": [ ] } },
{ "type": "Feature", "properties": { "Name": null, "description": "DIVISION<BR><BR><B>ELEVATION</B> = 0", "timestamp": null, "begin": null, "end": null, "altitudeMode": "relativeToGround", "tessellate": -1, "extrude": 1, "visibility": -1, "drawOrder": null, "icon": null, "id": "hipico1-6", "fid": null, "layer": "hipico1", "path": "C:/Users/Agos/Downloads/hipico1.geojson" }, "geometry": { "type": "Polygon", "coordinates": [ ] } },
{ "type": "Feature", "properties": { "Name": null, "description": "DIVISION<BR><BR><B>ELEVATION</B> = 0", "timestamp": null, "begin": null, "end": null, "altitudeMode": "relativeToGround", "tessellate": -1, "extrude": 1, "visibility": -1, "drawOrder": null, "icon": null, "id": "hipico1-7", "fid": null, "layer": "hipico1", "path": "C:/Users/Agos/Downloads/hipico1.geojson" }, "geometry": { "type": "Polygon", "coordinates": [ ] } },
{ "type": "Feature", "properties": { "Name": null, "description": "DIVISION<BR><BR><B>ELEVATION</B> = 0", "timestamp": null, "begin": null, "end": null, "altitudeMode": "relativeToGround", "tessellate": -1, "extrude": 1, "visibility": -1, "drawOrder": null, "icon": null, "id": "hipico1-8", "fid": null, "layer": "hipico1", "path": "C:/Users/Agos/Downloads/hipico1.geojson" }, "geometry": { "type": "Polygon", "coordinates": [ ] } },
{ "type": "Feature", "properties": { "Name": null, "description": "DIVISION<BR><BR><B>ELEVATION</B> = 0", "timestamp": null, "begin": null, "end": null, "altitudeMode": "relativeToGround", "tessellate": -1, "extrude": 1, "visibility": -1, "drawOrder": null, "icon": null, "id": "hipico1-9", "fid": null, "layer": "hipico1", "path": "C:/Users/Agos/Downloads/hipico1.geojson" }, "geometry": { "type": "Polygon", "coordinates": [ ] } },
{ "type": "Feature", "properties": { "Name": null, "description": "DIVISION<BR><BR><B>ELEVATION</B> = 0", "timestamp": null, "begin": null, "end": null, "altitudeMode": "relativeToGround", "tessellate": -1, "extrude": 1, "visibility": -1, "drawOrder": null, "icon": null, "id": "hipico1-10", "fid": null, "layer": "hipico1", "path": "C:/Users/Agos/Downloads/hipico1.geojson" }, "geometry": { "type": "Polygon", "coordinates": [ ] } },
{ "type": "Feature", "properties": { "Name": null, "description": "DIVISION<BR><BR><B>ELEVATION</B> = 0", "timestamp": null, "begin": null, "end": null, "altitudeMode": "relativeToGround", "tessellate": -1, "extrude": 1, "visibility": -1, "drawOrder": null, "icon": null, "id": "hipico1-11", "fid": null, "layer": "hipico1", "path": "C:/Users/Agos/Downloads/hipico1.geojson" }, "geometry": { "type": "Polygon", "coordinates": [ ] } },
{ "type": "Feature", "properties": { "Name": null, "description": "DIVISION<BR><BR><B>ELEVATION</B> = 0", "timestamp": null, "begin": null, "end": null, "altitudeMode": "relativeToGround", "tessellate": -1, "extrude": 1, "visibility": -1, "drawOrder": null, "icon": null, "id": "hipico1-12", "fid": null, "layer": "hipico1", "path": "C:/Users/Agos/Downloads/hipico1.geojson" }, "geometry": { "type": "Polygon", "coordinates": [ ] } },
{ "type": "Feature", "properties": { "Name": null, "description": "DIVISION<BR><BR><B>ELEVATION</B> = 0", "timestamp": null, "begin": null, "end": null, "altitudeMode": "relativeToGround", "tessellate": -1, "extrude": 1, "visibility": -1, "drawOrder": null, "icon": null, "id": "hipico1-13", "fid": null, "layer": "hipico1", "path": "C:/Users/Agos/Downloads/hipico1.geojson" }, "geometry": { "type": "Polygon", "coordinates": [ ] } },
{ "type": "Feature", "properties": { "Name": null, "description": "DIVISION<BR><BR><B>ELEVATION</B> = 0", "timestamp": null, "begin": null, "end": null, "altitudeMode": "relativeToGround", "tessellate": -1, "extrude": 1, "visibility": -1, "drawOrder": null, "icon": null, "id": "hipico1-14", "fid": null, "layer": "hipico1", "path": "C:/Users/Agos/Downloads/hipico1.geojson" }, "geometry": { "type": "Polygon", "coordinates": [ ] } },
{ "type": "Feature", "properties": { "Name": null, "description": "DIVISION<BR><BR><B>ELEVATION</B> = 0", "timestamp": null, "begin": null, "end": null, "altitudeMode": "relativeToGround", "tessellate": -1, "extrude": 1, "visibility": -1, "drawOrder": null, "icon": null, "id": "hipico1-15", "fid": null, "layer": "hipico1", "path": "C:/Users/Agos/Downloads/hipico1.geojson" }, "geometry": { "type": "Polygon", "coordinates": [ [ [ -58.765468230400003, -27.537787270500001, 0.0 ], [ -58.7683768176, -27.535251157499999, 0.0 ], [ -58.770517673299999, -27.535472113800001, 0.0 ], [ -58.770290303499998, -27.537597862599998, 0.0 ], [ -58.769659763600011, -27.542811344, 0.0 ], [ -58.769693061499993, -27.5432444934, 0.0 ], [ -58.76514751, -27.543802557799999, 0.0 ], [ -58.764914736199998, -27.543143648, 0.0 ], [ -58.765610607299998, -27.5422991499, 0.0 ], [ -58.765652912299998, -27.54179391, 0.0 ], [ -58.765158856200003, -27.540074928300001, 0.0 ], [ -58.7650782682, -27.5383980111, 0.0 ], [ -58.765468230400003, -27.537787270500001, 0.0 ] ] ] } },
{ "type": "Feature", "properties": { "Name": null, "description": "DIVISION<BR><BR><B>ELEVATION</B> = 0", "timestamp": null, "begin": null, "end": null, "altitudeMode": "relativeToGround", "tessellate": -1, "extrude": 1, "visibility": -1, "drawOrder": null, "icon": null, "id": "hipico1-16", "fid": null, "layer": "hipico1", "path": "C:/Users/Agos/Downloads/hipico1.geojson" }, "geometry": { "type": "Polygon", "coordinates": [ ] } },
{ "type": "Feature", "properties": { "Name": null, "description": "DIVISION<BR><BR><B>ELEVATION</B> = 0", "timestamp": null, "begin": null, "end": null, "altitudeMode": "relativeToGround", "tessellate": -1, "extrude": 1, "visibility": -1, "drawOrder": null, "icon": null, "id": "hipico1-17", "fid": null, "layer": "hipico1", "path": "C:/Users/Agos/Downloads/hipico1.geojson" }, "geometry": { "type": "Polygon", "coordinates": [ ] } },
{ "type": "Feature", "properties": { "Name": null, "description": "DIVISION<BR><BR><B>ELEVATION</B> = 0", "timestamp": null, "begin": null, "end": null, "altitudeMode": "relativeToGround", "tessellate": -1, "extrude": 1, "visibility": -1, "drawOrder": null, "icon": null, "id": "hipico1-18", "fid": null, "layer": "hipico1", "path": "C:/Users/Agos/Downloads/hipico1.geojson" }, "geometry": { "type": "Polygon", "coordinates": [ ] } },
{ "type": "Feature", "properties": { "Name": null, "description": "DIVISION<BR><BR><B>ELEVATION</B> = 0", "timestamp": null, "begin": null, "end": null, "altitudeMode": "relativeToGround", "tessellate": -1, "extrude": 1, "visibility": -1, "drawOrder": null, "icon": null, "id": "hipico1-19", "fid": null, "layer": "hipico1", "path": "C:/Users/Agos/Downloads/hipico1.geojson" }, "geometry": { "type": "Polygon", "coordinates": [ ] } },
{ "type": "Feature", "properties": { "Name": null, "description": "DIVISION<BR><BR><B>ELEVATION</B> = 0", "timestamp": null, "begin": null, "end": null, "altitudeMode": "relativeToGround", "tessellate": -1, "extrude": 1, "visibility": -1, "drawOrder": null, "icon": null, "id": "hipico1-20", "fid": null, "layer": "hipico1", "path": "C:/Users/Agos/Downloads/hipico1.geojson" }, "geometry": { "type": "Polygon", "coordinates": [ ] } },
{ "type": "Feature", "properties": { "Name": null, "description": null, "timestamp": null, "begin": null, "end": null, "altitudeMode": null, "tessellate": null, "extrude": null, "visibility": null, "drawOrder": null, "icon": null, "id": "hipico2-1", "fid": 1, "layer": "hipico2", "path": "C:/Users/Agos/Downloads/hipico2.geojson" }, "geometry": { "type": "Polygon", "coordinates": [ [ [ -58.765411279114453, -27.540964467263404, 0.0 ], [ -58.765163786859553, -27.541208539399204, 0.0 ], [ -58.763287346288109, -27.539689345813855, 0.0 ], [ -58.765455934987628, -27.537801362340481, 0.0 ], [ -58.765066663250025, -27.538399572263106, 0.0 ], [ -58.7651363093117, -27.540086001899468, 0.0 ], [ -58.765411279114453, -27.540964467263404, 0.0 ] ] ] } },
{ "type": "Feature", "properties": { "Name": null, "description": null, "timestamp": null, "begin": null, "end": null, "altitudeMode": null, "tessellate": null, "extrude": null, "visibility": null, "drawOrder": null, "icon": null, "id": "hipico3-1", "fid": 1, "layer": "hipico3", "path": "C:/Users/Agos/Downloads/hipico3.geojson" }, "geometry": { "type": "Polygon", "coordinates": [ [ [ -58.759544725502565, -27.545299507088032, 0.0 ], [ -58.757917992490476, -27.544420225559325, 0.0 ], [ -58.755372180200126, -27.546728495032113, 0.0 ], [ -58.7552403501548, -27.546877736592855, 0.0 ], [ -58.755940541810588, -27.546668798407822, 0.0 ], [ -58.759544725502565, -27.545299507088032, 0.0 ] ] ] } },
{ "type": "Feature", "properties": { "Name": null, "description": null, "timestamp": null, "begin": null, "end": null, "altitudeMode": null, "tessellate": null, "extrude": null, "visibility": null, "drawOrder": null, "icon": null, "id": "hipico4-1", "fid": 1, "layer": "hipico4", "path": "C:/Users/Agos/Downloads/hipico4.geojson" }, "geometry": { "type": "Polygon", "coordinates": [ [ [ -58.765412406198919, -27.540976476545207, 0.0 ], [ -58.765644974297764, -27.541791086730914, 0.0 ], [ -58.765604476978403, -27.542294621538449, 0.0 ], [ -58.764906772681947, -27.543136592676952, 0.0 ], [ -58.764902419803107, -27.543142811075324, 0.0 ], [ -58.765136231581586, -27.543805070501115, 0.0 ], [ -58.763931105978592, -27.543964261499237, 0.0 ], [ -58.762757072367428, -27.544178174402969, 0.0 ], [ -58.76187157244037, -27.54445924600903, 0.0 ], [ -58.765412406198919, -27.540976476545207, 0.0 ] ] ] } }
]
}
