{
  "type": "FeatureCollection",
  "name": "hipico3",
  "crs": {
    "type": "name",
    "properties": {
      "name": "urn:ogc:def:crs:OGC:1.3:CRS84"
    }
  },
  "features": [
    {
      "type": "Feature",
      "properties": {
        "fid": 1,
        "id": "hipico3-1"
      },
      "geometry": {
        "type": "Polygon",
        "coordinates": [
          [
            [
              -58.759544725502565,
              -27.545299507088032
            ],
            [
              -58.757917992490476,
              -27.544420225559325
            ],
            [
              -58.755372180200126,
              -27.546728495032113
            ],
            [
              -58.7552403501548,
              -27.546877736592855
            ],
            [
              -58.75594054181059,
              -27.546668798407822
            ],
            [
              -58.759544725502565,
              -27.545299507088032
            ]
          ]
        ]
      }
    }
  ]
}