{
  "type": "FeatureCollection",
  "name": "todoic3",
  "crs": {
    "type": "name",
    "properties": {
      "name": "urn:ogc:def:crs:OGC:1.3:CRS84"
    }
  },
  "features": [
    {
      "type": "Feature",
      "properties": {
        "fid": 1,
        "id": "ic3-1"
      },
      "geometry": {
        "type": "Polygon",
        "coordinates": [
          [
            [
              -58.81529300168087,
              -27.520884392190556
            ],
            [
              -58.8075857537595,
              -27.522018599010966
            ],
            [
              -58.80870656443641,
              -27.527832525310874
            ],
            [
              -58.81329251091107,
              -27.527149321989924
            ],
            [
              -58.81529300168087,
              -27.520884392190556
            ]
          ]
        ]
      }
    }
  ]
}