{
"type": "FeatureCollection",
"name": "invicoresidencialunificado",
"crs": { "type": "name", "properties": { "name": "urn:ogc:def:crs:OGC:1.3:CRS84" } },
"features": [
{ "type": "Feature", "properties": { "fid": 1 }, "geometry": { "type": "Polygon", "coordinates": [ [ [ -58.819561906091593, -27.520192258107251 ], [ -58.815694885987362, -27.520790619185735 ], [ -58.813747979791692, -27.527051083603908 ], [ -58.820669320624894, -27.525961530595321 ], [ -58.819561906091593, -27.520192258107251 ] ] ] } },
{ "type": "Feature", "properties": { "fid": 2 }, "geometry": { "type": "Polygon", "coordinates": [ [ [ -58.807232988646128, -27.522076648966365 ], [ -58.800740324406469, -27.523059032826559 ], [ -58.801847738939784, -27.528953335987744 ], [ -58.808402918516009, -27.527953090602814 ], [ -58.807232988646128, -27.522076648966365 ] ] ] } }
]
}
