{
  "type": "FeatureCollection",
  "name": "invicoresidencialunificado",
  "crs": {
    "type": "name",
    "properties": {
      "name": "urn:ogc:def:crs:OGC:1.3:CRS84"
    }
  },
  "features": [
    {
      "type": "Feature",
      "properties": {
        "fid": 1,
        "id": "invicoresidencial-1"
      },
      "geometry": {
        "type": "Polygon",
        "coordinates": [
          [
            [
              -58.81956190609159,
              -27.52019225810725
            ],
            [
              -58.81569488598736,
              -27.520790619185735
            ],
            [
              -58.81374797979169,
              -27.527051083603908
            ],
            [
              -58.820669320624894,
              -27.52596153059532
            ],
            [
              -58.81956190609159,
              -27.52019225810725
            ]
          ]
        ]
      }
    },
    {
      "type": "Feature",
      "properties": {
        "fid": 2,
        "id": "invicoresidencial-2"
      },
      "geometry": {
        "type": "Polygon",
        "coordinates": [
          [
            [
              -58.80723298864613,
              -27.522076648966365
            ],
            [
              -58.80074032440647,
              -27.52305903282656
            ],
            [
              -58.801847738939784,
              -27.528953335987744
            ],
            [
              -58.80840291851601,
              -27.527953090602814
            ],
            [
              -58.80723298864613,
              -27.522076648966365
            ]
          ]
        ]
      }
    }
  ]
}