{
  "type": "FeatureCollection",
  "name": "juicios-poligonos",
  "crs": {
    "type": "name",
    "properties": {
      "name": "urn:ogc:def:crs:OGC:1.3:CRS84"
    }
  },
  "features": [
    {
      "type": "Feature",
      "properties": {
        "fid": "1",
        "Name": null,
        "description": "0",
        "timestamp": null,
        "begin": null,
        "end": null,
        "altitudeMode": null,
        "tessellate": -1,
        "extrude": 0,
        "visibility": -1,
        "drawOrder": null,
        "icon": null,
        "layer": "capas_visibles — FIDEICOMISO - UNIFICADO — Area Features (#8)",
        "path": "C:/Users/Agos/Downloads/capas_visibles.gpkg|layername=FIDEICOMISO - UNIFICADO — Area Features (#8)",
        "id": "judicializados-1"
      },
      "geometry": {
        "type": "Polygon",
        "coordinates": [
          [
            [
              -58.8008745421,
              -27.5461463051,
              0
            ],
            [
              -58.8004286464,
              -27.5470679786,
              0
            ],
            [
              -58.7996970135,
              -27.5476140611,
              0
            ],
            [
              -58.79941246700001,
              -27.5475744608,
              0
            ],
            [
              -58.79850067870001,
              -27.5474261623,
              0
            ],
            [
              -58.797434502,
              -27.5472338243,
              0
            ],
            [
              -58.7973371679,
              -27.5472087143,
              0
            ],
            [
              -58.7973889722,
              -27.547192068,
              0
            ],
            [
              -58.7977957204,
              -27.5462681571,
              0
            ],
            [
              -58.797862067,
              -27.546015863,
              0
            ],
            [
              -58.79794083229999,
              -27.5458463008,
              0
            ],
            [
              -58.79792812550001,
              -27.5457668014,
              0
            ],
            [
              -58.7979603514,
              -27.5456392568,
              0
            ],
            [
              -58.7979394271,
              -27.5456382657,
              0
            ],
            [
              -58.7979117682,
              -27.5456273107,
              0
            ],
            [
              -58.79782246879999,
              -27.5454763953,
              0
            ],
            [
              -58.7978919023,
              -27.5451049074,
              0
            ],
            [
              -58.8008745421,
              -27.5461463051,
              0
            ]
          ]
        ]
      }
    },
    {
      "type": "Feature",
      "properties": {
        "fid": "1",
        "Name": "Croquis Sr. Arias",
        "description": null,
        "timestamp": null,
        "begin": null,
        "end": null,
        "altitudeMode": null,
        "tessellate": 1,
        "extrude": 0,
        "visibility": -1,
        "drawOrder": null,
        "icon": null,
        "layer": "capas_visibles — FIDEICOMISO - UNIFICADO — Croquis Valeria Perez Poseedora.kmz",
        "path": "C:/Users/Agos/Downloads/capas_visibles.gpkg|layername=FIDEICOMISO - UNIFICADO — Croquis Valeria Perez Poseedora.kmz",
        "id": "judicializados-2"
      },
      "geometry": {
        "type": "Polygon",
        "coordinates": [
          [
            [
              -58.80078388646126,
              -27.54458418287876,
              0
            ],
            [
              -58.7978279070989,
              -27.5445601037022,
              0
            ],
            [
              -58.79603183695711,
              -27.54381991952313,
              0
            ],
            [
              -58.79395870705108,
              -27.54352548794931,
              0
            ],
            [
              -58.79404202840995,
              -27.54255356816427,
              0
            ],
            [
              -58.79427653105471,
              -27.54182999586623,
              0
            ],
            [
              -58.79373884036292,
              -27.5413500342474,
              0
            ],
            [
              -58.7939576042659,
              -27.54005490911107,
              0
            ],
            [
              -58.79611091427324,
              -27.5397039362755,
              0
            ],
            [
              -58.798100856419,
              -27.53945125274001,
              0
            ],
            [
              -58.79981253933574,
              -27.53896883544895,
              0
            ],
            [
              -58.80262981417951,
              -27.5385744752095,
              0
            ],
            [
              -58.80270639621775,
              -27.53839473279072,
              0
            ],
            [
              -58.80304977989127,
              -27.53831688873327,
              0
            ],
            [
              -58.80325966578629,
              -27.54154411359365,
              0
            ],
            [
              -58.80028299204739,
              -27.54198377624054,
              0
            ],
            [
              -58.80078388646126,
              -27.54458418287876,
              0
            ]
          ]
        ]
      }
    },
    {
      "type": "Feature",
      "properties": {
        "fid": "1",
        "Name": "Dominguez Guarderia",
        "description": null,
        "timestamp": null,
        "begin": null,
        "end": null,
        "altitudeMode": null,
        "tessellate": 1,
        "extrude": 0,
        "visibility": -1,
        "drawOrder": null,
        "icon": null,
        "layer": "capas_visibles — FIDEICOMISO - UNIFICADO — Dominguez (Croquis Sin Mensura).kmz",
        "path": "C:/Users/Agos/Downloads/capas_visibles.gpkg|layername=FIDEICOMISO - UNIFICADO — Dominguez (Croquis Sin Mensura).kmz",
        "id": "judicializados-3"
      },
      "geometry": {
        "type": "Polygon",
        "coordinates": [
          [
            [
              -58.83061303982524,
              -27.52678451610147,
              0
            ],
            [
              -58.83081793749613,
              -27.52673909077046,
              0
            ],
            [
              -58.83100935477993,
              -27.52656216989872,
              0
            ],
            [
              -58.83135444523395,
              -27.52655260554043,
              0
            ],
            [
              -58.83112646866115,
              -27.52767310497092,
              0
            ],
            [
              -58.83063548660538,
              -27.52758099441482,
              0
            ],
            [
              -58.8307308501681,
              -27.52718225523768,
              0
            ],
            [
              -58.83069328735349,
              -27.52691187576125,
              0
            ],
            [
              -58.83061303982524,
              -27.52678451610147,
              0
            ]
          ]
        ]
      }
    },
    {
      "type": "Feature",
      "properties": {
        "fid": "1",
        "Name": "Cabral",
        "description": null,
        "timestamp": null,
        "begin": null,
        "end": null,
        "altitudeMode": null,
        "tessellate": 1,
        "extrude": 0,
        "visibility": -1,
        "drawOrder": null,
        "icon": null,
        "layer": "capas_visibles — FIDEICOMISO - UNIFICADO — Juicios en Gestacion",
        "path": "C:/Users/Agos/Downloads/capas_visibles.gpkg|layername=FIDEICOMISO - UNIFICADO — Juicios en Gestacion",
        "id": "judicializados-4"
      },
      "geometry": {
        "type": "Polygon",
        "coordinates": [
          [
            [
              -58.81748401290041,
              -27.53314242034468,
              0
            ],
            [
              -58.81492230039674,
              -27.52981040918368,
              0
            ],
            [
              -58.8144302883948,
              -27.53032332642633,
              0
            ],
            [
              -58.81320053318476,
              -27.53036887524618,
              0
            ],
            [
              -58.81241601991099,
              -27.52997388343111,
              0
            ],
            [
              -58.81245948058968,
              -27.5294586971311,
              0
            ],
            [
              -58.8109145200371,
              -27.52936533166174,
              0
            ],
            [
              -58.80958774634757,
              -27.5316768377547,
              0
            ],
            [
              -58.80792737085553,
              -27.53366607256726,
              0
            ],
            [
              -58.80802882835926,
              -27.53519028076982,
              0
            ],
            [
              -58.80701731457277,
              -27.53607300737525,
              0
            ],
            [
              -58.80969820700864,
              -27.53735421865779,
              0
            ],
            [
              -58.81104864288253,
              -27.53724351731748,
              0
            ],
            [
              -58.81086854409133,
              -27.53782484913378,
              0
            ],
            [
              -58.8114279410333,
              -27.5381566507834,
              0
            ],
            [
              -58.81281155786305,
              -27.53804642283009,
              0
            ],
            [
              -58.81293615850894,
              -27.53715883750983,
              0
            ],
            [
              -58.81392388695193,
              -27.53732828464793,
              0
            ],
            [
              -58.81410644928544,
              -27.53650344209897,
              0
            ],
            [
              -58.81873501306265,
              -27.53672752252094,
              0
            ],
            [
              -58.81956340585951,
              -27.53384625734994,
              0
            ],
            [
              -58.81900264377766,
              -27.53339884018717,
              0
            ],
            [
              -58.81748401290041,
              -27.53314242034468,
              0
            ]
          ]
        ]
      }
    },
    {
      "type": "Feature",
      "properties": {
        "fid": "1",
        "Name": "Sombreado [82DD]",
        "description": null,
        "timestamp": null,
        "begin": null,
        "end": null,
        "altitudeMode": null,
        "tessellate": -1,
        "extrude": 0,
        "visibility": -1,
        "drawOrder": null,
        "icon": null,
        "layer": "capas_visibles — FIDEICOMISO - UNIFICADO — Mra. 21.788-U Causa Frettes",
        "path": "C:/Users/Agos/Downloads/capas_visibles.gpkg|layername=FIDEICOMISO - UNIFICADO — Mra. 21.788-U Causa Frettes",
        "id": "judicializados-5"
      },
      "geometry": {
        "type": "MultiPolygon",
        "coordinates": [
          [
            [
              [
                -58.8206079397357,
                -27.5152812523383,
                0
              ],
              [
                -58.8206079397344,
                -27.5152812523373,
                0
              ],
              [
                -58.82056802558671,
                -27.5155541889673,
                0
              ],
              [
                -58.8206079397357,
                -27.5152812523383,
                0
              ]
            ]
          ]
        ]
      }
    },
    {
      "type": "Feature",
      "properties": {
        "fid": "1",
        "Name": "Sombreado [833D]",
        "description": null,
        "timestamp": null,
        "begin": null,
        "end": null,
        "altitudeMode": null,
        "tessellate": -1,
        "extrude": 0,
        "visibility": -1,
        "drawOrder": null,
        "icon": null,
        "layer": "capas_visibles — FIDEICOMISO - UNIFICADO — Mra. 24.227-U IB3",
        "path": "C:/Users/Agos/Downloads/capas_visibles.gpkg|layername=FIDEICOMISO - UNIFICADO — Mra. 24.227-U IB3",
        "id": "judicializados-6"
      },
      "geometry": {
        "type": "MultiPolygon",
        "coordinates": []
      }
    },
    {
      "type": "Feature",
      "properties": {
        "fid": "1",
        "Name": "Sombreado [8348]",
        "description": null,
        "timestamp": null,
        "begin": null,
        "end": null,
        "altitudeMode": null,
        "tessellate": -1,
        "extrude": 0,
        "visibility": -1,
        "drawOrder": null,
        "icon": null,
        "layer": "capas_visibles — FIDEICOMISO - UNIFICADO — Mra. 28.991-U Causa Lilio",
        "path": "C:/Users/Agos/Downloads/capas_visibles.gpkg|layername=FIDEICOMISO - UNIFICADO — Mra. 28.991-U Causa Lilio",
        "id": "judicializados-7"
      },
      "geometry": {
        "type": "MultiPolygon",
        "coordinates": []
      }
    },
    {
      "type": "Feature",
      "properties": {
        "fid": "1",
        "Name": "Sombreado [8330]",
        "description": null,
        "timestamp": null,
        "begin": null,
        "end": null,
        "altitudeMode": null,
        "tessellate": -1,
        "extrude": 0,
        "visibility": -1,
        "drawOrder": null,
        "icon": null,
        "layer": "capas_visibles — FIDEICOMISO - UNIFICADO — Mra. 29.683-U Causa Leiva",
        "path": "C:/Users/Agos/Downloads/capas_visibles.gpkg|layername=FIDEICOMISO - UNIFICADO — Mra. 29.683-U Causa Leiva",
        "id": "judicializados-8"
      },
      "geometry": {
        "type": "MultiPolygon",
        "coordinates": []
      }
    },
    {
      "type": "Feature",
      "properties": {
        "fid": "1",
        "Name": "Sombreado [8354]",
        "description": null,
        "timestamp": null,
        "begin": null,
        "end": null,
        "altitudeMode": null,
        "tessellate": -1,
        "extrude": 0,
        "visibility": -1,
        "drawOrder": null,
        "icon": null,
        "layer": "capas_visibles — FIDEICOMISO - UNIFICADO — Mra. 30.036-U  Causa Zeniquel",
        "path": "C:/Users/Agos/Downloads/capas_visibles.gpkg|layername=FIDEICOMISO - UNIFICADO — Mra. 30.036-U  Causa Zeniquel",
        "id": "judicializados-9"
      },
      "geometry": {
        "type": "MultiPolygon",
        "coordinates": []
      }
    },
    {
      "type": "Feature",
      "properties": {
        "fid": "1",
        "Name": null,
        "description": null,
        "timestamp": null,
        "begin": null,
        "end": null,
        "altitudeMode": null,
        "tessellate": null,
        "extrude": null,
        "visibility": null,
        "drawOrder": null,
        "icon": null,
        "layer": "juicio",
        "path": "juicio.gpkg|layername=juicio",
        "id": "judicializados-10"
      },
      "geometry": {
        "type": "Polygon",
        "coordinates": [
          [
            [
              -58.80217182915887,
              -27.518322535156663,
              0
            ],
            [
              -58.79409817483461,
              -27.515730183863138,
              0
            ],
            [
              -58.793390559071526,
              -27.51693759179798,
              0
            ],
            [
              -58.79360457999864,
              -27.517538158550693,
              0
            ],
            [
              -58.79399408622346,
              -27.517625056048793,
              0
            ],
            [
              -58.793882548432606,
              -27.5183728422621,
              0
            ],
            [
              -58.79423689261868,
              -27.519365279000095,
              0
            ],
            [
              -58.79520471626111,
              -27.520240099158016,
              0
            ],
            [
              -58.79579274094622,
              -27.52039622701215,
              0
            ],
            [
              -58.796194476395414,
              -27.520671801639224,
              0
            ],
            [
              -58.79700735223912,
              -27.521726813512714,
              0
            ],
            [
              -58.79709517194767,
              -27.52217098113232,
              0
            ],
            [
              -58.79677827886705,
              -27.522384162848635,
              0
            ],
            [
              -58.79711038191584,
              -27.52303255452253,
              0
            ],
            [
              -58.79724975993747,
              -27.524207642110614,
              0
            ],
            [
              -58.79948038025365,
              -27.521889194310333,
              0
            ],
            [
              -58.79983375487264,
              -27.521497549630954,
              0
            ],
            [
              -58.80005445401622,
              -27.52121471627585,
              0
            ],
            [
              -58.80010999545043,
              -27.521142945297143,
              0
            ],
            [
              -58.79710144723666,
              -27.52064546189113,
              0
            ],
            [
              -58.79831590991992,
              -27.518555334006937,
              0
            ],
            [
              -58.801259801693895,
              -27.519213523556477,
              0
            ],
            [
              -58.80215121093441,
              -27.51834348641018,
              0
            ],
            [
              -58.80217182915887,
              -27.518322535156663,
              0
            ]
          ]
        ]
      }
    },
    {
      "type": "Feature",
      "properties": {
        "fid": "2",
        "Name": null,
        "description": null,
        "timestamp": null,
        "begin": null,
        "end": null,
        "altitudeMode": null,
        "tessellate": null,
        "extrude": null,
        "visibility": null,
        "drawOrder": null,
        "icon": null,
        "layer": "juicio",
        "path": "juicio.gpkg|layername=juicio",
        "id": "judicializados-11"
      },
      "geometry": {
        "type": "Polygon",
        "coordinates": [
          [
            [
              -58.80129543129584,
              -27.51924226397413,
              0
            ],
            [
              -58.79832324848849,
              -27.51857937563492,
              0
            ],
            [
              -58.797135183822704,
              -27.520647352952388,
              0
            ],
            [
              -58.800155981882796,
              -27.521205022825725,
              0
            ],
            [
              -58.80129543129584,
              -27.51924226397413,
              0
            ]
          ]
        ]
      }
    },
    {
      "type": "Feature",
      "properties": {
        "fid": null,
        "Name": null,
        "description": null,
        "timestamp": null,
        "begin": null,
        "end": null,
        "altitudeMode": null,
        "tessellate": null,
        "extrude": null,
        "visibility": null,
        "drawOrder": null,
        "icon": null,
        "layer": "Polígonos",
        "path": "Polygon?crs=EPSG:4326&uid={6c057fdc-8509-4f92-97a1-2276e9bb4904}",
        "id": "judicializados-12"
      },
      "geometry": {
        "type": "Polygon",
        "coordinates": [
          [
            [
              -58.80134261,
              -27.546267238,
              -2.3366
            ],
            [
              -58.80091343199999,
              -27.546156353,
              -2.3366
            ],
            [
              -58.800807375,
              -27.54651969,
              -2.3366
            ],
            [
              -58.80009508000001,
              -27.547191052,
              -2.3366
            ],
            [
              -58.797703476,
              -27.547036041,
              -2.3366
            ],
            [
              -58.796882716,
              -27.547560374,
              -2.3366
            ],
            [
              -58.795953785,
              -27.548857726,
              -2.3366
            ],
            [
              -58.795454306,
              -27.549389893,
              -2.3366
            ],
            [
              -58.797358256,
              -27.551708182,
              -2.3366
            ],
            [
              -58.797609298,
              -27.551425823,
              -2.3366
            ],
            [
              -58.79821389300001,
              -27.550477665,
              -2.3366
            ],
            [
              -58.79877753,
              -27.549345494,
              -2.3366
            ],
            [
              -58.79917889999999,
              -27.548895788,
              -2.3366
            ],
            [
              -58.799285331,
              -27.548698408,
              -2.3366
            ],
            [
              -58.800243196,
              -27.547719919,
              -2.3366
            ],
            [
              -58.800669013,
              -27.547409461,
              -2.3366
            ],
            [
              -58.800927031,
              -27.547161336,
              -2.3366
            ],
            [
              -58.801169045,
              -27.546757232,
              -2.3366
            ],
            [
              -58.80134261,
              -27.546267238,
              -2.3366
            ]
          ]
        ]
      }
    },
    {
      "type": "Feature",
      "properties": {
        "fid": "1",
        "Name": null,
        "description": null,
        "timestamp": null,
        "begin": null,
        "end": null,
        "altitudeMode": null,
        "tessellate": null,
        "extrude": null,
        "visibility": null,
        "drawOrder": null,
        "icon": null,
        "layer": null,
        "path": null,
        "id": "judicializados-13"
      },
      "geometry": {
        "type": "Polygon",
        "coordinates": [
          [
            [
              -58.79209255775788,
              -27.540211603651613,
              0
            ],
            [
              -58.79153963886566,
              -27.54018924844034,
              0
            ],
            [
              -58.79094349989829,
              -27.540134105585857,
              0
            ],
            [
              -58.79052307638454,
              -27.54009994402863,
              0
            ],
            [
              -58.790378124088434,
              -27.54106626550148,
              0
            ],
            [
              -58.791955271439086,
              -27.54116823326109,
              0
            ],
            [
              -58.79209255775788,
              -27.540211603651613,
              0
            ]
          ]
        ]
      }
    },
    {
      "type": "Feature",
      "properties": {
        "fid": "2",
        "Name": null,
        "description": null,
        "timestamp": null,
        "begin": null,
        "end": null,
        "altitudeMode": null,
        "tessellate": null,
        "extrude": null,
        "visibility": null,
        "drawOrder": null,
        "icon": null,
        "layer": null,
        "path": null,
        "id": "judicializados-14"
      },
      "geometry": {
        "type": "Polygon",
        "coordinates": [
          [
            [
              -58.80234439606779,
              -27.533848967741786,
              0
            ],
            [
              -58.799675560307335,
              -27.534219697490272,
              0
            ],
            [
              -58.799899587949724,
              -27.53531247781529,
              0
            ],
            [
              -58.802527659610966,
              -27.534826305950535,
              0
            ],
            [
              -58.80234439606779,
              -27.533848967741786,
              0
            ]
          ]
        ]
      }
    },
    {
      "type": "Feature",
      "properties": {
        "fid": "3",
        "Name": null,
        "description": null,
        "timestamp": null,
        "begin": null,
        "end": null,
        "altitudeMode": null,
        "tessellate": null,
        "extrude": null,
        "visibility": null,
        "drawOrder": null,
        "icon": null,
        "layer": null,
        "path": null,
        "id": "judicializados-15"
      },
      "geometry": {
        "type": "Polygon",
        "coordinates": [
          [
            [
              -58.82382702708678,
              -27.515581751503934,
              0
            ],
            [
              -58.82382690486288,
              -27.515670835262682,
              0
            ],
            [
              -58.82387537536743,
              -27.515927016546165,
              0
            ],
            [
              -58.82328437045443,
              -27.515978979162004,
              0
            ],
            [
              -58.823637894339846,
              -27.516485876574823,
              0
            ],
            [
              -58.820279978212454,
              -27.517523836128458,
              0
            ],
            [
              -58.820607939731396,
              -27.515281252335804,
              0
            ],
            [
              -58.82382702708678,
              -27.515581751503934,
              0
            ]
          ]
        ]
      }
    },
    {
      "type": "Feature",
      "properties": {
        "fid": "4",
        "Name": null,
        "description": null,
        "timestamp": null,
        "begin": null,
        "end": null,
        "altitudeMode": null,
        "tessellate": null,
        "extrude": null,
        "visibility": null,
        "drawOrder": null,
        "icon": null,
        "layer": null,
        "path": null,
        "id": "judicializados-16"
      },
      "geometry": {
        "type": "Polygon",
        "coordinates": [
          [
            [
              -58.81232765417297,
              -27.517235936745717,
              0
            ],
            [
              -58.81226840610585,
              -27.517501071065897,
              0
            ],
            [
              -58.81059187957179,
              -27.517061838054726,
              0
            ],
            [
              -58.81146122883943,
              -27.516078954658706,
              0
            ],
            [
              -58.81293797392724,
              -27.516327937261373,
              0
            ],
            [
              -58.81271537360125,
              -27.517337206575565,
              0
            ],
            [
              -58.81232765417297,
              -27.517235936745717,
              0
            ]
          ]
        ]
      }
    },
    {
      "type": "Feature",
      "properties": {
        "fid": "5",
        "Name": null,
        "description": null,
        "timestamp": null,
        "begin": null,
        "end": null,
        "altitudeMode": null,
        "tessellate": null,
        "extrude": null,
        "visibility": null,
        "drawOrder": null,
        "icon": null,
        "layer": null,
        "path": null,
        "id": "judicializados-17"
      },
      "geometry": {
        "type": "Polygon",
        "coordinates": [
          [
            [
              -58.816032597346506,
              -27.51869181459214,
              0
            ],
            [
              -58.810257385000575,
              -27.516954456286072,
              0
            ],
            [
              -58.8115031873619,
              -27.515745680519675,
              0
            ],
            [
              -58.814715938964945,
              -27.51637801378279,
              0
            ],
            [
              -58.81443204941972,
              -27.51665248662124,
              0
            ],
            [
              -58.81963707327647,
              -27.51754726793753,
              0
            ],
            [
              -58.816032597346506,
              -27.51869181459214,
              0
            ]
          ]
        ]
      }
    }
  ]
}