{"type":"FeatureCollection","name":"lotespit","features":[{"type":"Feature","properties":{"id":"lotespit-1","description":null},"geometry":{"type":"LineString","coordinates":[[-58.81587427350007,-27.544804694999733],[-58.81526976680047,-27.54514585742395],[-58.814591072497265,-27.545250912009024]]}},{"type":"Feature","properties":{"id":"lotespit-2","description":null},"geometry":{"type":"LineString","coordinates":[[-58.81452351250006,-27.544285232600053],[-58.81068439301276,-27.544498573970554],[-58.810684393003044,-27.54449857401912]]}},{"type":"Feature","properties":{"id":"lotespit-3","description":null},"geometry":{"type":"LineString","coordinates":[[-58.804224103799946,-27.54552377480005],[-58.804190571818125,-27.544572216377915],[-58.80388958815049,-27.544584676923222]]}},{"type":"Feature","properties":{"id":"lotespit-4","description":null},"geometry":{"type":"LineString","coordinates":[[-58.804699048599964,-27.544563645299984],[-58.804731040757275,-27.54554180779849]]}},{"type":"Feature","properties":{"id":"lotespit-5","description":null},"geometry":{"type":"LineString","coordinates":[]}},{"type":"Feature","properties":{"id":"lotespit-6","description":null},"geometry":{"type":"LineString","coordinates":[]}},{"type":"Feature","properties":{"id":"lotespit-7","description":null},"geometry":{"type":"LineString","coordinates":[]}},{"type":"Feature","properties":{"id":"lotespit-8","description":null},"geometry":{"type":"LineString","coordinates":[[-58.80371508150208,-27.54167015204865],[-58.803771769434896,-27.541954228655804]]}},{"type":"Feature","properties":{"id":"lotespit-9","description":null},"geometry":{"type":"LineString","coordinates":[[-58.81632114017976,-27.54013448231814],[-58.81636572619437,-27.54187715854489]]}},{"type":"Feature","properties":{"id":"lotespit-10","description":null},"geometry":{"type":"LineString","coordinates":[[-58.816369547852766,-27.54219180841918],[-58.81641540775347,-27.54345550346081]]}},{"type":"Feature","properties":{"id":"lotespit-11","description":null},"geometry":{"type":"LineString","coordinates":[[-58.80639820416493,-27.54172492915229],[-58.8067771852888,-27.541661871788822]]}},{"type":"Feature","properties":{"id":"lotespit-12","description":null},"geometry":{"type":"LineString","coordinates":[[-58.80590011468786,-27.541803273149355],[-58.804304572309185,-27.542051382377792]]}},{"type":"Feature","properties":{"id":"lotespit-13","description":null},"geometry":{"type":"LineString","coordinates":[[-58.80661339139866,-27.542930363807972],[-58.80607443804305,-27.543013644113774]]}},{"type":"Feature","properties":{"id":"lotespit-14","description":null},"geometry":{"type":"LineString","coordinates":[[-58.80544935804231,-27.543111255638543],[-58.80475626405668,-27.543217753945797]]}},{"type":"Feature","properties":{"id":"lotespit-15","description":"PIT"},"geometry":{"type":"LineString","coordinates":[[-58.8157855698,-27.5401606748],[-58.8040462101,-27.5407256869]]}},{"type":"Feature","properties":{"id":"lotespit-16","description":"PIT"},"geometry":{"type":"LineString","coordinates":[[-58.8040462101,-27.5407256869],[-58.8043045814,-27.5420513854]]}},{"type":"Feature","properties":{"id":"lotespit-17","description":"PIT"},"geometry":{"type":"LineString","coordinates":[[-58.8043392324,-27.5422291771],[-58.80443313499999,-27.5427109811]]}},{"type":"Feature","properties":{"id":"lotespit-18","description":"PIT"},"geometry":{"type":"LineString","coordinates":[]}},{"type":"Feature","properties":{"id":"lotespit-19","description":"PIT"},"geometry":{"type":"LineString","coordinates":[[-58.8057301616,-27.5409316302],[-58.8058309429,-27.54144869869999]]}},{"type":"Feature","properties":{"id":"lotespit-20","description":"PIT"},"geometry":{"type":"LineString","coordinates":[[-58.8069167852,-27.5423794845],[-58.8065707621,-27.5406042653]]}},{"type":"Feature","properties":{"id":"lotespit-21","description":"PIT"},"geometry":{"type":"LineString","coordinates":[[-58.80376139980001,-27.5430512841],[-58.8030548514,-27.5431606893]]}},{"type":"Feature","properties":{"id":"lotespit-22","description":"PIT"},"geometry":{"type":"LineString","coordinates":[[-58.803822038,-27.5433624197],[-58.8031019335,-27.5434739239]]}},{"type":"Feature","properties":{"id":"lotespit-23","description":"PIT"},"geometry":{"type":"LineString","coordinates":[[-58.8017593662,-27.54217076],[-58.8015629717,-27.54116294410001]]}},{"type":"Feature","properties":{"id":"lotespit-24","description":"PIT"},"geometry":{"type":"LineString","coordinates":[[-58.8066131678,-27.5429301909],[-58.80662015,-27.5429292212],[-58.80662716589999,-27.5429284692],[-58.80663420690001,-27.542927936],[-58.8066412645,-27.5429276221],[-58.80664833019999,-27.5429275279],[-58.8066553952,-27.5429276536],[-58.806662451,-27.5429279991],[-58.8066694889,-27.5429285637],[-58.8066765005,-27.542929347],[-58.8066834771,-27.542930348],[-58.8066904103,-27.5429315653],[-58.8066972916,-27.5429329976],[-58.8067041126,-27.5429346431],[-58.8067108651,-27.5429364997],[-58.80671754069999,-27.5429385653],[-58.8067241314,-27.5429408373],[-58.8067306292,-27.5429433129],[-58.806737026,-27.5429459892],[-58.8067433142,-27.5429488628],[-58.806749486,-27.5429519303],[-58.806755534,-27.5429551879],[-58.8067614507,-27.5429586317],[-58.806767229,-27.5429622574],[-58.8067728618,-27.5429660606],[-58.8067783423,-27.5429700368],[-58.8067836638,-27.5429741811],[-58.80678881970001,-27.5429784883],[-58.8067938039,-27.5429829533],[-58.8067986102,-27.5429875707],[-58.8068032328,-27.5429923347],[-58.8068076661,-27.5429972397],[-58.8068119047,-27.5430022796],[-58.8068159433,-27.5430074482],[-58.8068197771,-27.54301273940001],[-58.8068234014,-27.5430181466],[-58.80682681170001,-27.5430236632],[-58.806830004,-27.5430292826],[-58.8068329744,-27.5430349978],[-58.8068357192,-27.543040802],[-58.806838235,-27.543046688],[-58.8068405189,-27.54305264870001],[-58.806842568,-27.5430586768],[-58.8068443798,-27.543064765],[-58.8068459521,-27.5430709058],[-58.8068472831,-27.5430770918],[-58.8068472831,-27.5430770918]]}},{"type":"Feature","properties":{"id":"lotespit-25","description":"PIT"},"geometry":{"type":"LineString","coordinates":[[-58.8072420945,-27.5440483866],[-58.80704674329999,-27.5430462012]]}},{"type":"Feature","properties":{"id":"lotespit-26","description":"PIT"},"geometry":{"type":"LineString","coordinates":[]}},{"type":"Feature","properties":{"id":"lotespit-27","description":"PIT"},"geometry":{"type":"LineString","coordinates":[[-58.8063295864,-27.5413714751],[-58.8042352796,-27.541695802]]}},{"type":"Feature","properties":{"id":"lotespit-28","description":"PIT"},"geometry":{"type":"LineString","coordinates":[[-58.8047562641,-27.5432177539],[-58.80475270230001,-27.5432331774],[-58.8047485387,-27.5432484806],[-58.8047437785,-27.5432636451],[-58.8047384275,-27.54327865220001],[-58.8047324921,-27.5432934836],[-58.8047259797,-27.5433081215],[-58.80471889809999,-27.5433225478],[-58.804711256,-27.543336745],[-58.8047030627,-27.5433506959],[-58.8046943281,-27.5433643833],[-58.804685063,-27.5433777908],[-58.8046752785,-27.5433909018],[-58.8046649867,-27.5434037005],[-58.80465419999999,-27.5434161712],[-58.8046429317,-27.5434282987],[-58.80463119529999,-27.5434400684],[-58.80461900529999,-27.5434514658],[-58.8046063765,-27.543462477],[-58.80459332429999,-27.5434730887],[-58.8045833159,-27.5434807408]]}},{"type":"Feature","properties":{"id":"lotespit-29","description":"PIT"},"geometry":{"type":"LineString","coordinates":[[-58.80376139980001,-27.5430512841],[-58.80376496169999,-27.54303586070001],[-58.80376912540001,-27.54302055739999],[-58.8037738858,-27.5430053931],[-58.80377923689999,-27.542990386],[-58.8037851724,-27.5429755546],[-58.8037916849,-27.5429609168],[-58.8037987666,-27.5429464905],[-58.80380640880001,-27.5429322934],[-58.80381460220001,-27.5429183426],[-58.80382333679999,-27.5429046551],[-58.803832602,-27.5428912478],[-58.8038423865,-27.5428781368],[-58.8038526784,-27.5428653382],[-58.8038634651,-27.5428528675],[-58.8038747335,-27.54284074],[-58.80388646979999,-27.5428289705],[-58.80389865979999,-27.5428175731],[-58.8039112886,-27.542806562],[-58.8039243409,-27.5427959504],[-58.8039344844,-27.5427881977]]}},{"type":"Feature","properties":{"id":"lotespit-30","description":"PIT"},"geometry":{"type":"LineString","coordinates":[[-58.80443313499999,-27.5427109811],[-58.8044496116,-27.5427166614],[-58.8044658558,-27.5427228507],[-58.8044818477,-27.5427295416],[-58.8044975679,-27.5427367259],[-58.8045129973,-27.54274439490001],[-58.804528117,-27.5427525391],[-58.8045429086,-27.5427611487],[-58.8045573542,-27.5427702133],[-58.804571436,-27.5427797217],[-58.804585137,-27.5427896623],[-58.8045984404,-27.5428000231],[-58.80461133009999,-27.5428107914],[-58.8046237903,-27.5428219542],[-58.8046358058,-27.54283349769999],[-58.8046473621,-27.5428454081],[-58.8046584451,-27.5428576706],[-58.8046690411,-27.5428702704],[-58.8046791374,-27.5428831922],[-58.80468872160001,-27.5428964202],[-58.8046956233,-27.5429066187]]}},{"type":"Feature","properties":{"id":"lotespit-31","description":"PIT"},"geometry":{"type":"LineString","coordinates":[[-58.8040845267,-27.5435580584],[-58.80406805,-27.5435523781],[-58.8040518057,-27.5435461887],[-58.8040358137,-27.5435394977],[-58.8040200934,-27.5435323134],[-58.8040046639,-27.5435246444],[-58.8039895442,-27.5435165001],[-58.8039747525,-27.5435078904],[-58.8039603069,-27.5434988258],[-58.803946225,-27.5434893174],[-58.803932524,-27.5434793766],[-58.80391922059999,-27.5434690158],[-58.8039063309,-27.5434582474],[-58.80389387069999,-27.5434470846],[-58.80388185519999,-27.5434355409],[-58.80387029890001,-27.5434236306],[-58.803859216,-27.543411368],[-58.80384862,-27.5433987681],[-58.8038385238,-27.5433858462],[-58.8038289396,-27.5433726182],[-58.803822038,-27.5433624197]]}},{"type":"Feature","properties":{"id":"lotespit-32","description":"PIT"},"geometry":{"type":"LineString","coordinates":[[-58.8015126107,-27.5436824052],[-58.8032922625,-27.544030712]]}},{"type":"Feature","properties":{"id":"lotespit-33","description":"PIT"},"geometry":{"type":"LineString","coordinates":[[-58.8055400781,-27.5443612571],[-58.8046937127,-27.5443832527]]}},{"type":"Feature","properties":{"id":"lotespit-34","description":"PIT"},"geometry":{"type":"LineString","coordinates":[[-58.8041872372,-27.5443964127],[-58.8032267306,-27.5444213648]]}},{"type":"Feature","properties":{"id":"lotespit-35","description":"PIT"},"geometry":{"type":"LineString","coordinates":[[-58.8055400781,-27.5443612571],[-58.8046937127,-27.5443832527]]}},{"type":"Feature","properties":{"id":"lotespit-36","description":"PIT"},"geometry":{"type":"LineString","coordinates":[[-58.8046956233,-27.5429066187],[-58.8065525218,-27.5426190563]]}},{"type":"Feature","properties":{"id":"lotespit-37","description":"PIT"},"geometry":{"type":"LineString","coordinates":[[-58.8067173262,-27.5424103749],[-58.8067184141,-27.5424165985],[-58.80671925770001,-27.5424228522],[-58.80671985599999,-27.5424291284],[-58.8067202081,-27.5424354193],[-58.80672031379999,-27.5424417173],[-58.8067201727,-27.5424480148],[-58.8067197852,-27.5424543041],[-58.8067191517,-27.5424605774],[-58.806718273,-27.5424668273],[-58.80671715010001,-27.542473046],[-58.8067157844,-27.542479226],[-58.8067141775,-27.5424853597],[-58.8067123315,-27.5424914397],[-58.8067102486,-27.5424974586],[-58.8067079312,-27.542503409],[-58.8067053824,-27.5425092837],[-58.806702605,-27.5425150756],[-58.8066996026,-27.54252077749999],[-58.8066963787,-27.5425263825],[-58.8066929374,-27.5425318838],[-58.80668928280001,-27.5425372748],[-58.8066854193,-27.5425425487],[-58.8066813517,-27.5425476993],[-58.8066770849,-27.5425527202],[-58.8066726242,-27.5425576052],[-58.8066679748,-27.5425623486],[-58.8066631426,-27.5425669444],[-58.8066581334,-27.5425713871],[-58.80665295330001,-27.5425756713],[-58.8066476087,-27.5425797917],[-58.8066421059,-27.5425837434],[-58.8066364518,-27.5425875214],[-58.8066306532,-27.5425911213],[-58.8066247172,-27.5425945386],[-58.80661865099999,-27.5425977691],[-58.806612462,-27.542600809],[-58.8066061578,-27.5426036545],[-58.806599746,-27.5426063021],[-58.8065932345,-27.5426087487],[-58.8065866311,-27.5426109912],[-58.8065799439,-27.542613027],[-58.8065731812,-27.5426148534],[-58.80656635099999,-27.5426164684],[-58.8065594617,-27.5426178699],[-58.8065525218,-27.5426190563]]}},{"type":"Feature","properties":{"id":"lotespit-38","description":"PIT"},"geometry":{"type":"LineString","coordinates":[[-58.8067173262,-27.5424103749],[-58.8066480164,-27.5420547925]]}},{"type":"Feature","properties":{"id":"lotespit-39","description":"PIT"},"geometry":{"type":"LineString","coordinates":[[-58.8064139035,-27.5419078913],[-58.8064208856,-27.5419069216],[-58.8064279015,-27.5419061697],[-58.8064349424,-27.5419056364],[-58.806442,-27.5419053225],[-58.80644906560001,-27.5419052284],[-58.8064561305,-27.5419053541],[-58.80646318620001,-27.5419056996],[-58.8064702241,-27.5419062643],[-58.8064772356,-27.5419070475],[-58.8064842122,-27.54190804850001],[-58.8064911453,-27.5419092658],[-58.80649802649999,-27.5419106981],[-58.8065048475,-27.5419123436],[-58.80651159990001,-27.5419142003],[-58.8065182755,-27.5419162659],[-58.8065248661,-27.5419185379],[-58.8065313638,-27.5419210135],[-58.8065377606,-27.5419236898],[-58.8065440487,-27.5419265634],[-58.8065502204,-27.5419296309],[-58.8065562683,-27.5419328885],[-58.806562185,-27.5419363323],[-58.8065679632,-27.541939958],[-58.806573596,-27.5419437613],[-58.8065790764,-27.5419477375],[-58.8065843978,-27.5419518817],[-58.80658955379999,-27.541956189],[-58.8065945379,-27.541960654],[-58.8065993442,-27.5419652713],[-58.8066039667,-27.54197003539999],[-58.8066083999,-27.5419749404],[-58.8066126384,-27.5419799802],[-58.806616677,-27.5419851489],[-58.8066205108,-27.5419904401],[-58.806624135,-27.5419958472],[-58.8066275453,-27.5420013639],[-58.80663073760001,-27.5420069832],[-58.80663370789999,-27.5420126985],[-58.8066364527,-27.5420185027],[-58.8066389685,-27.5420243887],[-58.8066412523,-27.5420303494],[-58.8066433014,-27.5420363775],[-58.8066451132,-27.5420424657],[-58.8066466855,-27.5420486065],[-58.8066480164,-27.5420547925],[-58.8066480164,-27.5420547925]]}},{"type":"Feature","properties":{"id":"lotespit-40","description":"PIT"},"geometry":{"type":"LineString","coordinates":[[-58.8064139035,-27.5419078913],[-58.8043392324,-27.5422291771]]}},{"type":"Feature","properties":{"id":"lotespit-41","description":"PIT"},"geometry":{"type":"LineString","coordinates":[[-58.80487253219999,-27.5423297505],[-58.8043738835,-27.5424069687]]}},{"type":"Feature","properties":{"id":"lotespit-42","description":"PIT"},"geometry":{"type":"LineString","coordinates":[[-58.8065707621,-27.5406042653],[-58.80677816480001,-27.5416683198]]}},{"type":"Feature","properties":{"id":"lotespit-43","description":"PIT"},"geometry":{"type":"LineString","coordinates":[[-58.8059002497,-27.5418042814],[-58.8056747561,-27.5406473652]]}},{"type":"Feature","properties":{"id":"lotespit-44","description":"PIT"},"geometry":{"type":"LineString","coordinates":[[-58.80127879989999,-27.5441909036],[-58.80301370670001,-27.5445304551]]}},{"type":"Feature","properties":{"id":"lotespit-45","description":"PIT"},"geometry":{"type":"LineString","coordinates":[[-58.80136761290001,-27.5440235329],[-58.8030571239,-27.5443541992]]}},{"type":"Feature","properties":{"id":"lotespit-46","description":"PIT"},"geometry":{"type":"LineString","coordinates":[[-58.80166091460001,-27.5437114317],[-58.8015740763,-27.5440639425]]}},{"type":"Feature","properties":{"id":"lotespit-47","description":"PIT"},"geometry":{"type":"LineString","coordinates":[[-58.8018092185,-27.5437404579],[-58.80172238070001,-27.5440929689]]}},{"type":"Feature","properties":{"id":"lotespit-48","description":"PIT"},"geometry":{"type":"LineString","coordinates":[[-58.80195752259999,-27.543769484],[-58.80187068510001,-27.5441219951]]}},{"type":"Feature","properties":{"id":"lotespit-49","description":"PIT"},"geometry":{"type":"LineString","coordinates":[[-58.80210582669999,-27.54379851],[-58.8020189897,-27.5441510211]]}},{"type":"Feature","properties":{"id":"lotespit-50","description":"PIT"},"geometry":{"type":"LineString","coordinates":[[-58.80225413080001,-27.5438275358],[-58.8021672943,-27.544180047]]}},{"type":"Feature","properties":{"id":"lotespit-51","description":"PIT"},"geometry":{"type":"LineString","coordinates":[]}},{"type":"Feature","properties":{"id":"lotespit-52","description":"PIT"},"geometry":{"type":"LineString","coordinates":[]}},{"type":"Feature","properties":{"id":"lotespit-53","description":"PIT"},"geometry":{"type":"LineString","coordinates":[]}},{"type":"Feature","properties":{"id":"lotespit-54","description":"PIT"},"geometry":{"type":"LineString","coordinates":[]}},{"type":"Feature","properties":{"id":"lotespit-55","description":"PIT"},"geometry":{"type":"LineString","coordinates":[]}},{"type":"Feature","properties":{"id":"lotespit-56","description":"PIT"},"geometry":{"type":"LineString","coordinates":[]}},{"type":"Feature","properties":{"id":"lotespit-57","description":"PIT"},"geometry":{"type":"LineString","coordinates":[[-58.8032922625,-27.544030712],[-58.803181354,-27.5434616263]]}},{"type":"Feature","properties":{"id":"lotespit-58","description":"PIT"},"geometry":{"type":"LineString","coordinates":[[-58.8018092185,-27.5437404579],[-58.8018734137,-27.5434122452]]}},{"type":"Feature","properties":{"id":"lotespit-59","description":"PIT"},"geometry":{"type":"LineString","coordinates":[[-58.80210582669999,-27.54379851],[-58.8021740687,-27.5434496018]]}},{"type":"Feature","properties":{"id":"lotespit-60","description":"PIT"},"geometry":{"type":"LineString","coordinates":[[-58.8024024351,-27.5438565614],[-58.8024438592,-27.5434831056]]}},{"type":"Feature","properties":{"id":"lotespit-61","description":"PIT"},"geometry":{"type":"LineString","coordinates":[[-58.8026990439,-27.5439146122],[-58.8026918187,-27.5434965941]]}},{"type":"Feature","properties":{"id":"lotespit-62","description":"PIT"},"geometry":{"type":"LineString","coordinates":[[-58.802995653,-27.5439726624],[-58.8029281995,-27.5434885822]]}},{"type":"Feature","properties":{"id":"lotespit-63","description":"PIT"},"geometry":{"type":"LineString","coordinates":[[-58.8034720951,-27.5419971386],[-58.8037712835,-27.5419508098]]}},{"type":"Feature","properties":{"id":"lotespit-64","description":"PIT"},"geometry":{"type":"LineString","coordinates":[]}},{"type":"Feature","properties":{"id":"lotespit-65","description":"PIT"},"geometry":{"type":"LineString","coordinates":[[-58.8035413945,-27.5423527222],[-58.8038405839,-27.5423063933]]}},{"type":"Feature","properties":{"id":"lotespit-66","description":"PIT"},"geometry":{"type":"LineString","coordinates":[[-58.8035994331,-27.5426505235],[-58.8038986233,-27.5426041945]]}},{"type":"Feature","properties":{"id":"lotespit-67","description":"PIT"},"geometry":{"type":"LineString","coordinates":[[-58.8015293573,-27.5409904468],[-58.8017593662,-27.54217076]]}},{"type":"Feature","properties":{"id":"lotespit-68","description":"PIT"},"geometry":{"type":"LineString","coordinates":[[-58.8017593662,-27.54217076],[-58.8016759202,-27.5422752586]]}},{"type":"Feature","properties":{"id":"lotespit-69","description":"PIT"},"geometry":{"type":"LineString","coordinates":[[-58.8015126107,-27.5436824052],[-58.8032922625,-27.544030712]]}},{"type":"Feature","properties":{"id":"lotespit-70","description":"PIT"},"geometry":{"type":"LineString","coordinates":[[-58.80445417549999,-27.5420282202],[-58.8043848733,-27.5416726369]]}},{"type":"Feature","properties":{"id":"lotespit-71","description":"PIT"},"geometry":{"type":"LineString","coordinates":[]}},{"type":"Feature","properties":{"id":"lotespit-72","description":"PIT"},"geometry":{"type":"LineString","coordinates":[]}},{"type":"Feature","properties":{"id":"lotespit-73","description":"PIT"},"geometry":{"type":"LineString","coordinates":[[-58.80490295770001,-27.5419587236],[-58.80483365409999,-27.5416031404]]}},{"type":"Feature","properties":{"id":"lotespit-74","description":"PIT"},"geometry":{"type":"LineString","coordinates":[]}},{"type":"Feature","properties":{"id":"lotespit-75","description":"PIT"},"geometry":{"type":"LineString","coordinates":[]}},{"type":"Feature","properties":{"id":"lotespit-76","description":"PIT"},"geometry":{"type":"LineString","coordinates":[[-58.8053517395,-27.5418892255],[-58.8052824344,-27.5415336425]]}},{"type":"Feature","properties":{"id":"lotespit-77","description":"PIT"},"geometry":{"type":"LineString","coordinates":[]}},{"type":"Feature","properties":{"id":"lotespit-78","description":"PIT"},"geometry":{"type":"LineString","coordinates":[[-58.805650927,-27.5418428926],[-58.80558162090001,-27.5414873098]]}},{"type":"Feature","properties":{"id":"lotespit-79","description":"PIT"},"geometry":{"type":"LineString","coordinates":[[-58.8035587194,-27.5424416182],[-58.8038579091,-27.5423952892]]}},{"type":"Feature","properties":{"id":"lotespit-80","description":"PIT"},"geometry":{"type":"LineString","coordinates":[[-58.8034720951,-27.5419971386],[-58.8037712835,-27.5419508098]]}},{"type":"Feature","properties":{"id":"lotespit-81","description":"PIT"},"geometry":{"type":"LineString","coordinates":[[-58.8037712835,-27.5419508098],[-58.8039344844,-27.5427881977]]}},{"type":"Feature","properties":{"id":"lotespit-82","description":"PIT"},"geometry":{"type":"LineString","coordinates":[[-58.8068146456,-27.5443281236],[-58.8046937127,-27.5443832527]]}},{"type":"Feature","properties":{"id":"lotespit-83","description":"PIT"},"geometry":{"type":"LineString","coordinates":[[-58.8068472831,-27.5430770918],[-58.80704263249999,-27.5440792774]]}},{"type":"Feature","properties":{"id":"lotespit-84","description":"PIT"},"geometry":{"type":"LineString","coordinates":[[-58.8075991626,-27.54450612759999],[-58.807595088,-27.5445181902],[-58.80759054359999,-27.5445301186],[-58.807585535,-27.5445418985],[-58.80758006809999,-27.5445535154],[-58.8075741497,-27.5445649551],[-58.8075677871,-27.5445762037],[-58.8075609878,-27.5445872476],[-58.8075537604,-27.5445980732],[-58.80754611339999,-27.5446086674],[-58.8075380563,-27.5446190173],[-58.8075295989,-27.5446291103],[-58.80752075149999,-27.544638934],[-58.80751152480001,-27.5446484764],[-58.8075019301,-27.5446577261],[-58.80749197910001,-27.5446666716],[-58.8074816839,-27.5446753022],[-58.807471057,-27.5446836072],[-58.80746011149999,-27.5446915766],[-58.80744886059999,-27.5446992007],[-58.807437318,-27.5447064701],[-58.8074254979,-27.544713376],[-58.8074134145,-27.54471991],[-58.8074010827,-27.5447260642],[-58.8073885174,-27.544731831],[-58.807375734,-27.5447372034],[-58.80736274809999,-27.5447421748],[-58.8073495753,-27.5447467393],[-58.80733623190001,-27.5447508912],[-58.8073227341,-27.5447546256],[-58.8073090983,-27.5447579377],[-58.8072953411,-27.5447608237],[-58.8072814792,-27.5447632799],[-58.8072675297,-27.5447653034],[-58.8072535094,-27.5447668918],[-58.8072394355,-27.544768043],[-58.80722532510001,-27.5447687558],[-58.80721119530001,-27.5447690292],[-58.80719706350001,-27.5447688628],[-58.8071829468,-27.544768257],[-58.8071688624,-27.5447672124],[-58.80715482749999,-27.5447657303],[-58.8071408591,-27.5447638125],[-58.8071269744,-27.5447614613],[-58.8071131902,-27.5447586797],[-58.8070995233,-27.5447554709],[-58.8070859903,-27.544751839],[-58.8070726078,-27.5447477883],[-58.807059392,-27.5447433237],[-58.8070463592,-27.5447384508],[-58.807033525,-27.5447331754],[-58.8070209052,-27.544727504],[-58.8070085152,-27.5447214435],[-58.80699636989999,-27.5447150012],[-58.8069844844,-27.5447081851],[-58.8069728729,-27.5447010034],[-58.8069615497,-27.54469346480001],[-58.8069505286,-27.5446855786],[-58.806939823,-27.5446773544],[-58.8069294459,-27.5446688021],[-58.80691941,-27.5446599323],[-58.8069097274,-27.5446507556],[-58.8069004101,-27.5446412834],[-58.8068914693,-27.5446315271],[-58.806882916,-27.5446214985],[-58.8068747605,-27.5446112101],[-58.80686701280001,-27.5446006742],[-58.8068596824,-27.5445899037],[-58.8068527782,-27.5445789117],[-58.8068463085,-27.5445677117],[-58.8068402813,-27.5445563172],[-58.80683470389999,-27.5445447421],[-58.806829583,-27.5445330007],[-58.80682492510001,-27.544521107],[-58.8068207356,-27.5445090758],[-58.80682054849999,-27.5445085016]]}},{"type":"Feature","properties":{"id":"lotespit-85","description":"PIT"},"geometry":{"type":"LineString","coordinates":[[-58.8068146456,-27.5443281236],[-58.80681801840001,-27.5443158901],[-58.8068218681,-27.544303769],[-58.80682619009999,-27.544291775],[-58.806830979,-27.5442799228],[-58.8068362291,-27.5442682267],[-58.8068419339,-27.5442567011],[-58.8068480865,-27.54424536],[-58.8068546794,-27.5442342172],[-58.8068617045,-27.5442232863],[-58.8068691534,-27.5442125806],[-58.8068770169,-27.5442021131],[-58.80688528539999,-27.5441918966],[-58.80689394889999,-27.5441819435],[-58.8069029969,-27.544172266],[-58.8069124182,-27.5441628759],[-58.8069222014,-27.5441537845],[-58.8069323346,-27.544145003],[-58.8069428055,-27.5441365421],[-58.8069536013,-27.5441284121],[-58.8069647088,-27.5441206229],[-58.80697611450001,-27.5441131839],[-58.8069878046,-27.5441061043],[-58.8069997647,-27.5440993926],[-58.8070119803,-27.5440930571],[-58.8070244365,-27.5440871054],[-58.8070371181,-27.5440815448],[-58.80704263249999,-27.5440792774]]}},{"type":"Feature","properties":{"id":"lotespit-86","description":"PIT"},"geometry":{"type":"LineString","coordinates":[]}},{"type":"Feature","properties":{"id":"lotespit-87","description":"PIT"},"geometry":{"type":"LineString","coordinates":[]}},{"type":"Feature","properties":{"id":"lotespit-88","description":"PIT"},"geometry":{"type":"LineString","coordinates":[[-58.8059002497,-27.5418042814],[-58.8058309429,-27.54144869869999]]}},{"type":"Feature","properties":{"id":"lotespit-89","description":"PIT"},"geometry":{"type":"LineString","coordinates":[[-58.8063988948,-27.5417270576],[-58.8063295864,-27.5413714751]]}},{"type":"Feature","properties":{"id":"lotespit-90","description":"PIT"},"geometry":{"type":"LineString","coordinates":[[-58.80682054849999,-27.5445085016],[-58.8046990486,-27.5445636453]]}},{"type":"Feature","properties":{"id":"lotespit-91","description":"PIT"},"geometry":{"type":"LineString","coordinates":[]}},{"type":"Feature","properties":{"id":"lotespit-92","description":"PIT"},"geometry":{"type":"LineString","coordinates":[[-58.8163784683,-27.5421932484],[-58.81499107579999,-27.5422703796]]}},{"type":"Feature","properties":{"id":"lotespit-93","description":"PIT"},"geometry":{"type":"LineString","coordinates":[[-58.8148016216,-27.5424617168],[-58.8148013049,-27.5424554244],[-58.8148012348,-27.5424491259],[-58.8148014113,-27.5424428292],[-58.8148018343,-27.5424365417],[-58.81480250309999,-27.5424302712],[-58.8148034171,-27.5424240254],[-58.8148045751,-27.5424178118],[-58.8148059756,-27.542411638],[-58.814807617,-27.5424055115],[-58.81480949729999,-27.5423994398],[-58.81481161409999,-27.5423934303],[-58.814813965,-27.5423874904],[-58.814816547,-27.5423816271],[-58.8148193569,-27.5423758478],[-58.8148223915,-27.5423701594],[-58.8148256469,-27.54236456889999],[-58.8148291192,-27.542359083],[-58.8148328042,-27.5423537085],[-58.8148366973,-27.5423484519],[-58.8148407939,-27.5423433196],[-58.814845089,-27.5423383179],[-58.8148495772,-27.5423334528],[-58.8148542532,-27.5423287304],[-58.8148591113,-27.5423241562],[-58.81486414539999,-27.542319736],[-58.8148693496,-27.5423154751],[-58.81487471749999,-27.5423113786],[-58.8148802424,-27.5423074517],[-58.8148859178,-27.542303699],[-58.8148917366,-27.5423001251],[-58.8148976918,-27.5422967345],[-58.8149037761,-27.5422935311],[-58.81490998209999,-27.542290519],[-58.8149163023,-27.5422877017],[-58.8149227289,-27.5422850828],[-58.8149292542,-27.5422826655],[-58.81493587009999,-27.54228045249999],[-58.8149425686,-27.5422784468],[-58.81494934160001,-27.5422766506],[-58.8149561808,-27.5422750662],[-58.8149630779,-27.5422736956],[-58.8149700244,-27.5422725403],[-58.81497701189999,-27.5422716018],[-58.8149840319,-27.5422708813],[-58.81499107579999,-27.5422703796]]}},{"type":"Feature","properties":{"id":"lotespit-94","description":"PIT"},"geometry":{"type":"LineString","coordinates":[[-58.8099396935,-27.5425510898],[-58.8143849109,-27.5423040745]]}},{"type":"Feature","properties":{"id":"lotespit-95","description":"PIT"},"geometry":{"type":"LineString","coordinates":[[-58.8098509709,-27.5441832686],[-58.8097502302,-27.5427424198]]}},{"type":"Feature","properties":{"id":"lotespit-96","description":"PIT"},"geometry":{"type":"LineString","coordinates":[[-58.8072115475,-27.5428375192],[-58.8085695078,-27.5426272003]]}},{"type":"Feature","properties":{"id":"lotespit-97","description":"PIT"},"geometry":{"type":"LineString","coordinates":[[-58.8093335264,-27.5425847626],[-58.8093405857,-27.5425844806],[-58.8093476518,-27.5425844184],[-58.8093547159,-27.542584576],[-58.8093617697,-27.5425849533],[-58.8093688043,-27.5425855498],[-58.8093758113,-27.5425863648],[-58.8093827821,-27.5425873972],[-58.8093897083,-27.5425886459],[-58.8093965813,-27.5425901092],[-58.8094033929,-27.5425917855],[-58.8094101347,-27.5425936726],[-58.8094167985,-27.54259576839999],[-58.80942337620001,-27.5425980701],[-58.8094298597,-27.5426005751],[-58.8094362413,-27.5426032802],[-58.809442513,-27.5426061822],[-58.8094486673,-27.5426092775],[-58.8094546966,-27.5426125624],[-58.8094605937,-27.5426160329],[-58.8094663513,-27.5426196847],[-58.8094719624,-27.5426235134],[-58.8094774202,-27.5426275142],[-58.809482718,-27.5426316825],[-58.80948784939999,-27.542636013],[-58.8094928081,-27.5426405005],[-58.8094975881,-27.5426451395],[-58.8095021835,-27.5426499244],[-58.8095065888,-27.5426548493],[-58.80951079860001,-27.5426599083],[-58.8095148078,-27.5426650951],[-58.8095186114,-27.5426704035],[-58.8095222049,-27.542675827],[-58.8095255839,-27.542681359],[-58.8095287442,-27.5426869927],[-58.809531682,-27.5426927213],[-58.8095343937,-27.5426985378],[-58.809536876,-27.5427044351],[-58.809539126,-27.5427104061],[-58.8095411408,-27.54271644330001],[-58.8095429179,-27.5427225396],[-58.8095444553,-27.5427286875],[-58.8095457511,-27.5427348794],[-58.8095468036,-27.5427411079],[-58.80954761169999,-27.5427473654],[-58.8095481742,-27.5427536441],[-58.8095481742,-27.5427536441]]}},{"type":"Feature","properties":{"id":"lotespit-98","description":"PIT"},"geometry":{"type":"LineString","coordinates":[[-58.8040845267,-27.5435580584],[-58.80406805,-27.5435523781],[-58.8040518057,-27.5435461887],[-58.8040358137,-27.5435394977],[-58.8040200934,-27.5435323134],[-58.8040046639,-27.5435246444],[-58.8039895442,-27.5435165001],[-58.8039747525,-27.5435078904],[-58.8039603069,-27.5434988258],[-58.803946225,-27.5434893174],[-58.803932524,-27.5434793766],[-58.80391922059999,-27.5434690158],[-58.8039063309,-27.5434582474],[-58.80389387069999,-27.5434470846],[-58.80388185519999,-27.5434355409],[-58.80387029890001,-27.5434236306],[-58.803859216,-27.543411368],[-58.80384862,-27.5433987681],[-58.8038385238,-27.5433858462],[-58.8038289396,-27.5433726182],[-58.803822038,-27.5433624197]]}},{"type":"Feature","properties":{"id":"lotespit-99","description":"PIT"},"geometry":{"type":"LineString","coordinates":[[-58.8038895882,-27.5445846769],[-58.80392052359999,-27.5455307461]]}},{"type":"Feature","properties":{"id":"lotespit-100","description":"PIT"},"geometry":{"type":"LineString","coordinates":[[-58.80301370670001,-27.5445304551],[-58.8030206898,-27.5445315668],[-58.803027625,-27.5445328951],[-58.8030345041,-27.5445344383],[-58.8030413185,-27.5445361946],[-58.80304805999999,-27.5445381618],[-58.8030547204,-27.5445403374],[-58.8030612915,-27.544542719],[-58.8030677654,-27.5445453035],[-58.80307413420001,-27.5445480878],[-58.80308039,-27.5445510686],[-58.80308652539999,-27.5445542421],[-58.8030925327,-27.5445576046],[-58.8030984048,-27.5445611519],[-58.8031041343,-27.5445648796],[-58.8031097145,-27.5445687834],[-58.8031151383,-27.5445728583],[-58.8031203994,-27.5445770995],[-58.8031254911,-27.5445815018],[-58.8031304074,-27.5445860598],[-58.8031351423,-27.5445907679],[-58.80313968989999,-27.5445956205],[-58.8031440447,-27.5446006116],[-58.8031482015,-27.5446057351],[-58.8031521552,-27.5446109847],[-58.80315590089999,-27.5446163542],[-58.8031594341,-27.5446218369],[-58.8031627504,-27.5446274262],[-58.8031658459,-27.5446331153],[-58.8031687168,-27.5446388972],[-58.8031713595,-27.5446447648],[-58.8031737709,-27.5446507111],[-58.80317594800001,-27.5446567288],[-58.8031778882,-27.5446628106],[-58.803179589,-27.544668949],[-58.8031810485,-27.5446751365],[-58.8031822648,-27.5446813657],[-58.8031832365,-27.544687629],[-58.8031839624,-27.5446939186],[-58.8031844415,-27.544700227],[-58.8031846029,-27.5447037932]]}},{"type":"Feature","properties":{"id":"lotespit-101","description":"PIT"},"geometry":{"type":"LineString","coordinates":[[-58.8031846029,-27.5447037932],[-58.8031972229,-27.5450898157]]}},{"type":"Feature","properties":{"id":"lotespit-102","description":"PIT"},"geometry":{"type":"LineString","coordinates":[[-58.8031972229,-27.5450898157],[-58.8031973054,-27.545096114],[-58.8031971413,-27.5451024111],[-58.8031967307,-27.5451086992],[-58.8031960742,-27.5451149707],[-58.8031951725,-27.5451212179],[-58.80319402679999,-27.5451274333],[-58.8031926384,-27.5451336092],[-58.803191009,-27.5451397383],[-58.8031891407,-27.5451458128],[-58.8031870356,-27.5451518256],[-58.8031846964,-27.5451577692],[-58.8031821259,-27.5451636365],[-58.8031793273,-27.5451694202],[-58.8031763039,-27.5451751133],[-58.8031730595,-27.54518070889999],[-58.8031695979,-27.5451862002],[-58.8031659234,-27.5451915804],[-58.8031620405,-27.5451968431],[-58.803157954,-27.5452019817],[-58.80315366870001,-27.5452069902],[-58.80314918989999,-27.5452118622],[-58.80314452310001,-27.545216592],[-58.803139674,-27.5452211737],[-58.8031346484,-27.5452256018],[-58.8031294525,-27.5452298708],[-58.8031240926,-27.5452339757],[-58.8031185753,-27.5452379112],[-58.8031129072,-27.5452416728],[-58.8031070953,-27.5452452557],[-58.8031011467,-27.5452486557],[-58.8030950685,-27.5452518686],[-58.80308886829999,-27.5452548904],[-58.8030825535,-27.5452577175],[-58.8030761319,-27.5452603464],[-58.8030696113,-27.545262774],[-58.80306299960001,-27.5452649973],[-58.8030563048,-27.5452670135],[-58.8030495352,-27.5452688203],[-58.803042699,-27.5452704153],[-58.80303580450001,-27.5452717967],[-58.8030288601,-27.5452729629],[-58.8030218743,-27.5452739123],[-58.8030148555,-27.5452746438],[-58.8030078124,-27.5452751565],[-58.8030007535,-27.54527544979999],[-58.8029936874,-27.5452755233],[-58.8029866228,-27.545275377],[-58.8029856734,-27.5452753406]]}},{"type":"Feature","properties":{"id":"lotespit-103","description":"PIT"},"geometry":{"type":"LineString","coordinates":[]}},{"type":"Feature","properties":{"id":"lotespit-104","description":"PIT"},"geometry":{"type":"LineString","coordinates":[]}},{"type":"Feature","properties":{"id":"lotespit-105","description":"PIT"},"geometry":{"type":"LineString","coordinates":[]}},{"type":"Feature","properties":{"id":"lotespit-106","description":"PIT"},"geometry":{"type":"LineString","coordinates":[]}},{"type":"Feature","properties":{"id":"lotespit-107","description":"PIT"},"geometry":{"type":"LineString","coordinates":[]}},{"type":"Feature","properties":{"id":"lotespit-108","description":"PIT"},"geometry":{"type":"LineString","coordinates":[]}},{"type":"Feature","properties":{"id":"lotespit-109","description":"PIT"},"geometry":{"type":"LineString","coordinates":[]}},{"type":"Feature","properties":{"id":"lotespit-110","description":"PIT"},"geometry":{"type":"LineString","coordinates":[]}},{"type":"Feature","properties":{"id":"lotespit-111","description":"PIT"},"geometry":{"type":"LineString","coordinates":[]}},{"type":"Feature","properties":{"id":"lotespit-112","description":"PIT"},"geometry":{"type":"LineString","coordinates":[]}},{"type":"Feature","properties":{"id":"lotespit-113","description":"PIT"},"geometry":{"type":"LineString","coordinates":[]}},{"type":"Feature","properties":{"id":"lotespit-114","description":"PIT"},"geometry":{"type":"LineString","coordinates":[]}},{"type":"Feature","properties":{"id":"lotespit-115","description":"PIT"},"geometry":{"type":"LineString","coordinates":[]}},{"type":"Feature","properties":{"id":"lotespit-116","description":"PIT"},"geometry":{"type":"LineString","coordinates":[]}},{"type":"Feature","properties":{"id":"lotespit-117","description":"PIT"},"geometry":{"type":"LineString","coordinates":[]}},{"type":"Feature","properties":{"id":"lotespit-118","description":"PIT"},"geometry":{"type":"LineString","coordinates":[]}},{"type":"Feature","properties":{"id":"lotespit-119","description":"PIT"},"geometry":{"type":"LineString","coordinates":[]}},{"type":"Feature","properties":{"id":"lotespit-120","description":"PIT"},"geometry":{"type":"LineString","coordinates":[]}},{"type":"Feature","properties":{"id":"lotespit-121","description":"PIT"},"geometry":{"type":"LineString","coordinates":[]}},{"type":"Feature","properties":{"id":"lotespit-122","description":"PIT"},"geometry":{"type":"LineString","coordinates":[]}},{"type":"Feature","properties":{"id":"lotespit-123","description":"PIT"},"geometry":{"type":"LineString","coordinates":[[-58.8042049331,-27.5449375465],[-58.8039013845,-27.5449454328]]}},{"type":"Feature","properties":{"id":"lotespit-124","description":"PIT"},"geometry":{"type":"LineString","coordinates":[]}},{"type":"Feature","properties":{"id":"lotespit-125","description":"PIT"},"geometry":{"type":"LineString","coordinates":[[-58.8042167305,-27.5452983024],[-58.80391318080001,-27.5453061887]]}},{"type":"Feature","properties":{"id":"lotespit-126","description":"PIT"},"geometry":{"type":"LineString","coordinates":[[-58.8042167305,-27.5452983024],[-58.80391318080001,-27.5453061887]]}},{"type":"Feature","properties":{"id":"lotespit-127","description":"PIT"},"geometry":{"type":"LineString","coordinates":[[-58.8097986925,-27.5453822628],[-58.8047310407,-27.5455418078]]}},{"type":"Feature","properties":{"id":"lotespit-128","description":"PIT"},"geometry":{"type":"LineString","coordinates":[[-58.80977055660001,-27.5445493181],[-58.8097986925,-27.5453822628]]}},{"type":"Feature","properties":{"id":"lotespit-129","description":"PIT"},"geometry":{"type":"LineString","coordinates":[[-58.80704674329999,-27.5430462012],[-58.80704565530001,-27.5430399776],[-58.8070448117,-27.5430337239],[-58.8070442135,-27.5430274477],[-58.80704386130001,-27.54302115679999],[-58.8070437557,-27.5430148588],[-58.8070438967,-27.5430085613],[-58.8070442842,-27.543002272],[-58.8070449176,-27.5429959987],[-58.8070457964,-27.5429897488],[-58.8070469193,-27.5429835301],[-58.807048285,-27.5429773501],[-58.8070498918,-27.5429712164],[-58.8070517378,-27.5429651364],[-58.8070538207,-27.5429591175],[-58.807056138,-27.54295316709999],[-58.80705868690001,-27.5429472924],[-58.80706146429999,-27.5429415005],[-58.80706446670001,-27.5429357986],[-58.8070676905,-27.5429301936],[-58.80707113180001,-27.5429246922],[-58.80707478650001,-27.5429193013],[-58.8070786499,-27.5429140273],[-58.8070827175,-27.5429088767],[-58.8070869843,-27.5429038558],[-58.8070914451,-27.5428989707],[-58.8070960944,-27.5428942274],[-58.8071009266,-27.5428896315],[-58.80710593580001,-27.5428851888],[-58.80711111589999,-27.5428809046],[-58.8071164606,-27.5428767842],[-58.80712196329999,-27.5428728325],[-58.8071276174,-27.5428690544],[-58.807133416,-27.5428654546],[-58.807139352,-27.5428620372],[-58.80714541819999,-27.5428588067],[-58.8071516072,-27.5428557668],[-58.8071579114,-27.5428529213],[-58.8071643232,-27.5428502736],[-58.8071708348,-27.542847827],[-58.8071774381,-27.5428455844],[-58.8071841253,-27.5428435487],[-58.8071908881,-27.5428417222],[-58.80719771830001,-27.5428401072],[-58.8072046075,-27.5428387056],[-58.8072115475,-27.5428375192],[-58.8072115475,-27.5428375192]]}},{"type":"Feature","properties":{"id":"lotespit-130","description":"PIT"},"geometry":{"type":"LineString","coordinates":[[-58.80977055660001,-27.5445493181],[-58.8075991626,-27.54450612759999]]}},{"type":"Feature","properties":{"id":"lotespit-131","description":"PIT"},"geometry":{"type":"LineString","coordinates":[[-58.8095481742,-27.5427536441],[-58.8096438173,-27.5441216213]]}},{"type":"Feature","properties":{"id":"lotespit-132","description":"PIT"},"geometry":{"type":"LineString","coordinates":[[-58.8096438173,-27.5441216213],[-58.8096442128,-27.5441294868],[-58.8096443,-27.5441373599],[-58.809644079,-27.5441452308],[-58.8096435499,-27.5441530901],[-58.8096427134,-27.5441609282],[-58.80964157060001,-27.5441687354],[-58.8096401227,-27.5441765024],[-58.8096383717,-27.5441842196],[-58.8096363195,-27.5441918775],[-58.80963396880001,-27.544199467],[-58.80963132229999,-27.5442069788],[-58.8096283834,-27.5442144036],[-58.80962515550001,-27.5442217325],[-58.80962164260001,-27.5442289566],[-58.8096178491,-27.54423606690001],[-58.8096137794,-27.5442430549],[-58.8096094387,-27.5442499121],[-58.80960483200001,-27.54425663],[-58.8095999652,-27.5442632005],[-58.8095948441,-27.5442696157],[-58.8095894749,-27.5442758676],[-58.80958386419999,-27.5442819487],[-58.8095780188,-27.5442878516],[-58.8095719458,-27.544293569],[-58.80956565269999,-27.544299094],[-58.8095591472,-27.5443044199],[-58.809552437,-27.5443095402],[-58.8095455305,-27.5443144486],[-58.8095384359,-27.5443191392],[-58.8095311621,-27.5443236062],[-58.8095237178,-27.5443278443],[-58.809516112,-27.5443318482],[-58.80950835420001,-27.544335613],[-58.8095004536,-27.5443391342],[-58.80949242010001,-27.5443424075],[-58.8094842632,-27.5443454289],[-58.809475993,-27.5443481948],[-58.8094676196,-27.5443507016],[-58.8094591531,-27.5443529465],[-58.8094506038,-27.5443549266],[-58.80944198229999,-27.5443566396],[-58.8094332989,-27.5443580833],[-58.8094245643,-27.5443592561],[-58.8094157891,-27.5443601564],[-58.809406984,-27.5443607831],[-58.8093981597,-27.5443611356],[-58.809389327,-27.54436121339999],[-58.8093855998,-27.5443611638]]}},{"type":"Feature","properties":{"id":"lotespit-133","description":"PIT"},"geometry":{"type":"LineString","coordinates":[[-58.8093855998,-27.5443611638],[-58.807603681,-27.5443257178]]}},{"type":"Feature","properties":{"id":"lotespit-134","description":"PIT"},"geometry":{"type":"LineString","coordinates":[[-58.8072420945,-27.5440483866],[-58.8072561595,-27.5440496205],[-58.80727016760001,-27.5440512911],[-58.8072841018,-27.5440533965],[-58.8072979451,-27.5440559341],[-58.8073116806,-27.5440589007],[-58.8073252916,-27.5440622928],[-58.8073387615,-27.5440661063],[-58.8073520738,-27.5440703364],[-58.80736521250001,-27.5440749781],[-58.8073781613,-27.5440800257],[-58.80739090470001,-27.544085473],[-58.807403427,-27.5440913134],[-58.8074157131,-27.5440975398],[-58.8074277478,-27.5441041446],[-58.8074395167,-27.5441111197],[-58.8074510052,-27.5441184567],[-58.80746219949999,-27.5441261466],[-58.8074730859,-27.5441341801],[-58.80748365110001,-27.5441425473],[-58.8074938823,-27.5441512381],[-58.807503767,-27.5441602418],[-58.8075132931,-27.5441695476],[-58.8075224491,-27.544179144],[-58.80753122379999,-27.5441890194],[-58.8075396065,-27.5441991617],[-58.8075475869,-27.5442095586],[-58.8075551555,-27.5442201975],[-58.80756230279999,-27.5442310653],[-58.8075690203,-27.5442421488],[-58.80757529980001,-27.5442534345],[-58.80758113360001,-27.5442649087],[-58.8075865145,-27.5442765574],[-58.8075914361,-27.5442883664],[-58.8075958923,-27.5443003212],[-58.8075998778,-27.5443124075],[-58.8076033876,-27.5443246103],[-58.807603681,-27.5443257178]]}},{"type":"Feature","properties":{"id":"lotespit-135","description":"PIT"},"geometry":{"type":"LineString","coordinates":[[-58.80723948639999,-27.5447680397],[-58.80726220390001,-27.5454621423]]}},{"type":"Feature","properties":{"id":"lotespit-136","description":"PIT"},"geometry":{"type":"LineString","coordinates":[[-58.8087237721,-27.543488359],[-58.8071636206,-27.5436458043]]}},{"type":"Feature","properties":{"id":"lotespit-137","description":"PIT"},"geometry":{"type":"LineString","coordinates":[[-58.8077746876,-27.5427503026],[-58.8080782461,-27.5443351601]]}},{"type":"Feature","properties":{"id":"lotespit-138","description":"PIT"},"geometry":{"type":"LineString","coordinates":[[-58.8087237721,-27.543488359],[-58.808869157,-27.544350893]]}},{"type":"Feature","properties":{"id":"lotespit-139","description":"PIT"},"geometry":{"type":"LineString","coordinates":[[-58.80959691790001,-27.5434508251],[-58.8087237721,-27.543488359]]}},{"type":"Feature","properties":{"id":"lotespit-140","description":"PIT"},"geometry":{"type":"LineString","coordinates":[[-58.8163784683,-27.5421932484],[-58.81499107579999,-27.5422703796]]}},{"type":"Feature","properties":{"id":"lotespit-141","description":"PIT"},"geometry":{"type":"LineString","coordinates":[[-58.8148016216,-27.5424617168],[-58.8149024278,-27.543902559]]}},{"type":"Feature","properties":{"id":"lotespit-142","description":"PIT"},"geometry":{"type":"LineString","coordinates":[[-58.8149024278,-27.543902559],[-58.8149030612,-27.5439151438],[-58.8149032014,-27.5439277407],[-58.8149028483,-27.5439403343],[-58.81490200239999,-27.5439529092],[-58.8149006646,-27.5439654501],[-58.8148988367,-27.5439779418],[-58.8148965207,-27.543990369],[-58.81489371959999,-27.5440027166],[-58.81489043679999,-27.5440149696],[-58.81488667619999,-27.5440271129],[-58.81488244240001,-27.5440391319],[-58.8148777406,-27.5440510119],[-58.8148725766,-27.5440627383],[-58.8148669566,-27.544074297],[-58.81486088739999,-27.5440856738],[-58.8148543765,-27.5440968548],[-58.8148474318,-27.5441078265],[-58.8148400617,-27.5441185755],[-58.8148322752,-27.5441290887],[-58.8148240819,-27.5441393533],[-58.8148154917,-27.5441493567],[-58.814806515,-27.5441590868],[-58.8147971628,-27.5441685318],[-58.8147874465,-27.54417768],[-58.814777378,-27.5441865205],[-58.8147669694,-27.5441950423],[-58.8147562336,-27.5442032352],[-58.81474518349999,-27.5442110891],[-58.8147338326,-27.5442185944],[-58.81472219479999,-27.5442257421],[-58.8147102842,-27.5442325234],[-58.8146981153,-27.5442389301],[-58.814685703,-27.5442449543],[-58.8146730624,-27.5442505888],[-58.8146602089,-27.5442558265],[-58.8146471581,-27.5442606613],[-58.81463392600001,-27.5442650871],[-58.8146205287,-27.5442690986],[-58.8146069825,-27.5442726909],[-58.8145933038,-27.5442758596],[-58.8145795095,-27.5442786009],[-58.8145656162,-27.5442809114],[-58.8145516409,-27.5442827883],[-58.8145376006,-27.5442842293],[-58.8145235125,-27.5442852326]]}},{"type":"Feature","properties":{"id":"lotespit-143","description":"PIT"},"geometry":{"type":"LineString","coordinates":[[-58.8097502302,-27.5427424198],[-58.80974991389999,-27.5427361274],[-58.809749844,-27.542729829],[-58.8097500209,-27.5427235322],[-58.8097504441,-27.5427172448],[-58.8097511133,-27.5427109743],[-58.8097520275,-27.5427047285],[-58.8097531858,-27.542698515],[-58.8097545866,-27.5426923412],[-58.8097562283,-27.5426862148],[-58.8097581088,-27.5426801432],[-58.809760226,-27.5426741338],[-58.8097625771,-27.5426681939],[-58.8097651593,-27.5426623308],[-58.8097679696,-27.5426565516],[-58.80977100440001,-27.5426508633],[-58.80977426,-27.5426452729],[-58.8097777326,-27.5426397872],[-58.8097814178,-27.54263441279999],[-58.80978531120001,-27.5426291564],[-58.80978940810001,-27.5426240242],[-58.8097937033,-27.54261902269999],[-58.80979819180001,-27.5426141578],[-58.8098028681,-27.5426094355],[-58.8098077263,-27.5426048615],[-58.8098127607,-27.5426004415],[-58.8098179651,-27.5425961808],[-58.8098233331,-27.5425920845],[-58.8098288583,-27.5425881578],[-58.8098345338,-27.5425844053],[-58.8098403528,-27.5425808317],[-58.8098463081,-27.5425774412],[-58.8098523926,-27.5425742381],[-58.8098585987,-27.5425712262],[-58.8098649191,-27.5425684092],[-58.8098713458,-27.5425657905],[-58.8098778712,-27.5425633734],[-58.8098844872,-27.5425611607],[-58.80989118590001,-27.5425591552],[-58.809897959,-27.5425573593],[-58.8099047982,-27.5425557751],[-58.8099116953,-27.5425544047],[-58.8099186419,-27.5425532497],[-58.80992562949999,-27.5425523115],[-58.8099326495,-27.5425515912],[-58.8099396935,-27.5425510898]]}},{"type":"Feature","properties":{"id":"lotespit-144","description":"PIT"},"geometry":{"type":"LineString","coordinates":[[-58.8143849109,-27.5423040745],[-58.8143919702,-27.5423037923],[-58.8143990363,-27.5423037298],[-58.8144061005,-27.5423038872],[-58.81441315419999,-27.5423042642],[-58.81442018879999,-27.5423048605],[-58.8144271959,-27.5423056752],[-58.8144341667,-27.5423067074],[-58.8144410929,-27.5423079558],[-58.8144479661,-27.5423094189],[-58.8144547777,-27.5423110949],[-58.81446151959999,-27.5423129818],[-58.8144681834,-27.5423150773],[-58.8144747612,-27.5423173788],[-58.8144812449,-27.5423198835],[-58.8144876265,-27.5423225884],[-58.8144938984,-27.5423254902],[-58.8145000528,-27.5423285853],[-58.8145060823,-27.54233187],[-58.8145119795,-27.5423353402],[-58.8145177373,-27.5423389918],[-58.81452334850001,-27.5423428203],[-58.8145288065,-27.542346821],[-58.8145341045,-27.5423509891],[-58.8145392361,-27.5423553194],[-58.814544195,-27.5423598067],[-58.8145489752,-27.5423644455],[-58.8145535709,-27.5423692303],[-58.8145579764,-27.542374155],[-58.8145621864,-27.5423792139],[-58.8145661958,-27.5423844006],[-58.8145699997,-27.5423897088],[-58.8145735934,-27.5423951322],[-58.8145769726,-27.5424006641],[-58.8145801332,-27.5424062977],[-58.8145830713,-27.5424120262],[-58.81458578319999,-27.5424178426],[-58.8145882659,-27.5424237398],[-58.8145905161,-27.5424297107],[-58.8145925311,-27.5424357479],[-58.8145943086,-27.5424418442],[-58.8145958462,-27.542447992],[-58.81459714229999,-27.5424541839],[-58.8145981951,-27.5424604123],[-58.81459900340001,-27.5424666697],[-58.8145995663,-27.5424729485],[-58.8145995663,-27.5424729485]]}},{"type":"Feature","properties":{"id":"lotespit-145","description":"PIT"},"geometry":{"type":"LineString","coordinates":[[-58.8145995663,-27.5424729485],[-58.81470036990001,-27.5439137907]]}},{"type":"Feature","properties":{"id":"lotespit-146","description":"PIT"},"geometry":{"type":"LineString","coordinates":[[-58.81470036990001,-27.5439137907],[-58.81470068649999,-27.5439200831],[-58.8147007566,-27.5439263815],[-58.8147005801,-27.5439326783],[-58.8147001571,-27.5439389658],[-58.81469948820001,-27.5439452363],[-58.81469857419999,-27.5439514821],[-58.8146974162,-27.5439576957],[-58.81469601570001,-27.5439638695],[-58.8146943742,-27.543969996],[-58.8146924939,-27.5439760676],[-58.814690377,-27.5439820771],[-58.8146880262,-27.5439880171],[-58.8146854441,-27.5439938803],[-58.8146826341,-27.5439996597],[-58.8146795995,-27.544005348],[-58.81467634409999,-27.5440109386],[-58.8146728717,-27.5440164244],[-58.81466918660001,-27.5440217989],[-58.8146652934,-27.5440270555],[-58.8146611967,-27.5440321878],[-58.8146569016,-27.5440371895],[-58.8146524133,-27.5440420545],[-58.8146477372,-27.544046777],[-58.81464287909999,-27.5440513511],[-58.8146378448,-27.5440557713],[-58.81463264049999,-27.5440600323],[-58.81462727260001,-27.5440641287],[-58.8146217475,-27.5440680556],[-58.81461607210001,-27.5440718083],[-58.8146102532,-27.5440753822],[-58.8146042979,-27.5440787728],[-58.8145982135,-27.5440819761],[-58.8145920073,-27.5440849883],[-58.814585687,-27.54408780549999],[-58.8145792603,-27.5440904243],[-58.8145727349,-27.5440928417],[-58.8145661189,-27.5440950546],[-58.81455942019999,-27.5440970604],[-58.8145526471,-27.5440988565],[-58.81454580779999,-27.5441004409],[-58.81453891059999,-27.5441018115],[-58.814531964,-27.5441029667],[-58.8145249764,-27.5441039052],[-58.8145179562,-27.5441046257],[-58.8145109122,-27.5441051274]]}},{"type":"Feature","properties":{"id":"lotespit-147","description":"PIT"},"geometry":{"type":"LineString","coordinates":[[-58.8145109122,-27.5441051274],[-58.8100656222,-27.5443521443]]}},{"type":"Feature","properties":{"id":"lotespit-148","description":"PIT"},"geometry":{"type":"LineString","coordinates":[[-58.8100656222,-27.5443521443],[-58.8100585628,-27.54435242630001],[-58.8100514966,-27.5443524886],[-58.8100444323,-27.544352331],[-58.8100373785,-27.5443519537],[-58.8100303437,-27.5443513572],[-58.8100233366,-27.5443505423],[-58.8100163656,-27.5443495099],[-58.8100094394,-27.5443482613],[-58.8100025662,-27.5443467979],[-58.8099957545,-27.5443451217],[-58.80998901259999,-27.5443432346],[-58.80998234869999,-27.5443411389],[-58.8099757709,-27.5443388371],[-58.8099692872,-27.5443363322],[-58.8099629056,-27.5443336271],[-58.8099566337,-27.5443307251],[-58.80995047930001,-27.5443276298],[-58.8099444499,-27.54432434490001],[-58.8099385527,-27.54432087449999],[-58.809932795,-27.5443172227],[-58.80992718379999,-27.5443133941],[-58.80992172589999,-27.5443093932],[-58.809916428,-27.544305225],[-58.8099112966,-27.5443008945],[-58.8099063377,-27.544296407],[-58.8099015577,-27.544291768],[-58.80989696210001,-27.5442869831],[-58.8098925567,-27.5442820582],[-58.8098883469,-27.5442769993],[-58.80988433760001,-27.54427181240001],[-58.8098805339,-27.544266504],[-58.8098769404,-27.5442610805],[-58.8098735613,-27.5442555486],[-58.809870401,-27.5442499149],[-58.8098674631,-27.5442441863],[-58.80986475139999,-27.5442383698],[-58.809862269,-27.5442324725],[-58.80986001900001,-27.5442265015],[-58.80985800420001,-27.5442204642],[-58.809856227,-27.544214368],[-58.8098546895,-27.5442082201],[-58.8098533937,-27.5442020282],[-58.8098523412,-27.5441957997],[-58.8098515331,-27.5441895422],[-58.8098509705,-27.5441832635]]}},{"type":"Feature","properties":{"id":"lotespit-149","description":"PIT"},"geometry":{"type":"LineString","coordinates":[[-58.8098509705,-27.5441832635],[-58.8097502302,-27.5427424198]]}},{"type":"Feature","properties":{"id":"lotespit-150","description":"PIT"},"geometry":{"type":"LineString","coordinates":[[-58.81068439300001,-27.544498574],[-58.8107441033,-27.5453524779]]}},{"type":"Feature","properties":{"id":"lotespit-151","description":"PIT"},"geometry":{"type":"LineString","coordinates":[[-58.8110379965,-27.5444789286],[-58.8110983029,-27.5453413173]]}},{"type":"Feature","properties":{"id":"lotespit-152","description":"PIT"},"geometry":{"type":"LineString","coordinates":[]}},{"type":"Feature","properties":{"id":"lotespit-153","description":"PIT"},"geometry":{"type":"LineString","coordinates":[]}},{"type":"Feature","properties":{"id":"lotespit-154","description":"PIT"},"geometry":{"type":"LineString","coordinates":[[-58.8120988066,-27.5444199869],[-58.8121609016,-27.5453078299]]}},{"type":"Feature","properties":{"id":"lotespit-155","description":"PIT"},"geometry":{"type":"LineString","coordinates":[[-58.8124524098,-27.5444003379],[-58.8125151011,-27.5452966657]]}},{"type":"Feature","properties":{"id":"lotespit-156","description":"PIT"},"geometry":{"type":"LineString","coordinates":[[-58.8128060129,-27.544380688],[-58.8128693006,-27.5452855005]]}},{"type":"Feature","properties":{"id":"lotespit-157","description":"PIT"},"geometry":{"type":"LineString","coordinates":[[-58.813159616,-27.5443610372],[-58.8132235,-27.5452743345]]}},{"type":"Feature","properties":{"id":"lotespit-158","description":"PIT"},"geometry":{"type":"LineString","coordinates":[[-58.8135132189,-27.5443413854],[-58.8135776994,-27.5452631675]]}},{"type":"Feature","properties":{"id":"lotespit-159","description":"PIT"},"geometry":{"type":"LineString","coordinates":[[-58.8138668217,-27.5443217328],[-58.8139318987,-27.5452519996]]}},{"type":"Feature","properties":{"id":"lotespit-160","description":"PIT"},"geometry":{"type":"LineString","coordinates":[[-58.8145235125,-27.5442852326],[-58.81459107250001,-27.545250912]]}},{"type":"Feature","properties":{"id":"lotespit-161","description":"PIT"},"geometry":{"type":"LineString","coordinates":[[-58.8142860981,-27.5452408308],[-58.8107441033,-27.5453524779]]}},{"type":"Feature","properties":{"id":"lotespit-162","description":"PIT"},"geometry":{"type":"LineString","coordinates":[[-58.7951313982,-27.5419945242],[-58.79500672330001,-27.542819862]]}},{"type":"Feature","properties":{"id":"lotespit-163","description":"PIT"},"geometry":{"type":"LineString","coordinates":[[-58.81632296359999,-27.5401347863],[-58.8040462101,-27.5407256869]]}},{"type":"Feature","properties":{"id":"lotespit-164","description":"PIT"},"geometry":{"type":"LineString","coordinates":[[-58.8040462101,-27.5407256869],[-58.8056747561,-27.5406473652]]}},{"type":"Feature","properties":{"id":"lotespit-165","description":"PIT"},"geometry":{"type":"LineString","coordinates":[[-58.8042352796,-27.541695802],[-58.8040462101,-27.5407256869]]}},{"type":"Feature","properties":{"id":"lotespit-166","description":"PIT"},"geometry":{"type":"LineString","coordinates":[[-58.80284950050001,-27.5407832281],[-58.8033829987,-27.5407575773]]}},{"type":"Feature","properties":{"id":"lotespit-167","description":"PIT"},"geometry":{"type":"LineString","coordinates":[[-58.8038986233,-27.5426041945],[-58.8039344844,-27.5427881977]]}},{"type":"Feature","properties":{"id":"lotespit-168","description":"PIT"},"geometry":{"type":"LineString","coordinates":[[-58.8037712835,-27.5419508098],[-58.8037886086,-27.5420397057]]}},{"type":"Feature","properties":{"id":"lotespit-169","description":"PIT"},"geometry":{"type":"LineString","coordinates":[]}},{"type":"Feature","properties":{"id":"lotespit-170","description":"PIT"},"geometry":{"type":"LineString","coordinates":[[-58.8048378802,-27.542151959],[-58.80487253219999,-27.5423297505]]}},{"type":"Feature","properties":{"id":"lotespit-171","description":"PIT"},"geometry":{"type":"LineString","coordinates":[]}},{"type":"Feature","properties":{"id":"lotespit-172","description":"PIT"},"geometry":{"type":"LineString","coordinates":[[-58.8052367981,-27.5420901832],[-58.8053754089,-27.542801349]]}},{"type":"Feature","properties":{"id":"lotespit-173","description":"PIT"},"geometry":{"type":"LineString","coordinates":[]}},{"type":"Feature","properties":{"id":"lotespit-174","description":"PIT"},"geometry":{"type":"LineString","coordinates":[[-58.8056357155,-27.5420284062],[-58.8057743288,-27.5427395718]]}},{"type":"Feature","properties":{"id":"lotespit-175","description":"PIT"},"geometry":{"type":"LineString","coordinates":[]}},{"type":"Feature","properties":{"id":"lotespit-176","description":"PIT"},"geometry":{"type":"LineString","coordinates":[]}},{"type":"Feature","properties":{"id":"lotespit-177","description":"PIT"},"geometry":{"type":"LineString","coordinates":[[-58.80623409090001,-27.5419357386],[-58.806372708,-27.5426469037]]}},{"type":"Feature","properties":{"id":"lotespit-178","description":"PIT"},"geometry":{"type":"LineString","coordinates":[[-58.8024836483,-27.5431692181],[-58.8016654115,-27.5430675515]]}},{"type":"Feature","properties":{"id":"lotespit-179","description":"PIT"},"geometry":{"type":"LineString","coordinates":[[-58.8024438573,-27.5434831227],[-58.8016046066,-27.5433788451]]}},{"type":"Feature","properties":{"id":"lotespit-180","description":"PIT"},"geometry":{"type":"LineString","coordinates":[[-58.8056747561,-27.5406473652],[-58.8065707621,-27.5406042653]]}},{"type":"Feature","properties":{"id":"lotespit-181","description":"PIT"},"geometry":{"type":"LineString","coordinates":[[-58.80284950050001,-27.5407832281],[-58.8033829987,-27.5407575773]]}},{"type":"Feature","properties":{"id":"lotespit-182","description":"PIT"},"geometry":{"type":"LineString","coordinates":[[-58.8039345071,-27.5431317293],[-58.8039363757,-27.5431034069],[-58.8039413498,-27.5430753842],[-58.8039493813,-27.543047931],[-58.803960393,-27.5430213117],[-58.80397427889999,-27.5429957827],[-58.8039909051,-27.5429715898],[-58.8040101116,-27.5429489659],[-58.8040317134,-27.5429281291],[-58.8040555025,-27.5429092799],[-58.80408124969999,-27.5428925999],[-58.8041087071,-27.5428782498],[-58.8041376103,-27.5428663676],[-58.8041676809,-27.5428570679],[-58.80419862929999,-27.5428504402],[-58.8042301575,-27.5428465483],[-58.80426196190001,-27.5428454298],[-58.8042937361,-27.5428470953],[-58.8043251741,-27.5428515289],[-58.80435597330001,-27.5428586878],[-58.8043858369,-27.5428685032],[-58.80441447740001,-27.5428808804],[-58.80444161890001,-27.5428957003],[-58.8044670002,-27.5429128201],[-58.8044903766,-27.5429320751],[-58.80451152320001,-27.5429532797],[-58.8045302362,-27.5429762298],[-58.80454633549999,-27.5430007042],[-58.8045596659,-27.5430264674],[-58.80457009920001,-27.5430532712],[-58.8045775348,-27.5430808575],[-58.8045819011,-27.5431089606],[-58.804583156,-27.5431373098],[-58.8045812876,-27.5431656321],[-58.8045763137,-27.5431936549],[-58.8045682823,-27.5432211081],[-58.8045572707,-27.5432477275],[-58.8045433849,-27.5432732566],[-58.8045267588,-27.5432974495],[-58.8045075523,-27.5433200734],[-58.8044859505,-27.5433409103],[-58.8044621614,-27.5433597596],[-58.80443641419999,-27.5433764396],[-58.8044089567,-27.5433907899],[-58.8043800534,-27.5434026721],[-58.80434998260001,-27.5434119719],[-58.80431903409999,-27.5434185996],[-58.8042875057,-27.5434224915],[-58.8042557012,-27.54342361],[-58.8042239268,-27.5434219445],[-58.8041924886,-27.5434175109],[-58.8041616893,-27.5434103519],[-58.8041318256,-27.54340053649999],[-58.804103185,-27.5433881592],[-58.8040760433,-27.5433733392],[-58.8040506621,-27.5433562193],[-58.80402728560001,-27.5433369643],[-58.8040061391,-27.5433157596],[-58.8039874261,-27.5432928095],[-58.8039713269,-27.5432683349],[-58.8039579966,-27.5432425717],[-58.8039475635,-27.5432157679],[-58.803940128,-27.5431881816],[-58.80393576189999,-27.5431600785],[-58.8039345071,-27.5431317293]]}},{"type":"Feature","properties":{"id":"lotespit-183","description":"PIT"},"geometry":{"type":"LineString","coordinates":[[-58.8003368179,-27.5450634357],[-58.80024981140001,-27.5450328224]]}},{"type":"Feature","properties":{"id":"lotespit-184","description":"PIT"},"geometry":{"type":"LineString","coordinates":[[-58.80345477029999,-27.5419082427],[-58.8037539585,-27.5418619139]]}},{"type":"Feature","properties":{"id":"lotespit-185","description":"PIT"},"geometry":{"type":"LineString","coordinates":[[-58.8035802641,-27.5430793323],[-58.803499703,-27.5426659664]]}},{"type":"Feature","properties":{"id":"lotespit-186","description":"PIT"},"geometry":{"type":"LineString","coordinates":[[-58.8035994331,-27.5426505235],[-58.803499703,-27.5426659664]]}},{"type":"Feature","properties":{"id":"lotespit-187","description":"PIT"},"geometry":{"type":"LineString","coordinates":[[-58.8032922625,-27.544030712],[-58.8033265886,-27.544418771]]}},{"type":"Feature","properties":{"id":"lotespit-188","description":"PIT"},"geometry":{"type":"LineString","coordinates":[[-58.8041479059,-27.543937929],[-58.803280227,-27.5439689567]]}},{"type":"Feature","properties":{"id":"lotespit-189","description":"PIT"},"geometry":{"type":"LineString","coordinates":[]}},{"type":"Feature","properties":{"id":"lotespit-190","description":"PIT"},"geometry":{"type":"LineString","coordinates":[]}},{"type":"Feature","properties":{"id":"lotespit-191","description":"PIT"},"geometry":{"type":"LineString","coordinates":[[-58.8112631576,-27.5424775641],[-58.8113891079,-27.5442786181]]}},{"type":"Feature","properties":{"id":"lotespit-192","description":"PIT"},"geometry":{"type":"LineString","coordinates":[[-58.8117682962,-27.5424494966],[-58.8118942547,-27.5442505504]]}},{"type":"Feature","properties":{"id":"lotespit-193","description":"PIT"},"geometry":{"type":"LineString","coordinates":[[-58.8126522883,-27.5424003739],[-58.8127782612,-27.5442014274]]}},{"type":"Feature","properties":{"id":"lotespit-194","description":"PIT"},"geometry":{"type":"LineString","coordinates":[[-58.8085695078,-27.5426272003],[-58.8093335264,-27.5425847626]]}},{"type":"Feature","properties":{"id":"lotespit-195","description":"PIT"},"geometry":{"type":"LineString","coordinates":[[-58.8084845701,-27.5435124996],[-58.8083224357,-27.5426660244]]}},{"type":"Feature","properties":{"id":"lotespit-196","description":"PIT"},"geometry":{"type":"LineString","coordinates":[]}},{"type":"Feature","properties":{"id":"lotespit-197","description":"PIT"},"geometry":{"type":"LineString","coordinates":[[-58.8086514774,-27.5426226475],[-58.80876278390001,-27.5434866821]]}},{"type":"Feature","properties":{"id":"lotespit-198","description":"PIT"},"geometry":{"type":"LineString","coordinates":[[-58.8087065057,-27.5445281576],[-58.8087364779,-27.5454157199]]}},{"type":"Feature","properties":{"id":"lotespit-199","description":"PIT"},"geometry":{"type":"LineString","coordinates":[[-58.8103158465,-27.5434342209],[-58.81082098949999,-27.543406157]]}},{"type":"Feature","properties":{"id":"lotespit-200","description":"PIT"},"geometry":{"type":"LineString","coordinates":[]}},{"type":"Feature","properties":{"id":"lotespit-201","description":"PIT"},"geometry":{"type":"LineString","coordinates":[]}},{"type":"Feature","properties":{"id":"lotespit-202","description":"PIT"},"geometry":{"type":"LineString","coordinates":[[-58.8118312751,-27.5433500235],[-58.8127152744,-27.5433009007]]}},{"type":"Feature","properties":{"id":"lotespit-203","description":"PIT"},"geometry":{"type":"LineString","coordinates":[]}},{"type":"Feature","properties":{"id":"lotespit-204","description":"PIT"},"geometry":{"type":"LineString","coordinates":[[-58.8033829987,-27.5407575773],[-58.80081797679999,-27.5408808857]]}},{"type":"Feature","properties":{"id":"lotespit-205","description":"PIT"},"geometry":{"type":"LineString","coordinates":[[-58.80356369019999,-27.5408856263],[-58.8036709209,-27.54143584059999]]}},{"type":"Feature","properties":{"id":"lotespit-206","description":"PIT"},"geometry":{"type":"LineString","coordinates":[[-58.8040622009,-27.5408077364],[-58.8041859264,-27.5414425722]]}},{"type":"Feature","properties":{"id":"lotespit-207","description":"PIT"},"geometry":{"type":"LineString","coordinates":[[-58.804139375,-27.5407212069],[-58.8041310297,-27.5407332698],[-58.8041222172,-27.5407450657],[-58.8041129482,-27.5407565803],[-58.804103234,-27.5407677995],[-58.8040930865,-27.5407787097],[-58.804082518,-27.5407892976],[-58.8040715414,-27.5407995503],[-58.80406220099999,-27.5408077364]]}},{"type":"Feature","properties":{"id":"lotespit-208","description":"PIT"},"geometry":{"type":"LineString","coordinates":[[-58.80356369019999,-27.5408856263],[-58.8035492582,-27.5408796801],[-58.8035350677,-27.5408732887],[-58.8035211361,-27.5408664596],[-58.8035074804,-27.5408592014],[-58.8034941172,-27.5408515227],[-58.8034810628,-27.540843433],[-58.8034683331,-27.5408349422],[-58.80345594349999,-27.5408260605],[-58.8034439093,-27.5408167988],[-58.803432245,-27.5408071683],[-58.8034209648,-27.5407971809],[-58.8034100826,-27.5407868486],[-58.8033996115,-27.5407761841],[-58.8033895643,-27.5407652004],[-58.8033829987,-27.5407575773]]}},{"type":"Feature","properties":{"id":"lotespit-209","description":"PIT"},"geometry":{"type":"LineString","coordinates":[[-58.8060744428,-27.5430136214],[-58.80636456489999,-27.5443395913]]}},{"type":"Feature","properties":{"id":"lotespit-210","description":"PIT"},"geometry":{"type":"LineString","coordinates":[]}},{"type":"Feature","properties":{"id":"lotespit-211","description":"PIT"},"geometry":{"type":"LineString","coordinates":[[-58.8056935412,-27.5443572683],[-58.8054491237,-27.5431104597]]}},{"type":"Feature","properties":{"id":"lotespit-212","description":"PIT"},"geometry":{"type":"LineString","coordinates":[[-58.8062028,-27.5436002671],[-58.80463761710001,-27.5438061932]]}},{"type":"Feature","properties":{"id":"lotespit-213","description":"PIT"},"geometry":{"type":"LineString","coordinates":[[-58.8103467003,-27.5438754792],[-58.8098314521,-27.5439041026]]}},{"type":"Feature","properties":{"id":"lotespit-214","description":"PIT"},"geometry":{"type":"LineString","coordinates":[[-58.8098006003,-27.5434628443],[-58.8103158465,-27.5434342209]]}},{"type":"Feature","properties":{"id":"lotespit-215","description":"PIT"},"geometry":{"type":"LineString","coordinates":[[-58.8036818785,-27.5414920655],[-58.8016872928,-27.5418009108]]}},{"type":"Feature","properties":{"id":"lotespit-216","description":"PIT"},"geometry":{"type":"LineString","coordinates":[[-58.8037165284,-27.5416698573],[-58.8017219395,-27.541978703]]}},{"type":"Feature","properties":{"id":"lotespit-217","description":"PIT"},"geometry":{"type":"LineString","coordinates":[[-58.8028255045,-27.5425551522],[-58.8026841305,-27.5418297194]]}},{"type":"Feature","properties":{"id":"lotespit-218","description":"PIT"},"geometry":{"type":"LineString","coordinates":[[-58.8035587194,-27.5424416182],[-58.8028255045,-27.5425551522]]}},{"type":"Feature","properties":{"id":"lotespit-219","description":"PIT"},"geometry":{"type":"LineString","coordinates":[[-58.8163699493,-27.5418773116],[-58.80852804060001,-27.5423130951]]}},{"type":"Feature","properties":{"id":"lotespit-220","description":"PIT"},"geometry":{"type":"LineString","coordinates":[[-58.80852804060001,-27.5423130951],[-58.8071508998,-27.5425263848]]}},{"type":"Feature","properties":{"id":"lotespit-221","description":"PIT"},"geometry":{"type":"LineString","coordinates":[[-58.8031021883,-27.540771079],[-58.8033829987,-27.5407575773]]}},{"type":"Feature","properties":{"id":"lotespit-222","description":"PIT"},"geometry":{"type":"LineString","coordinates":[[-58.8032555627,-27.54155807960001],[-58.8031021883,-27.540771079]]}},{"type":"Feature","properties":{"id":"lotespit-223","description":"PIT"},"geometry":{"type":"LineString","coordinates":[[-58.802002578,-27.5409161684],[-58.8021607074,-27.5417276092]]}},{"type":"Feature","properties":{"id":"lotespit-224","description":"PIT"},"geometry":{"type":"LineString","coordinates":[[-58.80603463250001,-27.5419666281],[-58.80623409090001,-27.5419357386]]}},{"type":"Feature","properties":{"id":"lotespit-225","description":"PIT"},"geometry":{"type":"LineString","coordinates":[[-58.80623409090001,-27.5419357386],[-58.80632072640001,-27.5423802168]]}},{"type":"Feature","properties":{"id":"lotespit-226","description":"PIT"},"geometry":{"type":"LineString","coordinates":[[-58.8061212672,-27.5424111064],[-58.80603463250001,-27.5419666281]]}},{"type":"Feature","properties":{"id":"lotespit-227","description":"PIT"},"geometry":{"type":"LineString","coordinates":[[-58.80512397,-27.54256555],[-58.8051759488,-27.5428322372]]}},{"type":"Feature","properties":{"id":"lotespit-228","description":"PIT"},"geometry":{"type":"LineString","coordinates":[]}},{"type":"Feature","properties":{"id":"lotespit-229","description":"PIT"},"geometry":{"type":"LineString","coordinates":[[-58.806372708,-27.5426469037],[-58.80632072640001,-27.5423802168]]}},{"type":"Feature","properties":{"id":"lotespit-230","description":"PIT"},"geometry":{"type":"LineString","coordinates":[[-58.8158742735,-27.544804695],[-58.81614252370001,-27.5444455687]]}},{"type":"Feature","properties":{"id":"lotespit-231","description":"PIT"},"geometry":{"type":"LineString","coordinates":[[-58.81614252370001,-27.5444455687],[-58.81611942470001,-27.5435888415]]}},{"type":"Feature","properties":{"id":"lotespit-232","description":"PIT"},"geometry":{"type":"LineString","coordinates":[[-58.81611942470001,-27.5435888415],[-58.8164119477,-27.543434868]]}},{"type":"Feature","properties":{"id":"lotespit-233","description":"PIT"},"geometry":{"type":"LineString","coordinates":[[-58.8071508998,-27.5425263848],[-58.8071439177,-27.5425273546],[-58.8071369018,-27.5425281065],[-58.80712986080001,-27.5425286398],[-58.8071228032,-27.54252895360001],[-58.8071157376,-27.5425290478],[-58.8071086726,-27.5425289221],[-58.8071016168,-27.5425285766],[-58.8070945789,-27.5425280119],[-58.8070875674,-27.5425272286],[-58.8070805908,-27.5425262277],[-58.80707365760001,-27.5425250104],[-58.8070667763,-27.5425235781],[-58.8070599553,-27.5425219326],[-58.8070532029,-27.5425200759],[-58.8070465273,-27.5425180103],[-58.8070399366,-27.5425157383],[-58.80703343890001,-27.54251326270001],[-58.8070270421,-27.5425105864],[-58.807020754,-27.5425077128],[-58.80701458219999,-27.5425046453],[-58.8070085342,-27.5425013877],[-58.8070026175,-27.5424979439],[-58.80699683930001,-27.5424943181],[-58.80699120649999,-27.5424905149],[-58.806985726,-27.5424865387],[-58.8069804046,-27.5424823944],[-58.8069752487,-27.5424780871],[-58.8069702645,-27.5424736221],[-58.8069654582,-27.5424690047],[-58.8069608357,-27.5424642407],[-58.8069564024,-27.5424593357],[-58.80695216390001,-27.5424542958],[-58.8069481254,-27.5424491271],[-58.8069442916,-27.542443836],[-58.8069406674,-27.5424384288],[-58.806937257,-27.5424329122],[-58.8069340648,-27.5424272928],[-58.8069310944,-27.5424215775],[-58.8069283497,-27.5424157733],[-58.8069258339,-27.5424098873],[-58.8069235501,-27.5424039266],[-58.806921501,-27.5423978985],[-58.80691968920001,-27.5423918103],[-58.80691811690001,-27.5423856695],[-58.80691678619999,-27.5423794843]]}},{"type":"Feature","properties":{"id":"lotespit-234","description":"PIT"},"geometry":{"type":"LineString","coordinates":[[-58.8008254745,-27.544812817],[-58.80134987509999,-27.5449740518]]}},{"type":"Feature","properties":{"id":"lotespit-235","description":"PIT"},"geometry":{"type":"LineString","coordinates":[[-58.80134987509999,-27.5449740518],[-58.80238295649999,-27.54519777220001]]}},{"type":"Feature","properties":{"id":"lotespit-236","description":"PIT"},"geometry":{"type":"LineString","coordinates":[[-58.80238295649999,-27.54519777220001],[-58.8029856734,-27.5452753406]]}},{"type":"Feature","properties":{"id":"lotespit-237","description":"PIT"},"geometry":{"type":"LineString","coordinates":[[-58.8008254745,-27.544812817],[-58.8010664541,-27.5445188495]]}},{"type":"Feature","properties":{"id":"lotespit-238","description":"PIT"},"geometry":{"type":"LineString","coordinates":[[-58.8010664541,-27.5445188495],[-58.80127879989999,-27.5441909036]]}},{"type":"Feature","properties":{"id":"lotespit-239","description":"PIT"},"geometry":{"type":"LineString","coordinates":[[-58.80127879989999,-27.5441909036],[-58.80136761290001,-27.5440235329]]}},{"type":"Feature","properties":{"id":"lotespit-240","description":"PIT"},"geometry":{"type":"LineString","coordinates":[[-58.80136761290001,-27.5440235329],[-58.8015126107,-27.5436824052]]}},{"type":"Feature","properties":{"id":"lotespit-241","description":"PIT"},"geometry":{"type":"LineString","coordinates":[[-58.8015126107,-27.5436824052],[-58.8016046066,-27.5433788451]]}},{"type":"Feature","properties":{"id":"lotespit-242","description":"PIT"},"geometry":{"type":"LineString","coordinates":[[-58.80166537620001,-27.5430680041],[-58.8016962502,-27.5426719019]]}},{"type":"Feature","properties":{"id":"lotespit-243","description":"PIT"},"geometry":{"type":"LineString","coordinates":[[-58.8016962502,-27.5426719019],[-58.8016759202,-27.5422752586]]}},{"type":"Feature","properties":{"id":"lotespit-244","description":"PIT"},"geometry":{"type":"LineString","coordinates":[[-58.8030548514,-27.5431606893],[-58.802769622,-27.5431847546]]}},{"type":"Feature","properties":{"id":"lotespit-245","description":"PIT"},"geometry":{"type":"LineString","coordinates":[[-58.8031019335,-27.5434739239],[-58.8027778448,-27.5435012677]]}},{"type":"Feature","properties":{"id":"lotespit-246","description":"PIT"},"geometry":{"type":"LineString","coordinates":[[-58.802769622,-27.5431847546],[-58.8024836483,-27.5431692181]]}},{"type":"Feature","properties":{"id":"lotespit-247","description":"PIT"},"geometry":{"type":"LineString","coordinates":[[-58.8027778448,-27.5435012677],[-58.8024438573,-27.5434831227]]}},{"type":"Feature","properties":{"id":"lotespit-248","description":"PIT"},"geometry":{"type":"LineString","coordinates":[[-58.8035994331,-27.5426505235],[-58.80341734069999,-27.541716186]]}},{"type":"Feature","properties":{"id":"lotespit-249","description":"PIT"},"geometry":{"type":"LineString","coordinates":[[-58.8040845267,-27.5435580584],[-58.8041479059,-27.543937929]]}},{"type":"Feature","properties":{"id":"lotespit-250","description":"PIT"},"geometry":{"type":"LineString","coordinates":[[-58.8045833159,-27.5434807408],[-58.8046511806,-27.543887485]]}},{"type":"Feature","properties":{"id":"lotespit-251","description":"PIT"},"geometry":{"type":"LineString","coordinates":[[-58.8041479059,-27.543937929],[-58.8041872372,-27.5443964127]]}},{"type":"Feature","properties":{"id":"lotespit-252","description":"PIT"},"geometry":{"type":"LineString","coordinates":[[-58.8046511806,-27.543887485],[-58.8046937127,-27.5443832527]]}},{"type":"Feature","properties":{"id":"lotespit-253","description":"PIT"},"geometry":{"type":"LineString","coordinates":[[-58.8032267306,-27.5444213648],[-58.80315184549999,-27.54438133]]}},{"type":"Feature","properties":{"id":"lotespit-254","description":"PIT"},"geometry":{"type":"LineString","coordinates":[[-58.80315184549999,-27.54438133],[-58.8030571239,-27.5443541992]]}},{"type":"Feature","properties":{"id":"lotespit-255","description":"PIT"},"geometry":{"type":"LineString","coordinates":[[-58.8039205535,-27.5455316611],[-58.8042241038,-27.5455237748]]}},{"type":"Feature","properties":{"id":"lotespit-256","description":"PIT"},"geometry":{"type":"LineString","coordinates":[[-58.8062167867,-27.5445241983],[-58.8062485013,-27.545494053]]}},{"type":"Feature","properties":{"id":"lotespit-257","description":"PIT"},"geometry":{"type":"LineString","coordinates":[]}},{"type":"Feature","properties":{"id":"lotespit-258","description":"PIT"},"geometry":{"type":"LineString","coordinates":[[-58.80723948639999,-27.5447680397],[-58.80723948639999,-27.5447680397]]}},{"type":"Feature","properties":{"id":"lotespit-259","description":"PIT"},"geometry":{"type":"LineString","coordinates":[[-58.8142860981,-27.5452408308],[-58.8145831409,-27.5451375401]]}},{"type":"Feature","properties":{"id":"lotespit-260","description":"PIT"},"geometry":{"type":"LineString","coordinates":[[-58.8038986233,-27.5426041945],[-58.8038986233,-27.5426041945]]}},{"type":"Feature","properties":{"id":"lotespit-261","description":"PIT"},"geometry":{"type":"LineString","coordinates":[[-58.8064139035,-27.5419078913],[-58.8064208856,-27.5419069216],[-58.8064279015,-27.5419061697],[-58.8064349424,-27.5419056364],[-58.806442,-27.5419053225],[-58.80644906560001,-27.5419052284],[-58.8064561305,-27.5419053541],[-58.80646318620001,-27.5419056996],[-58.8064702241,-27.5419062643],[-58.8064772356,-27.5419070475],[-58.8064842122,-27.54190804850001],[-58.8064911453,-27.5419092658],[-58.80649802649999,-27.5419106981],[-58.8065048475,-27.5419123436],[-58.80651159990001,-27.5419142003],[-58.8065182755,-27.5419162659],[-58.8065248661,-27.5419185379],[-58.8065313638,-27.5419210135],[-58.8065377606,-27.5419236898],[-58.8065440487,-27.5419265634],[-58.8065502204,-27.5419296309],[-58.8065562683,-27.5419328885],[-58.806562185,-27.5419363323],[-58.8065679632,-27.541939958],[-58.806573596,-27.5419437613],[-58.8065790764,-27.5419477375],[-58.8065843978,-27.5419518817],[-58.80658955379999,-27.541956189],[-58.8065945379,-27.541960654],[-58.8065993442,-27.5419652713],[-58.8066039667,-27.54197003539999],[-58.8066083999,-27.5419749404],[-58.8066126384,-27.5419799802],[-58.806616677,-27.5419851489],[-58.8066205108,-27.5419904401],[-58.806624135,-27.5419958472],[-58.8066275453,-27.5420013639],[-58.80663073760001,-27.5420069832],[-58.80663370789999,-27.5420126985],[-58.8066364527,-27.5420185027],[-58.8066389685,-27.5420243887],[-58.8066412523,-27.5420303494],[-58.8066433014,-27.5420363775],[-58.8066451132,-27.5420424657],[-58.8066466855,-27.5420486065],[-58.8066480164,-27.5420547925],[-58.8066480164,-27.5420547925]]}},{"type":"Feature","properties":{"id":"lotespit-262","description":"PIT"},"geometry":{"type":"LineString","coordinates":[[-58.8077746876,-27.5427503026],[-58.8077746876,-27.5427503026]]}},{"type":"Feature","properties":{"id":"lotespit-263","description":"PIT"},"geometry":{"type":"LineString","coordinates":[[-58.8002398483,-27.5433945892],[-58.7972951737,-27.54369697950001]]}},{"type":"Feature","properties":{"id":"lotespit-264","description":"PIT"},"geometry":{"type":"LineString","coordinates":[[-58.800181917,-27.5429464182],[-58.7963606768,-27.5433388116]]}},{"type":"Feature","properties":{"id":"lotespit-265","description":"PIT"},"geometry":{"type":"LineString","coordinates":[[-58.800181917,-27.5429464182],[-58.8002398483,-27.5433945892]]}},{"type":"Feature","properties":{"id":"lotespit-266","description":"PIT"},"geometry":{"type":"LineString","coordinates":[[-58.80166537620001,-27.5430680041],[-58.8016046066,-27.5433788451]]}},{"type":"Feature","properties":{"id":"lotespit-267","description":"PIT"},"geometry":{"type":"LineString","coordinates":[[-58.8028255045,-27.5425551522],[-58.8026841305,-27.5418297194]]}},{"type":"Feature","properties":{"id":"lotespit-268","description":null},"geometry":{"type":"LineString","coordinates":[[-58.81476310302576,-27.54196679041247],[-58.81475381541475,-27.540339536909006],[-58.812537279005085,-27.54050094918331],[-58.812620867504265,-27.54208336594391]]}},{"type":"Feature","properties":{"id":"lotespit-269","description":null},"geometry":{"type":"LineString","coordinates":[[-58.80419139971485,-27.5468839399235],[-58.80420923432997,-27.547785443688813],[-58.80320076791066,-27.547802737861065],[-58.803183473738414,-27.546828499491003],[-58.80351782773523,-27.546854440749378],[-58.803736887250395,-27.546865970197544],[-58.80394441731739,-27.546874617283667],[-58.80410006486763,-27.546883264369793],[-58.80419230045297,-27.54688038200775]]}},{"type":"Feature","properties":{"id":"lotespit-270","description":null},"geometry":{"type":"LineString","coordinates":[[-58.81475327497341,-27.54034030253535],[-58.814753995563926,-27.540209875652966]]}},{"type":"Feature","properties":{"id":"lotespit-271","description":null},"geometry":{"type":"LineString","coordinates":[[-58.80607520345642,-27.543013693328888],[-58.805449100376684,-27.543111513490683]]}},{"type":"Feature","properties":{"id":"lotespit-272","description":null},"geometry":{"type":"LineString","coordinates":[[-58.80487271804216,-27.542329492639254],[-58.804924060116015,-27.54259647142335]]}},{"type":"Feature","properties":{"id":"lotespit-273","description":null},"geometry":{"type":"LineString","coordinates":[[-58.805124023982664,-27.54256539595758],[-58.80492392500531,-27.542596471423344]]}},{"type":"Feature","properties":{"id":"lotespit-274","description":null},"geometry":{"type":"LineString","coordinates":[[-58.80669860432159,-27.542316218010896],[-58.805722834696695,-27.542477269989963]]}},{"type":"Feature","properties":{"id":"lotespit-275","description":null},"geometry":{"type":"LineString","coordinates":[[-58.80593009454223,-27.542442681645454],[-58.80598116639464,-27.54270776887946]]}},{"type":"Feature","properties":{"id":"lotespit-276","description":null},"geometry":{"type":"LineString","coordinates":[[-58.810820933743116,-27.54340615619474],[-58.81088298334155,-27.54430754736788]]}},{"type":"Feature","properties":{"id":"lotespit-277","description":null},"geometry":{"type":"LineString","coordinates":[[-58.81034659378038,-27.543875463283083],[-58.8103147076503,-27.543434259224643]]}},{"type":"Feature","properties":{"id":"lotespit-278","description":null},"geometry":{"type":"LineString","coordinates":[[-58.80082547640335,-27.544812827685625],[-58.80059619351029,-27.54505153455141],[-58.8005140461921,-27.545140167184183],[-58.8003365107051,-27.545063339850632]]}},{"type":"Feature","properties":{"id":"lotespit-279","description":null},"geometry":{"type":"LineString","coordinates":[[-58.80025032695415,-27.545032872383093],[-58.79501384075194,-27.542782603329822]]}},{"type":"Feature","properties":{"id":"lotespit-280","description":null},"geometry":{"type":"LineString","coordinates":[[-58.80152942014696,-27.540990900062617],[-58.80150179000457,-27.540848898695163]]}},{"type":"Feature","properties":{"id":"lotespit-281","description":null},"geometry":{"type":"LineString","coordinates":[[-58.80200251033545,-27.540916318944785],[-58.801986026827514,-27.54082498409758]]}},{"type":"Feature","properties":{"id":"lotespit-282","description":null},"geometry":{"type":"LineString","coordinates":[[-58.80081798409151,-27.540880886158273],[-58.7951313981898,-27.54199452420395]]}},{"type":"Feature","properties":{"id":"lotespit-283","description":null},"geometry":{"type":"LineString","coordinates":[[-58.80286251821132,-27.54394666899809],[-58.80279883601892,-27.544303811703642]]}}]}