{
  "type": "FeatureCollection",
  "name": "nueva zona",
  "crs": {
    "type": "name",
    "properties": {
      "name": "urn:ogc:def:crs:OGC:1.3:CRS84"
    }
  },
  "features": [
    {
      "type": "Feature",
      "properties": {
        "id": "nuevazona-1"
      },
      "geometry": {
        "type": "Polygon",
        "coordinates": [
          [
            [
              -58.8025058589205,
              -27.5347981301592
            ],
            [
              -58.80244789902,
              -27.5344680702775
            ],
            [
              -58.802447898476,
              -27.534468070353412
            ],
            [
              -58.8025058589205,
              -27.5347981301592
            ]
          ]
        ]
      }
    },
    {
      "type": "Feature",
      "properties": {
        "id": "nuevazona-2"
      },
      "geometry": {
        "type": "Polygon",
        "coordinates": [
          [
            [
              -58.8007688375783,
              -27.5251964949135
            ],
            [
              -58.8006590625887,
              -27.5246131935811
            ],
            [
              -58.7992633341242,
              -27.5248219543173
            ],
            [
              -58.7992412733705,
              -27.525424967162
            ],
            [
              -58.8007688375783,
              -27.5251964949135
            ]
          ]
        ]
      }
    },
    {
      "type": "Feature",
      "properties": {
        "id": "nuevazona-3"
      },
      "geometry": {
        "type": "Polygon",
        "coordinates": [
          [
            [
              -58.8011209161629,
              -27.5270672648181
            ],
            [
              -58.8008023173535,
              -27.5253743922181
            ],
            [
              -58.8002033157974,
              -27.5254640130619
            ],
            [
              -58.8005224286056,
              -27.5271591779525
            ],
            [
              -58.8011209161629,
              -27.5270672648181
            ]
          ]
        ]
      }
    },
    {
      "type": "Feature",
      "properties": {
        "id": "nuevazona-4"
      },
      "geometry": {
        "type": "Polygon",
        "coordinates": [
          [
            [
              -58.8013212958198,
              -27.5281319565161
            ],
            [
              -58.8011544102898,
              -27.5272452328839
            ],
            [
              -58.8005559312217,
              -27.5273371450503
            ],
            [
              -58.8007224248408,
              -27.5282215573645
            ],
            [
              -58.8013212958198,
              -27.5281319565161
            ]
          ]
        ]
      }
    },
    {
      "type": "Feature",
      "properties": {
        "id": "nuevazona-5"
      },
      "geometry": {
        "type": "Polygon",
        "coordinates": [
          [
            [
              -58.8017612824354,
              -27.5305579517251
            ],
            [
              -58.801538232771605,
              -27.52928768198055
            ],
            [
              -58.8000131879407,
              -27.5295004857128
            ],
            [
              -58.8002362206518,
              -27.5307707593181
            ],
            [
              -58.8017612824354,
              -27.5305579517251
            ]
          ]
        ]
      }
    },
    {
      "type": "Feature",
      "properties": {
        "id": "nuevazona-6"
      },
      "geometry": {
        "type": "Polygon",
        "coordinates": [
          [
            [
              -58.8020117303402,
              -27.5319842232464
            ],
            [
              -58.8017925884161,
              -27.5307362374421
            ],
            [
              -58.8002675238531,
              -27.5309490432992
            ],
            [
              -58.8004866487761,
              -27.5321970309344
            ],
            [
              -58.8020117303402,
              -27.5319842232464
            ]
          ]
        ]
      }
    },
    {
      "type": "Feature",
      "properties": {
        "id": "nuevazona-7"
      },
      "geometry": {
        "type": "Polygon",
        "coordinates": [
          [
            [
              -58.8021661341211,
              -27.532863518143
            ],
            [
              -58.8020586898964,
              -27.5322516487229
            ],
            [
              -58.8005336046891,
              -27.5324644568034
            ],
            [
              -58.8006410405779,
              -27.5330763271213
            ],
            [
              -58.8021661341211,
              -27.532863518143
            ]
          ]
        ]
      }
    },
    {
      "type": "Feature",
      "properties": {
        "id": "nuevazona-8"
      },
      "geometry": {
        "type": "Polygon",
        "coordinates": [
          [
            [
              -58.8025058589205,
              -27.5347981301592
            ],
            [
              -58.802447898476,
              -27.534468070353412
            ],
            [
              -58.8009227836353,
              -27.5346808816077
            ],
            [
              -58.80098281719998,
              -27.535022777224768
            ],
            [
              -58.8025058589205,
              -27.5347981301592
            ]
          ]
        ]
      }
    },
    {
      "type": "Feature",
      "properties": {
        "id": "nuevazona-9"
      },
      "geometry": {
        "type": "Polygon",
        "coordinates": [
          [
            [
              -58.79833280924261,
              -27.535413650635082
            ],
            [
              -58.80058336624316,
              -27.535081695824356
            ],
            [
              -58.8005227877982,
              -27.5347366932462
            ],
            [
              -58.7982691605709,
              -27.5350511203891
            ],
            [
              -58.79833280924261,
              -27.535413650635082
            ]
          ]
        ]
      }
    },
    {
      "type": "Feature",
      "properties": {
        "id": "nuevazona-10"
      },
      "geometry": {
        "type": "Polygon",
        "coordinates": [
          [
            [
              -58.79550834318,
              -27.535830256434
            ],
            [
              -58.798133083212626,
              -27.535443110016235
            ],
            [
              -58.7980691617878,
              -27.5350790224518
            ],
            [
              -58.7954279048449,
              -27.5354474787923
            ],
            [
              -58.79550834318,
              -27.535830256434
            ]
          ]
        ]
      }
    },
    {
      "type": "Feature",
      "properties": {
        "id": "nuevazona-11"
      },
      "geometry": {
        "type": "Polygon",
        "coordinates": [
          [
            [
              -58.7983937594775,
              -27.5236029667182
            ],
            [
              -58.799988933139765,
              -27.52336437794156
            ],
            [
              -58.79996883897272,
              -27.523257599902443
            ],
            [
              -58.79994874433367,
              -27.523150819355145
            ],
            [
              -58.79992868100322,
              -27.523044205178085
            ],
            [
              -58.8003518780547,
              -27.5229809053341
            ],
            [
              -58.7998268635052,
              -27.5225902534669
            ],
            [
              -58.7996188280758,
              -27.5225690253063
            ],
            [
              -58.7994001274855,
              -27.5226183368106
            ],
            [
              -58.7991838034756,
              -27.5227443003466
            ],
            [
              -58.7990045561521,
              -27.5229435719504
            ],
            [
              -58.7983937594775,
              -27.5236029667182
            ]
          ]
        ]
      }
    },
    {
      "type": "Feature",
      "properties": {
        "id": "nuevazona-12"
      },
      "geometry": {
        "type": "Polygon",
        "coordinates": [
          [
            [
              -58.799988933139765,
              -27.52336437794156
            ],
            [
              -58.8004121319824,
              -27.5233010804483
            ],
            [
              -58.8003518780547,
              -27.5229809053341
            ],
            [
              -58.79992868100322,
              -27.523044205178085
            ],
            [
              -58.79994874433367,
              -27.523150819355145
            ],
            [
              -58.79996883897272,
              -27.523257599902443
            ],
            [
              -58.799988933139765,
              -27.52336437794156
            ]
          ]
        ]
      }
    },
    {
      "type": "Feature",
      "properties": {
        "id": "nuevazona-13"
      },
      "geometry": {
        "type": "Polygon",
        "coordinates": [
          [
            [
              -58.795284678447,
              -27.534006255245
            ],
            [
              -58.7952932311439,
              -27.5340462641365
            ],
            [
              -58.7952663464506,
              -27.5345335154537
            ],
            [
              -58.7953246183898,
              -27.5349559714103
            ],
            [
              -58.7953906152716,
              -27.5352700300433
            ],
            [
              -58.7980378612523,
              -27.5349007381552
            ],
            [
              -58.7978187600169,
              -27.5336527478468
            ],
            [
              -58.795284678447,
              -27.534006255245
            ]
          ]
        ]
      }
    },
    {
      "type": "Feature",
      "properties": {
        "id": "nuevazona-14"
      },
      "geometry": {
        "type": "Polygon",
        "coordinates": [
          [
            [
              -58.7961554055599,
              -27.533075285981
            ],
            [
              -58.7961239618656,
              -27.5330955033028
            ],
            [
              -58.7957218101063,
              -27.5333796101834
            ],
            [
              -58.7953142077111,
              -27.5335854233853
            ],
            [
              -58.7952275601184,
              -27.533694108489
            ],
            [
              -58.7952239879552,
              -27.5337223487831
            ],
            [
              -58.7952467639564,
              -27.5338288937024
            ],
            [
              -58.79778746019949,
              -27.533474463483802
            ],
            [
              -58.7976800399085,
              -27.5328625914873
            ],
            [
              -58.7961554055599,
              -27.533075285981
            ]
          ]
        ]
      }
    },
    {
      "type": "Feature",
      "properties": {
        "id": "nuevazona-15"
      },
      "geometry": {
        "type": "Polygon",
        "coordinates": [
          [
            [
              -58.7975233378283,
              -27.5313319195787
            ],
            [
              -58.7975227140265,
              -27.5313471198443
            ],
            [
              -58.7972931822381,
              -27.5318164742896
            ],
            [
              -58.7969857180119,
              -27.5323081754475
            ],
            [
              -58.7966527974768,
              -27.5327319230501
            ],
            [
              -58.800086662378,
              -27.5322528415386
            ],
            [
              -58.799867541914,
              -27.5310048534233
            ],
            [
              -58.7975233378283,
              -27.5313319195787
            ]
          ]
        ]
      }
    },
    {
      "type": "Feature",
      "properties": {
        "id": "nuevazona-16"
      },
      "geometry": {
        "type": "Polygon",
        "coordinates": [
          [
            [
              -58.7975494891752,
              -27.5298442312886
            ],
            [
              -58.797533592049,
              -27.530048897431
            ],
            [
              -58.7975155312668,
              -27.5304114430594
            ],
            [
              -58.7975159304772,
              -27.5307303622158
            ],
            [
              -58.7975390886684,
              -27.5309481145845
            ],
            [
              -58.7975308766147,
              -27.5311482204247
            ],
            [
              -58.7998362394416,
              -27.5308265698976
            ],
            [
              -58.7996132111768,
              -27.5295562952798
            ],
            [
              -58.7975494891752,
              -27.5298442312886
            ]
          ]
        ]
      }
    },
    {
      "type": "Feature",
      "properties": {
        "id": "nuevazona-17"
      },
      "geometry": {
        "type": "Polygon",
        "coordinates": [
          [
            [
              -58.7982542417581,
              -27.5279866939719
            ],
            [
              -58.7979635761113,
              -27.5283746370867
            ],
            [
              -58.7977302845069,
              -27.5287025297392
            ],
            [
              -58.7976359524292,
              -27.5292768570496
            ],
            [
              -58.7976192520182,
              -27.529377870536
            ],
            [
              -58.7994071652317,
              -27.5291284157419
            ],
            [
              -58.799281774204,
              -27.528986752644
            ],
            [
              -58.7991601400777,
              -27.5288425099672
            ],
            [
              -58.7990438303584,
              -27.5286948184852
            ],
            [
              -58.798933857259,
              -27.5285433183511
            ],
            [
              -58.798833144369,
              -27.528386784665
            ],
            [
              -58.7987461233889,
              -27.5282238564574
            ],
            [
              -58.798677985547,
              -27.5280539326821
            ],
            [
              -58.7986366202646,
              -27.5278772860919
            ],
            [
              -58.7986224044241,
              -27.5276972769613
            ],
            [
              -58.7986300993206,
              -27.5275169526946
            ],
            [
              -58.7986533409866,
              -27.5273376914458
            ],
            [
              -58.7986847945752,
              -27.5271594286378
            ],
            [
              -58.7987185007957,
              -27.5269814933326
            ],
            [
              -58.798751225565,
              -27.5268034124812
            ],
            [
              -58.798782627939,
              -27.5266251425001
            ],
            [
              -58.7988104936167,
              -27.526459434464
            ],
            [
              -58.7980286962694,
              -27.5263627059812
            ],
            [
              -58.7980090913475,
              -27.5265358896373
            ],
            [
              -58.7980425698508,
              -27.526662083682
            ],
            [
              -58.7984424055429,
              -27.5274849951284
            ],
            [
              -58.7982542417581,
              -27.5279866939719
            ]
          ]
        ]
      }
    },
    {
      "type": "Feature",
      "properties": {
        "id": "nuevazona-18"
      },
      "geometry": {
        "type": "Polygon",
        "coordinates": [
          [
            [
              -58.7997244988821,
              -27.5272817162805
            ],
            [
              -58.8003229459728,
              -27.5271898130233
            ],
            [
              -58.8001609250824,
              -27.5263291365677
            ],
            [
              -58.7995609426428,
              -27.52641285866
            ],
            [
              -58.7997244988821,
              -27.5272817162805
            ]
          ]
        ]
      }
    },
    {
      "type": "Feature",
      "properties": {
        "id": "nuevazona-19"
      },
      "geometry": {
        "type": "Polygon",
        "coordinates": [
          [
            [
              -58.8000036915764,
              -27.5254938796388
            ],
            [
              -58.7992274950641,
              -27.525610006603
            ],
            [
              -58.7991937045192,
              -27.5259304582769
            ],
            [
              -58.7991702004652,
              -27.5261096923667
            ],
            [
              -58.7991441425809,
              -27.526288645606
            ],
            [
              -58.8001274861448,
              -27.5261515029744
            ],
            [
              -58.8000036915764,
              -27.5254938796388
            ]
          ]
        ]
      }
    },
    {
      "type": "Feature",
      "properties": {
        "id": "nuevazona-20"
      },
      "geometry": {
        "type": "Polygon",
        "coordinates": [
          [
            [
              -58.7980187562516,
              -27.5336248460583
            ],
            [
              -58.79814339481844,
              -27.53433477409811
            ],
            [
              -58.7982378597168,
              -27.5348728361268
            ],
            [
              -58.8004914833545,
              -27.5345584093702
            ],
            [
              -58.8002723547632,
              -27.5333104220061
            ],
            [
              -58.7980187562516,
              -27.5336248460583
            ]
          ]
        ]
      }
    },
    {
      "type": "Feature",
      "properties": {
        "id": "nuevazona-21"
      },
      "geometry": {
        "type": "Polygon",
        "coordinates": [
          [
            [
              -58.8027738195436,
              -27.5363240275132
            ],
            [
              -58.80277381954359,
              -27.536324027513203
            ],
            [
              -58.80277385192725,
              -27.536324211916845
            ],
            [
              -58.8027738195436,
              -27.5363240275132
            ]
          ]
        ]
      }
    },
    {
      "type": "Feature",
      "properties": {
        "id": "nuevazona-22"
      },
      "geometry": {
        "type": "Polygon",
        "coordinates": [
          [
            [
              -58.7993609478473,
              -27.5264407655074
            ],
            [
              -58.7991147406937,
              -27.526475120312
            ],
            [
              -58.7991019695766,
              -27.5265526958663
            ],
            [
              -58.7990714769499,
              -27.5267310913374
            ],
            [
              -58.7990395835909,
              -27.5269092920477
            ],
            [
              -58.7990064635755,
              -27.5270873148333
            ],
            [
              -58.7989728743701,
              -27.5272652677406
            ],
            [
              -58.7995177735042,
              -27.5272738766601
            ],
            [
              -58.7993609478473,
              -27.5264407655074
            ]
          ]
        ]
      }
    },
    {
      "type": "Feature",
      "properties": {
        "id": "nuevazona-23"
      },
      "geometry": {
        "type": "Polygon",
        "coordinates": [
          [
            [
              -58.7981784144739,
              -27.5253288963694
            ],
            [
              -58.7989378962826,
              -27.5254138193102
            ],
            [
              -58.7989585821739,
              -27.524848429877
            ],
            [
              -58.7985318619994,
              -27.5248795688819
            ],
            [
              -58.7984308524344,
              -27.5248852065076
            ],
            [
              -58.7983300666003,
              -27.5248769806183
            ],
            [
              -58.7982394740444,
              -27.5248367547714
            ],
            [
              -58.7981695263157,
              -27.5247715450142
            ],
            [
              -58.7980777040671,
              -27.5246451216641
            ],
            [
              -58.7981857485936,
              -27.52510912341959
            ],
            [
              -58.7981920155868,
              -27.525136037285
            ],
            [
              -58.7981784144739,
              -27.5253288963694
            ]
          ]
        ]
      }
    },
    {
      "type": "Feature",
      "properties": {
        "id": "nuevazona-24"
      },
      "geometry": {
        "type": "Polygon",
        "coordinates": [
          [
            [
              -58.7992235675556,
              -27.5284457985953
            ],
            [
              -58.7997242796277,
              -27.5283708898442
            ],
            [
              -58.7995518494313,
              -27.5274548980429
            ],
            [
              -58.7989437023896,
              -27.5274452898579
            ],
            [
              -58.7989282062247,
              -27.5276000559497
            ],
            [
              -58.7989302139174,
              -27.527780501789
            ],
            [
              -58.7989639870692,
              -27.5279584270372
            ],
            [
              -58.7990307835808,
              -27.5281287691585
            ],
            [
              -58.7991200154058,
              -27.5282907441911
            ],
            [
              -58.7992235675556,
              -27.5284457985953
            ]
          ]
        ]
      }
    },
    {
      "type": "Feature",
      "properties": {
        "id": "nuevazona-25"
      },
      "geometry": {
        "type": "Polygon",
        "coordinates": [
          [
            [
              -58.80277381954359,
              -27.536324027513203
            ],
            [
              -58.8012507625315,
              -27.5365487078435
            ],
            [
              -58.8015332317917,
              -27.5381573254985
            ],
            [
              -58.8030583968327,
              -27.5379445087464
            ],
            [
              -58.80277385192725,
              -27.536324211916845
            ],
            [
              -58.80277381954359,
              -27.536324027513203
            ]
          ]
        ]
      }
    },
    {
      "type": "Feature",
      "properties": {
        "id": "nuevazona-26"
      },
      "geometry": {
        "type": "Polygon",
        "coordinates": [
          [
            [
              -58.80044562378017,
              -27.523479048109625
            ],
            [
              -58.80004637812741,
              -27.52353876662845
            ],
            [
              -58.80013010831968,
              -27.523983683937107
            ],
            [
              -58.80052935443015,
              -27.523923966570536
            ],
            [
              -58.80044562378017,
              -27.523479048109625
            ]
          ]
        ]
      }
    },
    {
      "type": "Feature",
      "properties": {
        "id": "nuevazona-27"
      },
      "geometry": {
        "type": "Polygon",
        "coordinates": [
          [
            [
              -58.80035644829469,
              -27.52736778027781
            ],
            [
              -58.79975800030774,
              -27.52745968403677
            ],
            [
              -58.79992391114416,
              -27.52834111721713
            ],
            [
              -58.80052279571284,
              -27.528251424510316
            ],
            [
              -58.80035644829469,
              -27.52736778027781
            ]
          ]
        ]
      }
    },
    {
      "type": "Feature",
      "properties": {
        "id": "nuevazona-28"
      },
      "geometry": {
        "type": "Polygon",
        "coordinates": [
          [
            [
              -58.80135479038086,
              -27.528309923762706
            ],
            [
              -58.801455039037606,
              -27.52884265237938
            ],
            [
              -58.799754599569894,
              -27.529080024141575
            ],
            [
              -58.79934310615173,
              -27.528610284539386
            ],
            [
              -58.80135479038086,
              -27.528309923762706
            ]
          ]
        ]
      }
    },
    {
      "type": "Feature",
      "properties": {
        "id": "nuevazona-29"
      },
      "geometry": {
        "type": "Polygon",
        "coordinates": [
          [
            [
              -58.80300563245371,
              -27.534728402151732
            ],
            [
              -58.803272855056306,
              -27.536250409149055
            ],
            [
              -58.79549832896421,
              -27.53739725641168
            ],
            [
              -58.79539024674747,
              -27.537312387729507
            ],
            [
              -58.79556253760065,
              -27.537070688408125
            ],
            [
              -58.79563254962078,
              -27.536586175515723
            ],
            [
              -58.79558584398934,
              -27.536135647237835
            ],
            [
              -58.79550833980096,
              -27.535830255781132
            ],
            [
              -58.80300563245371,
              -27.534728402151732
            ]
          ]
        ]
      }
    },
    {
      "type": "Feature",
      "properties": {
        "id": "nuevazona-30"
      },
      "geometry": {
        "type": "Polygon",
        "coordinates": [
          [
            [
              -58.80085127136615,
              -27.536607636428403
            ],
            [
              -58.80113322368185,
              -27.538213138156863
            ],
            [
              -58.79887952913699,
              -27.5385275727588
            ],
            [
              -58.79860072351347,
              -27.536939610703268
            ],
            [
              -58.80085127136615,
              -27.536607636428403
            ]
          ]
        ]
      }
    },
    {
      "type": "Feature",
      "properties": {
        "id": "nuevazona-31"
      },
      "geometry": {
        "type": "Polygon",
        "coordinates": [
          [
            [
              -58.79840098338118,
              -27.536969110753123
            ],
            [
              -58.798679521906664,
              -27.538555475800642
            ],
            [
              -58.79482301662323,
              -27.53909343812667
            ],
            [
              -58.7955258304208,
              -27.538190695854073
            ],
            [
              -58.795634047038284,
              -27.537503963243243
            ],
            [
              -58.79549834952098,
              -27.53739725532191
            ],
            [
              -58.79840098338118,
              -27.536969110753123
            ]
          ]
        ]
      }
    },
    {
      "type": "Feature",
      "properties": {
        "id": "nuevazona-32"
      },
      "geometry": {
        "type": "Polygon",
        "coordinates": [
          [
            [
              -58.802338323911854,
              -27.5338440776715
            ],
            [
              -58.80241659148014,
              -27.534289786731883
            ],
            [
              -58.800891477991414,
              -27.53450259788065
            ],
            [
              -58.80081321618084,
              -27.534056888250937
            ],
            [
              -58.802338323911854,
              -27.5338440776715
            ]
          ]
        ]
      }
    },
    {
      "type": "Feature",
      "properties": {
        "id": "nuevazona-33"
      },
      "geometry": {
        "type": "Polygon",
        "coordinates": [
          [
            [
              -58.802197441209486,
              -27.53304180089897
            ],
            [
              -58.8006723449401,
              -27.53325461099507
            ],
            [
              -58.80081321873112,
              -27.534056889472307
            ],
            [
              -58.8023383237829,
              -27.53384407767213
            ],
            [
              -58.802197441209486,
              -27.53304180089897
            ]
          ]
        ]
      }
    },
    {
      "type": "Feature",
      "properties": {
        "id": "nuevazona-34"
      },
      "geometry": {
        "type": "Polygon",
        "coordinates": [
          [
            [
              -58.800133617334055,
              -27.532520267510886
            ],
            [
              -58.797880034729154,
              -27.532834689849945
            ],
            [
              -58.797987456115656,
              -27.533446561729875
            ],
            [
              -58.80024105092558,
              -27.533132137907316
            ],
            [
              -58.800133617334055,
              -27.532520267510886
            ]
          ]
        ]
      }
    },
    {
      "type": "Feature",
      "properties": {
        "id": "nuevazona-35"
      },
      "geometry": {
        "type": "Polygon",
        "coordinates": [
          [
            [
              -58.7985772895862,
              -27.525555407530494
            ],
            [
              -58.79853845346545,
              -27.525805418700322
            ],
            [
              -58.79813550907462,
              -27.525763397524038
            ],
            [
              -58.79816518464513,
              -27.525509255716138
            ],
            [
              -58.7985772895862,
              -27.525555407530494
            ]
          ]
        ]
      }
    },
    {
      "type": "Feature",
      "properties": {
        "id": "nuevazona-36"
      },
      "geometry": {
        "type": "Polygon",
        "coordinates": [
          [
            [
              -58.79813532179328,
              -27.525763496779295
            ],
            [
              -58.798125370864724,
              -27.525834375323033
            ],
            [
              -58.798121530155456,
              -27.525881860455797
            ],
            [
              -58.79811389238136,
              -27.52598108605263
            ],
            [
              -58.79805883552085,
              -27.52618452316282
            ],
            [
              -58.79883886168013,
              -27.526281000521983
            ],
            [
              -58.798888553579495,
              -27.5259256486566
            ],
            [
              -58.79890321810579,
              -27.525795762852276
            ],
            [
              -58.7989133327009,
              -27.525711278159484
            ],
            [
              -58.79892310905176,
              -27.52559326363835
            ],
            [
              -58.79857729246218,
              -27.525555413012068
            ],
            [
              -58.79853845438079,
              -27.52580541918095
            ],
            [
              -58.79813532179328,
              -27.525763496779295
            ]
          ]
        ]
      }
    },
    {
      "type": "Feature",
      "properties": {
        "id": "nuevazona-37"
      },
      "geometry": {
        "type": "Polygon",
        "coordinates": [
          [
            [
              -58.80052935442868,
              -27.52392396724265
            ],
            [
              -58.80060882380042,
              -27.524346242448132
            ],
            [
              -58.7991704544569,
              -27.524561380903872
            ],
            [
              -58.799174779049046,
              -27.524107464145125
            ],
            [
              -58.799094552336776,
              -27.523681129938122
            ],
            [
              -58.80004637872185,
              -27.52353876686067
            ],
            [
              -58.80013010828623,
              -27.523983683952107
            ],
            [
              -58.80052935442868,
              -27.52392396724265
            ]
          ]
        ]
      }
    },
    {
      "type": "Feature",
      "properties": {
        "id": "nuevazona-38"
      },
      "geometry": {
        "type": "Polygon",
        "coordinates": [
          [
            [
              -58.79889492954809,
              -27.523710986663186
            ],
            [
              -58.79838895972978,
              -27.523786660238002
            ],
            [
              -58.798163900628204,
              -27.52424788587146
            ],
            [
              -58.79837358243016,
              -27.524558263520642
            ],
            [
              -58.79840685678593,
              -27.524592193189875
            ],
            [
              -58.79845432776204,
              -27.524607819440636
            ],
            [
              -58.798454327923714,
              -27.524607819446324
            ],
            [
              -58.798504932599265,
              -27.52460961982394
            ],
            [
              -58.798508179456846,
              -27.524609379028284
            ],
            [
              -58.79871249845652,
              -27.52459496235922
            ],
            [
              -58.79896789221262,
              -27.524576162988634
            ],
            [
              -58.798972241845895,
              -27.52412180560537
            ],
            [
              -58.79889492954809,
              -27.523710986663186
            ]
          ]
        ]
      }
    },
    {
      "type": "Feature",
      "properties": {
        "id": "nuevazona-39"
      },
      "geometry": {
        "type": "Polygon",
        "coordinates": [
          [
            [
              -58.79962422327668,
              -27.525779287563296
            ],
            [
              -58.79920299023232,
              -27.525842395323345
            ],
            [
              -58.79917370758702,
              -27.526083323030615
            ],
            [
              -58.79966756231038,
              -27.52600929923218
            ],
            [
              -58.79962422327668,
              -27.525779287563296
            ]
          ]
        ]
      }
    },
    {
      "type": "Feature",
      "properties": {
        "id": "nuevazona-40"
      },
      "geometry": {
        "type": "Polygon",
        "coordinates": [
          [
            [
              -58.79853291545604,
              -27.524879113481216
            ],
            [
              -58.798499359415956,
              -27.52513488507567
            ],
            [
              -58.798186169708465,
              -27.525109531623155
            ],
            [
              -58.7980777067997,
              -27.524645118358603
            ],
            [
              -58.79816952629396,
              -27.52477154504521
            ],
            [
              -58.79823947394325,
              -27.52483675466977
            ],
            [
              -58.798330066600215,
              -27.524876980618128
            ],
            [
              -58.79843085266782,
              -27.524885207097313
            ],
            [
              -58.79853291545604,
              -27.524879113481216
            ]
          ]
        ]
      }
    },
    {
      "type": "Feature",
      "properties": {
        "id": "nuevazona-41"
      },
      "geometry": {
        "type": "Polygon",
        "coordinates": [
          [
            [
              -58.80065906258858,
              -27.52461319358099
            ],
            [
              -58.799263318550544,
              -27.524821959927554
            ],
            [
              -58.79925230741748,
              -27.525123458134267
            ],
            [
              -58.8007139495062,
              -27.524904841179325
            ],
            [
              -58.80065906258858,
              -27.52461319358099
            ]
          ]
        ]
      }
    },
    {
      "type": "Feature",
      "properties": {
        "id": "nuevazona-42"
      },
      "geometry": {
        "type": "Polygon",
        "coordinates": [
          [
            [
              -58.80071394397568,
              -27.52490483564887
            ],
            [
              -58.79925230374699,
              -27.525123460754337
            ],
            [
              -58.799241273370356,
              -27.52542496716222
            ],
            [
              -58.80076883757602,
              -27.525196494916237
            ],
            [
              -58.80071394397568,
              -27.52490483564887
            ]
          ]
        ]
      }
    }
  ]
}