{"type":"FeatureCollection","name":"pitfases","features":[{"type":"Feature","properties":{"id":"pitfases-1","Name":"ZONA SUR FASE 2-3","description":"115 HECTÁREAS SIN LAS 40 DE PSFV\nPRÓXIMA A TENER VINCULACIÓN VIAL Y ELÉCTRICA","Layer":null,"AREA":null},"geometry":{"type":"Polygon","coordinates":[[[-58.81344389846213,-27.54645026136101],[-58.8158964284041,-27.54718614594265],[-58.81624871695804,-27.54757928664348],[-58.8162241349159,-27.54836327390617],[-58.81652047232429,-27.54846668974955],[-58.81661035472806,-27.5517162846042],[-58.81351797566854,-27.55176290262601],[-58.81349445187059,-27.55004431774028],[-58.81191456105816,-27.55012047067893],[-58.8119426862886,-27.55044910881903],[-58.80620492302582,-27.55039760999854],[-58.80619875511911,-27.55016019132585],[-58.8050106042371,-27.55018181225851],[-58.80478232255484,-27.55034267452525],[-58.8043925645044,-27.55040601866537],[-58.80422827480727,-27.55030817556737],[-58.8010871858627,-27.5502372044567],[-58.80022311919646,-27.55107438817133],[-58.80023233113963,-27.55332761958565],[-58.79756895412457,-27.55212600175167],[-58.79665736335616,-27.55100468668078],[-58.79505542385809,-27.54903007624018],[-58.79331921509899,-27.5463616052996],[-58.7933728900354,-27.54584816112606],[-58.79421894468854,-27.54531620810873],[-58.79481721834692,-27.54462009098856],[-58.79467345237438,-27.54385040815964],[-58.79934617846429,-27.54559877670267],[-58.80206044576551,-27.54643319611898],[-58.80432123502472,-27.54657244832141],[-58.80748847144876,-27.54665627575849],[-58.81344389846213,-27.54645026136101]]]}},{"type":"Feature","properties":{"id":"pitfases-2","Name":"ZONA OESTE FASE 3-2","description":"40 HECTÁREAS\nCON LÍNEA DE 13,2 kV en límite norte\nPróximo a futura planta de efluentes cloacales","Layer":null,"AREA":null},"geometry":{"type":"Polygon","coordinates":[[[-58.82355143885948,-27.5398020543347],[-58.82444249981904,-27.54535721021076],[-58.8196391927991,-27.54549427570569],[-58.81763570535021,-27.54476705399985],[-58.81729514893528,-27.54446392375687],[-58.81725979307385,-27.54352637777123],[-58.81687894818078,-27.54340701397165],[-58.81687547355108,-27.54011375200141],[-58.82355143885948,-27.5398020543347]]]}},{"type":"Feature","properties":{"id":"pitfases-4","Name":null,"description":null,"Layer":null,"AREA":null},"geometry":{"type":"Polygon","coordinates":[[[-58.82567818635545,-27.544146658515192],[-58.8250390684136,-27.539642624044664],[-58.83036966145242,-27.539371108108092],[-58.83145572519869,-27.543465320937095],[-58.82567818635545,-27.544146658515192]]]}},{"type":"Feature","properties":{"id":"pitfases-5","Name":null,"description":null,"Layer":null,"AREA":null},"geometry":{"type":"Polygon","coordinates":[[[-58.82575716619216,-27.545240729433765],[-58.825678550317754,-27.544147386439874],[-58.83145827293527,-27.543468960560823],[-58.830373665038564,-27.539367832446572],[-58.832254986588275,-27.5392610094876],[-58.83325342639121,-27.5430136436216],[-58.833485042951715,-27.545271370516733],[-58.82575716619216,-27.545240729433765]]]}},{"type":"Feature","properties":{"id":"pitfases-6","Name":null,"description":null,"Layer":"fuelle planta lc","AREA":216056},"geometry":{"type":"MultiPolygon","coordinates":[[[[-58.8303703908254,-27.5393691157082],[-58.8314572953329,-27.5434694680531],[-58.8256739368035,-27.5441443048565],[-58.8257564188163,-27.5452427171866],[-58.8334850506564,-27.5452713842699],[-58.8333745748455,-27.5441952811173],[-58.8332530661963,-27.5430116913809],[-58.8328295157699,-27.5414194921428],[-58.8322553148695,-27.5392609014707],[-58.8303703908254,-27.5393691157082]]]]}},{"type":"Feature","properties":{"id":"pitfases-7","Name":null,"description":null,"Layer":"planta.lc","AREA":null},"geometry":{"type":"MultiPolygon","coordinates":[[[[-58.8314572953329,-27.5434694680531],[-58.8303703908254,-27.5393691157082],[-58.8250396889411,-27.5396414885088],[-58.8256689829096,-27.5441448827991],[-58.8314572953329,-27.5434694680531]]]]}},{"type":"Feature","properties":{"id":"pitfases-8","Name":null,"description":null,"Layer":null,"AREA":null},"geometry":{"type":"Polygon","coordinates":[[[-58.8303683875837,-27.539366983201],[-58.8314554218965,-27.543465199617],[-58.8256756992779,-27.5441470224784],[-58.8250375519023,-27.5396411681951],[-58.8303683875837,-27.539366983201]]]}},{"type":"Feature","properties":{"id":"pitfases-9","Name":null,"description":null,"Layer":null,"AREA":null},"geometry":{"type":"Polygon","coordinates":[[[-58.816317902131495,-27.540134032147378],[-58.8165175739508,-27.543397418444023],[-58.81612447005655,-27.543628288985087],[-58.81616190852267,-27.544483133961453],[-58.815899839259856,-27.544841919261767],[-58.81382824413464,-27.545559489862367],[-58.81351625691699,-27.5456218873059],[-58.8083185498709,-27.545715483471195],[-58.80467453916872,-27.54580283989213],[-58.804212798086596,-27.54580283989213],[-58.803158281290926,-27.545734202704246],[-58.80220984014927,-27.54559692832848],[-58.80154842724784,-27.54545341420836],[-58.801011809233486,-27.545316139832586],[-58.80024432067806,-27.54507278980282],[-58.79919604362675,-27.54467344616422],[-58.794984216188425,-27.542988715188898],[-58.79512149056419,-27.54197163685935],[-58.801529708014776,-27.540967038018508],[-58.80353266595213,-27.54065505080086],[-58.816317902131495,-27.540134032147378]]]}},{"type":"Feature","properties":{"id":"pitfases-10","Name":null,"description":null,"Layer":null,"AREA":null},"geometry":{"type":"Polygon","coordinates":[[[-58.819943193600665,-27.546333218162143],[-58.81961248714995,-27.546401855350027],[-58.81759080997956,-27.547113186206275],[-58.81731626122803,-27.5474688516344],[-58.8173474599498,-27.54832369661077],[-58.817054191965205,-27.548479690219594],[-58.81714154838616,-27.5517493162606],[-58.816617409860505,-27.5517493162606],[-58.81351001717266,-27.551830432937212],[-58.813478818450896,-27.55005678560486],[-58.811937601595695,-27.55013478240927],[-58.81196256057311,-27.55046860873216],[-58.81192824197916,-27.55047796834869],[-58.81184712530258,-27.551828873001124],[-58.81006255841761,-27.55235925127116],[-58.80784120942793,-27.554281092531898],[-58.80365122109487,-27.553880188957244],[-58.8019072125482,-27.5538864287016],[-58.80075909958724,-27.55368051713795],[-58.80019752259546,-27.553368529920295],[-58.79987305588914,-27.55320629656715],[-58.7975393915011,-27.552158019515836],[-58.794868780917966,-27.548844715264366],[-58.79328388585229,-27.546398735477972],[-58.7933088448297,-27.545837158486197],[-58.79415745006172,-27.545300540471832],[-58.79471902705349,-27.544626648081703],[-58.794762705263956,-27.544582969871236],[-58.79465038986561,-27.543831080676693],[-58.794201128272206,-27.543653247962663],[-58.793882901310205,-27.543522213331247],[-58.7939764974755,-27.543840440293252],[-58.794213607760916,-27.544027632623845],[-58.79424480648268,-27.544451935239852],[-58.79385170258844,-27.54499479299857],[-58.79310293326607,-27.54545029433634],[-58.792416561387235,-27.545606287945166],[-58.792235608801,-27.545724843087875],[-58.792023457492995,-27.546018111072467],[-58.79197353953818,-27.54644865343285],[-58.793021816589494,-27.546847997071445],[-58.79342116022809,-27.54718494326651],[-58.793508516649034,-27.54732221764228],[-58.793670750002214,-27.547721561280873],[-58.79363331153609,-27.548183302363],[-58.7930342960782,-27.54910678452725],[-58.79228552675583,-27.549805635894792],[-58.79246023959772,-27.551041105276695],[-58.79243528062031,-27.551590202779764],[-58.792547596018665,-27.552026984884478],[-58.79243528062031,-27.552488725966604],[-58.79258503448478,-27.552601041364966],[-58.79320900892009,-27.552538643921437],[-58.79389538079892,-27.55227657465861],[-58.79436960136976,-27.552351451590845],[-58.79631640160791,-27.553312372221214],[-58.796740704223915,-27.553374769664746],[-58.79840047622183,-27.5540985800097],[-58.79934891736349,-27.555321569902897],[-58.799985371287505,-27.55557115967702],[-58.800871414985636,-27.55569595456408],[-58.80175745868377,-27.555658516097964],[-58.80276829726896,-27.55582074945114],[-58.803953848696054,-27.555995462293026],[-58.80667437723398,-27.55679414957022],[-58.807498023488584,-27.55724341116364],[-58.813488178067516,-27.55884078571802],[-58.815659609102376,-27.55759283684741],[-58.819054030030436,-27.556744231615394],[-58.821624804703895,-27.556544559796098],[-58.82277291766486,-27.557343247073288],[-58.824070784490296,-27.5596145140178],[-58.825368651315735,-27.557942262531185],[-58.82604254370586,-27.55771763173448],[-58.82788950803437,-27.556145216157514],[-58.82921233383721,-27.55534652888032],[-58.83031052884335,-27.55377411330335],[-58.831733190555845,-27.551802354087787],[-58.832207411126674,-27.55013010260117],[-58.8324570009008,-27.54808346645337],[-58.83303105738128,-27.547734040769598],[-58.83305601635869,-27.546336338034514],[-58.82606750268327,-27.546236502124867],[-58.819943193600665,-27.546333218162143]]]}},{"type":"Feature","properties":{"id":"pitfases-11","Name":null,"description":null,"Layer":null,"AREA":null},"geometry":{"type":"Polygon","coordinates":[[[-58.81189704325748,-27.550479528284942],[-58.81181904645305,-27.551814833576493],[-58.810059438545494,-27.552338972102152],[-58.80783808955581,-27.554242094129844],[-58.806474705414665,-27.554111059498428],[-58.8036668204558,-27.553836510746887],[-58.801894733059534,-27.55385522997995],[-58.80074662009857,-27.553643078671943],[-58.80026615978339,-27.553374769664764],[-58.80025368029468,-27.551103502720252],[-58.801096045782344,-27.550273616721295],[-58.80418159936492,-27.550318854867854],[-58.80437815131204,-27.550431170266204],[-58.8047556558454,-27.550378132439203],[-58.804918669166625,-27.550256457424325],[-58.80501148536387,-27.550190940108617],[-58.806182997366186,-27.55017222087556],[-58.80619235698271,-27.550410891097062],[-58.81189704325748,-27.550479528284942]]]}}]}