{"type":"FeatureCollection","name":"pitdisponible","features":[{"type":"Feature","properties":{"id":"pitdisponible-1","description":"DISPONIBLE\n\nLote\t4\nmedidas: 33,05x46,33\nSuperficie m2\t1.186,35\nEstado lote\tDISPONILE\n\t\n Sin Acceso  \t\n Con Acceso: Tierra \t\n Con Acceso: Ripio \t\n Con Acceso: Pavimento \t\n Agua \t x \n Cloacas \t x \n sumidero y entubado  \t\n Cuneta tierra \t\n Energia: MT y BT \t\n Energia: Alum. Publ. \t\nFibra Optica\t\npasto alto\t si \nConsumo Energ. Declarado\t\nConsumo Energ. (Kva)"},"geometry":{"type":"Point","coordinates":[-58.80255795665864,-27.54372722358637]}},{"type":"Feature","properties":{"id":"pitdisponible-2","description":"DISPONIBLE   \n\nSUP: 6000M2\nMEDIDAS:73.52X81.60\npensado para ARBOX"},"geometry":{"type":"Point","coordinates":[-58.803131542957814,-27.54216428191142]}},{"type":"Feature","properties":{"id":"pitdisponible-3","description":"Mz= 8\nLote\t1\nSuperficie m2\t10.015,15\nmedidas:   105.14x92.36\nEstado lote\tDisponible\n Empresa con Boleto \t\n Sin Acceso  \t\n Con Acceso: Tierra \t x \n Con Acceso: Ripio \t\n Con Acceso: Pavimento \t\n Agua \t x \n Cloacas \t x \n sumidero y entubado  \t x \n Cuneta tierra \t\n Energia: MT y BT \t\n Energia: Alum. Publ. \t\nFibra Optica\t\npasto alto\t si \nConsumo Energ. Declarado\t\nConsumo Energ. (Kva)"},"geometry":{"type":"Point","coordinates":[-58.80924782527808,-27.54503815365573]}},{"type":"Feature","properties":{"id":"pitdisponible-4","description":"MZ= 9\nLote\t2\nSuperficie m2\t6.615,11\nMEDIDAS: 65*103.30\nEstado lote\tReservado\n Empresa con Boleto \t\n Sin Acceso  \t\n Con Acceso: Tierra \t x \n Con Acceso: Ripio \t\n Con Acceso: Pavimento \t\n Agua \t x \n Cloacas \t\n sumidero y entubado  \t\n Cuneta tierra \t x \n Energia: MT y BT \t\n Energia: Alum. Publ. \t\nFibra Optica\t\npasto alto\tsi\nConsumo Energ. Declarado\t\nConsumo Energ. (Kva)"},"geometry":{"type":"Point","coordinates":[-58.81425305143199,-27.544808235667446]}},{"type":"Feature","properties":{"id":"pitdisponible-5","description":"Manzana\t9\nLote\t3\nSuperficie m2\t3.598,91\nMEDIDAS: 35X103.30\nEstado lote\tReservado\n Empresa con Boleto \t\n Sin Acceso  \t\n Con Acceso: Tierra \t x \n Con Acceso: Ripio \t\n Con Acceso: Pavimento \t\n Agua \t x \n Cloacas \t\n sumidero y entubado  \t\n Cuneta tierra \tx\n Energia: MT y BT \t\n Energia: Alum. Publ. \t\nFibra Optica\t\npasto alto\tsi\nConsumo Energ. Declarado\t\nConsumo Energ. (Kva)"},"geometry":{"type":"Point","coordinates":[-58.813728297074185,-27.54482100331]}},{"type":"Feature","properties":{"id":"pitdisponible-6","description":"Manzana\t9\nLote\t4\nSuperficie m2\t3.566,01\nMEDIDAS: 35X102.36\nEstado lote\tReservado\n Empresa con Boleto \t\n Sin Acceso  \t\n Con Acceso: Tierra \t x \n Con Acceso: Ripio \t\n Con Acceso: Pavimento \t\n Agua \t x \n Cloacas \t\n sumidero y entubado  \t\n Cuneta tierra \tx\n Energia: MT y BT \t\n Energia: Alum. Publ. \t\nFibra Optica\t\npasto alto\tsi\nConsumo Energ. Declarado\t\nConsumo Energ. (Kva)"},"geometry":{"type":"Point","coordinates":[-58.81338599348706,-27.54483099484159]}},{"type":"Feature","properties":{"id":"pitdisponible-7","description":"Manzana\t9\nLote\t5\nSuperficie m2\t3.532,94\nMEDIDAS: 35*101.42\nEstado lote\tDisponible\n Empresa con Boleto \t\n Sin Acceso  \t\n Con Acceso: Tierra \t x \n Con Acceso: Ripio \t\n Con Acceso: Pavimento \t\n Agua \t x \n Cloacas \t\n sumidero y entubado  \t\n Cuneta tierra \tx\n Energia: MT y BT \t\n Energia: Alum. Publ. \t\nFibra Optica\t\npasto alto\tsi\nConsumo Energ. Declarado\t\nConsumo Energ. (Kva)"},"geometry":{"type":"Point","coordinates":[-58.813023222345876,-27.54485447299685]}},{"type":"Feature","properties":{"id":"pitdisponible-8","description":"Lote\t5\nmedidas: 26,91x39,25\nSuperficie m2\t1.147,34\nEstado lote\tDisponible\n Empresa con Boleto \t\n Sin Acceso  \t\n Con Acceso: Tierra \t\n Con Acceso: Ripio \t\n Con Acceso: Pavimento \t\n Agua \t x \n Cloacas \t x \n sumidero y entubado  \t\n Cuneta tierra \t\n Energia: MT y BT \t\n Energia: Alum. Publ. \t\nFibra Optica\t\npasto alto\t si \nConsumo Energ. Declarado\t\nConsumo Energ. (Kva)"},"geometry":{"type":"Point","coordinates":[-58.80227792327581,-27.54367694592294]}},{"type":"Feature","properties":{"id":"pitdisponible-9","description":"Lote\t6\nmedidas: 29,99x36,92\nSuperficie m2\t1.141,48\nEstado lote\tDisponible\n Empresa con Boleto \t\n Sin Acceso  \t x \n Con Acceso: Tierra \t\n Con Acceso: Ripio \t\n Con Acceso: Pavimento \t\n Agua \t \n Cloacas \t \n sumidero y entubado  \t\n Cuneta tierra \t\n Energia: MT y BT \t\n Energia: Alum. Publ. \t\nFibra Optica\t\npasto alto\t si \nConsumo Energ. Declarado\t\nConsumo Energ. (Kva)"},"geometry":{"type":"Point","coordinates":[-58.80198753852152,-27.543632511403334]}},{"type":"Feature","properties":{"id":"pitdisponible-10","description":"Lote\t7\nmedidas: 28,81x36,92\nSuperficie m2\t1.016,78\nEstado lote\tDisponible\n Empresa con Boleto \t\n Sin Acceso  \t x \n Con Acceso: Tierra \t\n Con Acceso: Ripio \t\n Con Acceso: Pavimento \t\n Agua \t \n Cloacas \t \n sumidero y entubado  \t\n Cuneta tierra \t\n Energia: MT y BT \t\n Energia: Alum. Publ. \t\nFibra Optica\t\npasto alto\t si \nConsumo Energ. Declarado\t\nConsumo Energ. (Kva)"},"geometry":{"type":"Point","coordinates":[-58.801691241788035,-27.543571324221148]}},{"type":"Feature","properties":{"id":"pitdisponible-11","description":"mz : 6\nLote\t9\nmedidas: 15x40\nSuperficie m2\t600,00\nEstado lote\tDisponible\n Empresa con Boleto \t\n Sin Acceso  \t x \n Con Acceso: Tierra \t\n Con Acceso: Ripio \t\n Con Acceso: Pavimento \t\n Agua \t\n Cloacas \t\n sumidero y entubado  \t\n Cuneta tierra \t\n Energia: MT y BT \t\n Energia: Alum. Publ. \t\nFibra Optica\t\npasto alto\t si \nConsumo Energ. Declarado\t\nConsumo Energ. (Kva)"},"geometry":{"type":"Point","coordinates":[-58.80168154579557,-27.54393431717654]}},{"type":"Feature","properties":{"id":"pitdisponible-12","description":"MZ= 6\nLote\t10\nSuperficie m2\t600,00\nEstado lote\tDisponible\n Empresa con Boleto \t\n Sin Acceso  \t x \n Con Acceso: Tierra \t\n Con Acceso: Ripio \t\n Con Acceso: Pavimento \t\n Agua \t\n Cloacas \t\n sumidero y entubado  \t\n Cuneta tierra \t\n Energia: MT y BT \t\n Energia: Alum. Publ. \t\nFibra Optica\t\npasto alto\t si \nConsumo Energ. Declarado\t\nConsumo Energ. (Kva)"},"geometry":{"type":"Point","coordinates":[-58.80183344120687,-27.543958526108856]}},{"type":"Feature","properties":{"id":"pitdisponible-13","description":"Lote\t8\nmedidas 15x40\nSuperficie m2\t717,60\nEstado lote\tDisponible\n Empresa con Boleto \t\n Sin Acceso  \t x \n Con Acceso: Tierra \t\n Con Acceso: Ripio \t\n Con Acceso: Pavimento \t\n Agua \t\n Cloacas \t\n sumidero y entubado  \t\n Cuneta tierra \t\n Energia: MT y BT \t\n Energia: Alum. Publ. \t\nFibra Optica\t\npasto alto\t si \nConsumo Energ. Declarado\t\nConsumo Energ. (Kva)"},"geometry":{"type":"Point","coordinates":[-58.80151523436433,-27.543906243209346]}},{"type":"Feature","properties":{"id":"pitdisponible-14","description":"MZ=   6\nLote\t12\nSuperficie m2\t600,00\nEstado lote\tDisponible\n Empresa con Boleto \t\n Sin Acceso  \t x \n Con Acceso: Tierra \t\n Con Acceso: Ripio \t\n Con Acceso: Pavimento \t\n Agua \t\n Cloacas \t\n sumidero y entubado  \t\n Cuneta tierra \t\n Energia: MT y BT \t\n Energia: Alum. Publ. \t\nFibra Optica\t\npasto alto\t si \nConsumo Energ. Declarado\t\nConsumo Energ. (Kva)"},"geometry":{"type":"Point","coordinates":[-58.8021219699376,-27.54402218037684]}},{"type":"Feature","properties":{"id":"pitdisponible-15","description":"MZ= 7\nLote\t2\nmedidas: 25x30\nSuperficie m2\t750,00\nEstado lote\tDisponible\n Empresa con Boleto \t\n Sin Acceso  \t\n Con Acceso: Tierra \t x \n Con Acceso: Ripio \t\n Con Acceso: Pavimento \t\n Agua \t\n Cloacas \t\n sumidero y entubado  \t\n Cuneta tierra \t x \n Energia: MT y BT \t\n Energia: Alum. Publ. \t\nFibra Optica\t\npasto alto\t si \nConsumo Energ. Declarado\t\nConsumo Energ. (Kva)"},"geometry":{"type":"Point","coordinates":[-58.80406042717283,-27.54542599075519]}},{"type":"Feature","properties":{"id":"pitdisponible-16","description":"Mz= 6\nLote\t11\nSuperficie m2\t600,00\nEstado lote\tDisponible\n Empresa con Boleto \t\n Sin Acceso  \t x \n Con Acceso: Tierra \t\n Con Acceso: Ripio \t\n Con Acceso: Pavimento \t\n Agua \t\n Cloacas \t\n sumidero y entubado  \t\n Cuneta tierra \t\n Energia: MT y BT \t\n Energia: Alum. Publ. \t\nFibra Optica\t\npasto alto\t si \nConsumo Energ. Declarado\t\nConsumo Energ. (Kva)"},"geometry":{"type":"Point","coordinates":[-58.80198221758044,-27.54398908953694]}},{"type":"Feature","properties":{"id":"pitdisponible-17","description":"Manzana\t3\nMedidas             47,47*91,17\nLote\t12\nSuperficie m2\t4.330,44\nZONA INDUSTRIAL\nEstado lote\t   (disponible)\n Empresa con Boleto \t\n Sin Acceso  \t x \n Con Acceso: Tierra \t\n Con Acceso: Ripio \t\n Con Acceso: Pavimento \t\n Agua \t\n Cloacas \t\n sumidero y entubado  \t\n Cuneta tierra \t\n Energia: MT y BT \t\n Energia: Alum. Publ. \t\nFibra Optica\t\npasto alto\t si \nConsumo Energ. Declarado\t\nConsumo Energ. (Kva)"},"geometry":{"type":"Point","coordinates":[-58.801833825301486,-27.54136852023868]}},{"type":"Feature","properties":{"id":"pitdisponible-18","description":"Manzana\t1 \nLote\t2\nSuperficie m2\t96,074.51\n\nEstado lote\tdisponible\n\n Sin Acceso  \t\n Con Acceso: Tierra \t x \n Con Acceso: Ripio \t\n Con Acceso: Pavimento \t\n Agua \t x \n Cloacas \t x \n sumidero y entubado  \t\n Cuneta tierra \t x \n Energia: MTx\t\n Energia: Alum. Publ. \t\nFibra Optica\t\npasto alto\tsi\nConsumo Energ. Declarado\t\nConsumo Energ. (Kva)\t"},"geometry":{"type":"Point","coordinates":[-58.80967550024441,-27.541451950478862]}},{"type":"Feature","properties":{"id":"pitdisponible-19","description":"Manzana\t3\nMedidas             109,78*91,28\nLote\tE.P.4\nSuperficie m2\t9.997,15\nEstado lote\t E.P.4 Disponible\n Empresa con Boleto \t\n Sin Acceso  \t x \n Con Acceso: Tierra \t\n Con Acceso: Ripio \t\n Con Acceso: Pavimento \t\n Agua \t\n Cloacas \t\n sumidero y entubado  \t\n Cuneta tierra \t x \n Energia: MT y BT \t\n Energia: Alum. Publ. \t\nFibra Optica\t\npasto alto\t si \nConsumo Energ. Declarado\t\nConsumo Energ. (Kva)"},"geometry":{"type":"Point","coordinates":[-58.802624363210526,-27.541280071494047]}},{"type":"Feature","properties":{"id":"pitdisponible-20","description":"Manzana\t3\nMedidas            42,75*88,53 más ochava\nLote\tEP3"},"geometry":{"type":"Point","coordinates":[-58.80338499768118,-27.54118707214045]}},{"type":"Feature","properties":{"id":"pitdisponible-21","description":"Manzana\t2\nLote\tE.P.1\nSuperficie m2\t8.996,82\nEstado lote\t E.P.1 \n Empresa con Boleto \t\n Sin Acceso  \t\n Con Acceso: Tierra \t x \n Con Acceso: Ripio \t\n Con Acceso: Pavimento \t\n Agua \t x \n Cloacas \t x \n sumidero y entubado  \t\n Cuneta tierra \t x \n Energia: MT y BT \t\n Energia: Alum. Publ. \t\nFibra Optica\t\npasto alto\t\nConsumo Energ. Declarado\t\nConsumo Energ. (Kva)"},"geometry":{"type":"Point","coordinates":[-58.80625936848404,-27.54108541290221]}},{"type":"Feature","properties":{"id":"pitdisponible-22","description":"EP 7 EQUIPAMIENTO DEL PARQUE\nMza 1 \t\nParcela: Ep7\n(159x194) = 31.521,75"},"geometry":{"type":"Point","coordinates":[-58.81537082165329,-27.54125084224938]}},{"type":"Feature","properties":{"id":"pitdisponible-23","description":"MZ= 9\nLote\tE.P.6\nSuperficie m2\t44.325,53\nMEDIDAS IRREGULAR\nEstado lote\t E.P.6 \n Empresa con Boleto \t\n Sin Acceso  \t\n Con Acceso: Tierra \t x \n Con Acceso: Ripio \t\n Con Acceso: Pavimento \t\n Agua \t x \n Cloacas \t\n sumidero y entubado  \t\n Cuneta tierra \t x \n Energia: MT y BT \t\n Energia: Alum. Publ. \t\nFibra Optica\t\npasto alto\tsi\nConsumo Energ. Declarado\t\nConsumo Energ. (Kva)"},"geometry":{"type":"Point","coordinates":[-58.81541778018951,-27.54372283802303]}},{"type":"Feature","properties":{"id":"pitdisponible-24","description":"MZ: 8\nLote\t4\nmedidas: 59,67x100,20 + ochava\nSuperficie m2\t9.828,98\nEstado lote\tdisponible\n Empresa con Boleto \t\n Sin Acceso  \t\n Con Acceso: Tierra \t x \n Con Acceso: Ripio \t\n Con Acceso: Pavimento \t\n Agua \t x \n Cloacas \t x \n sumidero y entubado  \t\n Cuneta tierra \t x \n Energia: MT y BT \t\n Energia: Alum. Publ. \t\nFibra Optica\t\npasto alto\t si \nConsumo Energ. Declarado\t\nConsumo Energ. (Kva)"},"geometry":{"type":"Point","coordinates":[-58.80673499431985,-27.54505382706441]}},{"type":"Feature","properties":{"id":"pitdisponible-25","description":"MZ:4\nLOTE: 1\nSUP: 162440.91m2\n ZONA CON LITIGIO \nZONA TECNOLOGICA"},"geometry":{"type":"Point","coordinates":[-58.798154626759285,-27.542311974680654]}},{"type":"Feature","properties":{"id":"pitdisponible-26","description":"Manzana\t12\nLote\tA.V.6\nSuperficie m2\t4.143,31\nmedidas:      62.7*64.60\nEstado lote\t A.V.6 \n                                                  tanque de agua \n Sin Acceso  \t\n Con Acceso: Tierra \t\n Con Acceso: Ripio \t\n Con Acceso: Pavimento \t x \n Agua \t x \n Cloacas \t x \n sumidero y entubado  \t x \n Cuneta tierra \t\n Energia: MT y BT \t x \n Energia: Alum. Publ. \t x \nFibra Optica\t\npasto alto\t si \nConsumo Energ. Declarado\t-\nConsumo Energ. (Kva)\t-"},"geometry":{"type":"Point","coordinates":[-58.80580425082794,-27.54338358558957]}}]}