{"type":"FeatureCollection","name":"pitnodisponible","features":[{"type":"Feature","properties":{"id":"pitnodisponible-1","description":"EP2\nSUP: 15641.46M2\n\nFUTURA ESTACIÓN TRANSFORMADORA"},"geometry":{"type":"Point","coordinates":[-58.80494665239753,-27.54112549754642]}},{"type":"Feature","properties":{"id":"pitnodisponible-2","description":"Manzana\t2\nMedidas             30x40\nLote\t10Y11\nSuperficie m2\t1200,00\nEstado lote\tno disponible\n Empresa con Boleto \t Martin Arengo \n Sin Acceso  \t\n Con Acceso: Tierra \t x \n Con Acceso: Ripio \t\n Con Acceso: Pavimento \t\n Agua \t x \n Cloacas \t x \n sumidero y entubado  \t x \n Cuneta tierra \t x \n Energia: MT y BT \t\n Energia: Alum. Publ. \t\nFibra Optica\tx\npasto alto\tsi\nConsumo Energ. Declarado\t40hp\nConsumo Energ. (Kva)\t50kva"},"geometry":{"type":"Point","coordinates":[-58.80547152626453,-27.541705939054726]}},{"type":"Feature","properties":{"id":"pitnodisponible-3","description":"Manzana\t3\nMedidas             21,6*30\nLote\tA.V.3\nSuperficie m2\t648,00\nEstado lote\t A.V.3 \n Empresa con Boleto \t\n Sin Acceso  \t\n Con Acceso: Tierra \t\n Con Acceso: Ripio \t\n Con Acceso: Pavimento \t x \n Agua \t x \n Cloacas \t x \n sumidero y entubado  \t x \n Cuneta tierra \t\n Energia: MT y BT \t x \n Energia: Alum. Publ. \t x \nFibra Optica\tx\npasto alto\t no \nConsumo Energ. Declarado\t\nConsumo Energ. (Kva)"},"geometry":{"type":"Point","coordinates":[-58.80360688871232,-27.54180281413338]}},{"type":"Feature","properties":{"id":"pitnodisponible-4","description":"Manzana\t3\nMedidas              10*30\nLote\t7\nSuperficie m2\t300,00\nEstado lote\tNo Disponible\n Empresa con Boleto \tGustavo Defazy - Fabrica MDF\n Sin Acceso  \t\n Con Acceso: Tierra \t\n Con Acceso: Ripio \t\n Con Acceso: Pavimento \tx\n Agua \t x \n Cloacas \t x \n sumidero y entubado  \t x \n Cuneta tierra \t\n Energia: MT y BT \tx\n Energia: Alum. Publ. \tx\nFibra Optica\tx\npasto alto\t no \nConsumo Energ. Declarado\t25hp\nConsumo Energ. (Kva)\t50kva"},"geometry":{"type":"Point","coordinates":[-58.803627900297734,-27.541923756118344]}},{"type":"Feature","properties":{"id":"pitnodisponible-5","description":"Manzana\t3\nMedidas             30*30\nLote\t6\nSuperficie m2\t900,00\nEstado lote\tNo Disponible\n Empresa con Boleto \t Agua Noble \n Sin Acceso  \t\n Con Acceso: Tierra \t\n Con Acceso: Ripio \t\n Con Acceso: Pavimento \t x \n Agua \t x \n Cloacas \t x \n sumidero y entubado  \t x \n Cuneta tierra \t\n Energia: MT y BT \t x \n Energia: Alum. Publ. \t x \nFibra Optica\tx\npasto alto\t no \nConsumo Energ. Declarado\t25 hp\nConsumo Energ. (Kva)\t40kva"},"geometry":{"type":"Point","coordinates":[-58.80365740597969,-27.542112810883832]}},{"type":"Feature","properties":{"id":"pitnodisponible-6","description":"Manzana\t3\nMedidas            10*30\nLote\t5\nSuperficie m2\t300,00\nEstado lote\tNo Disponible\n Empresa con Boleto \t Bogado Sebastian \n Sin Acceso  \t\n Con Acceso: Tierra \t\n Con Acceso: Ripio \t\n Con Acceso: Pavimento \t x \n Agua \t x \n Cloacas \t x \n sumidero y entubado  \t x \n Cuneta tierra \t\n Energia: MT y BT \t x \n Energia: Alum. Publ. \t x \nFibra Optica\tx\npasto alto\t si \nConsumo Energ. Declarado\t25hp\nConsumo Energ. (Kva)\t40kva"},"geometry":{"type":"Point","coordinates":[-58.80368642703715,-27.54227768875176]}},{"type":"Feature","properties":{"id":"pitnodisponible-7","description":"Manzana\t3\nMedidas             30*23,50\nLote\t3\nSuperficie m2\t705,00\nEstado lote\tNo Disponible\n Empresa con Boleto \t Bizarro Juan - Bizarro Luis \n Sin Acceso  \t\n Con Acceso: Tierra \t\n Con Acceso: Ripio \t\n Con Acceso: Pavimento \t x \n Agua \t x \n Cloacas \t x \n sumidero y entubado  \t x \n Cuneta tierra \t\n Energia: MT y BT \t x \n Energia: Alum. Publ. \t x \nFibra Optica\tx\npasto alto\t si \nConsumo Energ. Declarado\t25hp\nConsumo Energ. (Kva)\t40kva"},"geometry":{"type":"Point","coordinates":[-58.80373332245466,-27.54252346845549]}},{"type":"Feature","properties":{"id":"pitnodisponible-8","description":"Manzana\t3\nLote\t1\nSuperficie m2\t19.866,11\nEstado lote\t No disonible\n Empresa con Boleto \t Plamecor \n Sin Acceso  \t x \n Con Acceso: Tierra \t\n Con Acceso: Ripio \t\n Con Acceso: Pavimento \t\n Agua \t\n Cloacas \t\n sumidero y entubado  \t\n Cuneta tierra \t\n Energia: MT y BT \t\n Energia: Alum. Publ. \t\nFibra Optica\t\npasto alto\tsi\nConsumo Energ. Declarado\t25hp\nConsumo Energ. (Kva)\t50kva"},"geometry":{"type":"Point","coordinates":[-58.80239760897773,-27.54266454296503]}},{"type":"Feature","properties":{"id":"pitnodisponible-9","description":"Lote\ts/n\nmedidas= 100X100\nSuperficie m2\t10.015,0\nEstado lote\tNo Disponible\n Empresa con Usufructo \t WORMS \n Sin Acceso  \t\n Con Acceso: Tierra \t x \n Con Acceso: Ripio \t\n Con Acceso: Pavimento \t\n Agua \t\n Cloacas \t\n sumidero y entubado  \t\n Cuneta tierra \t x \n Energia:  \t\n Energia:  \t\nFibra Optica\t\npasto alto\t si \nConsumo Energ. Declarado\t--hp\nConsumo Energ. (Kva)\t--kva"},"geometry":{"type":"Point","coordinates":[-58.80373815287837,-27.54737817777006]}},{"type":"Feature","properties":{"id":"pitnodisponible-10","description":"Lote\ts/n\nmedidas= irregular\nSuperficie m2\t400.000\nEstado lote\tNo Disponible\n Empresa con Usufructo \t ENCORSA-CORAL \n Sin Acceso  \t\n Con Acceso: Tierra \t x \n Con Acceso: Ripio \t\n Con Acceso: Pavimento \t\n Agua \t\n Cloacas \t\n sumidero y entubado  \t\n Cuneta tierra \t \n Energia:  \tGENERACIÓN FOTOVOLTAICA 20MW\n Energia:  \t\nFibra Optica\t\npasto alto\t NO \nConsumo Energ. Declarado\t--hp\nConsumo Energ. (Kva)\t--kva"},"geometry":{"type":"Point","coordinates":[-58.80463312837611,-27.55252457755707]}},{"type":"Feature","properties":{"id":"pitnodisponible-11","description":"Mz= 6\nLote\t13 a 16\nmedias: 60x40\nSuperficie m2\t2400 m2\nEstado lote\tDisponible\n Empresa con Boleto \t UICORR \n Sin Acceso  \t x \n Con Acceso: Tierra \t\n Con Acceso: Ripio \t\n Con Acceso: Pavimento \t\n Agua \t\n Cloacas \t\n sumidero y entubado  \t\n Cuneta tierra \t\n Energia: MT y BT \t\n Energia: Alum. Publ. \t\nFibra Optica\t\npasto alto\t si \nConsumo Energ. Declarado\t25hp\nConsumo Energ. (Kva)\t40kva"},"geometry":{"type":"Point","coordinates":[-58.80250122723903,-27.54407840058335]}},{"type":"Feature","properties":{"id":"pitnodisponible-12","description":"TECNORD - JORGE G. CUBILLAS\n\nManzana\t2\nLote\t3\nMedida 40x15\nSuperficie m2\t600.00\nEstado lote\tNo Disponible\nEmpresa con Boleto Tecnord \nSin Acceso \nCon Acceso: Tierra \nCon Acceso: Ripio \nCon Acceso: Pavimento x \nAgua x \nCloacas x \nsumidero y entubado x \nCuneta tierra \nEnergia: MT y BT x \nEnergia: Alum. Publ. x \nFibra Optica\tx\npasto alto\tno\nConsumo Energ. Declarado\t\nConsumo Energ. (Kva)"},"geometry":{"type":"Point","coordinates":[-58.8043519887554,-27.541881836506736]}},{"type":"Feature","properties":{"id":"pitnodisponible-13","description":"MARTIN BIKE\n\nManzana\t13\nLote\t9\nSuperficie m2\t1,000.00\nEstado lote\tNo Disponible\nEmpresa con Boleto Martin Bike \nSin Acceso \nCon Acceso: Tierra h \nCon Acceso: Ripio x \nCon Acceso: Pavimento x \nAgua x \nCloacas x \nsumidero y entubado x \nCuneta tierra x \nEnergia: MT y BT \nEnergia: Alum. Publ. x \nFibra Optica\tx\npasto alto\t si \nConsumo Energ. Declarado\t-\nConsumo Energ. (Kva)\t20kva"},"geometry":{"type":"Point","coordinates":[-58.80460293316468,-27.542285044915648]}},{"type":"Feature","properties":{"id":"pitnodisponible-14","description":"Manzana\t13\nLote\t10y11\nSuperficie m2\t3.251,49\nmedidas: 50*60+ochava\n\nEstado lote\tNo Disponible\n Empresa con Boleto \t Nea Servicios  \n Sin Acceso  \t\n Con Acceso: Tierra \t\n Con Acceso: Ripio \t\n Con Acceso: Pavimento \t x \n Agua \t x \n Cloacas \t x \n sumidero y entubado  \t x \n Cuneta tierra \t\n Energia: MT y BT \t x \n Energia: Alum. Publ. \t x \nFibra Optica\tx\npasto alto\t si \nConsumo Energ. Declarado\t-\nConsumo Energ. (Kva)\t20kva"},"geometry":{"type":"Point","coordinates":[-58.80470749839908,-27.54262590887534]}},{"type":"Feature","properties":{"id":"pitnodisponible-15","description":"JUMAR - MARTIN PUIGBO\n\nManzana\t13\nLote\t19\nSuperficie m2\t2600.00\nmedidas irregular 40x80\nEstado lote\tNo Disponible\nEmpresa con Boleto Puigbo Martin Federico \nSin Acceso \nCon Acceso: Tierra x \nCon Acceso: Ripio \nCon Acceso: Pavimento x \nAgua x \nCloacas x \nsumidero y entubado x \nCuneta tierra \nEnergia: MT y BT x \nEnergia: Alum. Publ. x \nFibra Optica\tx\npasto alto\t si \nConsumo Energ. Declarado\t100hp\nConsumo Energ. (Kva)\t100kva"},"geometry":{"type":"Point","coordinates":[-58.80511181723585,-27.542443045942598]}},{"type":"Feature","properties":{"id":"pitnodisponible-16","description":"Arcle Baterias\n\nManzana\t12\nLote\t1y 6\nSuperficie m2\t10.660,75\nmedidas: 54.02x149.75\n\nEstado lote\tNo Disponible\n Empresa con Boleto \t Acumuladores Arcle SRL \n Sin Acceso  \t\n Con Acceso: Tierra \t\n Con Acceso: Ripio \t\n Con Acceso: Pavimento \t x \n Agua \t x \n Cloacas \t x \n sumidero y entubado  \t x \n Cuneta tierra \t x \n Energia: MT y BT \t x \n Energia: Alum. Publ. \t x \nFibra Optica\tx\npasto alto\t no \nConsumo Energ. Declarado\t60hp\nConsumo Energ. (Kva)\t200kva"},"geometry":{"type":"Point","coordinates":[-58.80659291347302,-27.54373268981681]}},{"type":"Feature","properties":{"id":"pitnodisponible-17","description":"Manzana\t3\nMedidas             40*40*Más ochava\nLote\t2\nSuperficie m2\t1.511,52\nEstado lote\tNo Disponible\n Empresa con Boleto \t Enlace \n Sin Acceso  \t\n Con Acceso: Tierra \t\n Con Acceso: Ripio \t\n Con Acceso: Pavimento \t x \n Agua \t x \n Cloacas \t x \n sumidero y entubado  \t x \n Cuneta tierra \t\n Energia: MT y BT \t x \n Energia: Alum. Publ. \t x \nFibra Optica\tx\npasto alto\t no \nConsumo Energ. Declarado\t25hp\nConsumo Energ. (Kva)\t35kva"},"geometry":{"type":"Point","coordinates":[-58.803696137277335,-27.54281846108246]}},{"type":"Feature","properties":{"id":"pitnodisponible-18","description":"Lote\t21\nmedidas: 45x40 irregular\nSuperficie m2\t2089,89\nEstado lote\tDisponible\n Empresa con Boleto \t Cerveceria Morel \n Sin Acceso  \t\n Con Acceso: Tierra \t x \n Con Acceso: Ripio \t\n Con Acceso: Pavimento \t\n Agua \t\n Cloacas \t\n sumidero y entubado  \t\n Cuneta tierra \t x \n Energia: MT y BT \t\n Energia: Alum. Publ. \t\nFibra Optica\t\npasto alto\t si \nConsumo Energ. Declarado\t15hp\nConsumo Energ. (Kva)\t40kva"},"geometry":{"type":"Point","coordinates":[-58.80305046484742,-27.54418646784979]}},{"type":"Feature","properties":{"id":"pitnodisponible-19","description":"Lote\t20\nmedidas: 50,96x85,66\nSuperficie m2\t4.295,59\nEstado lote\tNo Disponible\n Empresa con Boleto \t Imagen Digital S.A \n Sin Acceso  \t\n Con Acceso: Tierra \t \n Con Acceso: Ripio \t\n Con Acceso: Pavimento \t\n Agua \t x \n Cloacas \t\n sumidero y entubado  \t\n Cuneta tierra \t\n Energia: MT y BT \t\n Energia: Alum. Publ. \t\nFibra Optica\t\npasto alto\t si \nConsumo Energ. Declarado\t60hp\nConsumo Energ. (Kva)\t85kva"},"geometry":{"type":"Point","coordinates":[-58.803741077712,-27.54422299038347]}},{"type":"Feature","properties":{"id":"pitnodisponible-20","description":"MZ= 7\nLote\t5 y 6\nmedidas: 40x30\nSuperficie m2\t700\nEstado lote\tNo Disponible\n Empresa con Boleto \t Gabriel Atilio Massacesi \n Sin Acceso  \t\n Con Acceso: Tierra \t x \n Con Acceso: Ripio \t\n Con Acceso: Pavimento \t\n Agua \t\n Cloacas \t\n sumidero y entubado  \t\n Cuneta tierra \t x \n Energia: MT y BT \t\n Energia: Alum. Publ. \t\nFibra Optica\t\npasto alto\t si \nConsumo Energ. Declarado\t25hp\nConsumo Energ. (Kva)\t40kva"},"geometry":{"type":"Point","coordinates":[-58.80404180822361,-27.54480979421079]}},{"type":"Feature","properties":{"id":"pitnodisponible-21","description":"Manzana\t12\nLote\t4\nSuperficie m2\t6.639,35\nmedidas: 64.22x98.81\nEstado lote\tNo Disponible\n Empresa con Boleto \t Aguas Aras \n Sin Acceso  \t\n Con Acceso: Tierra \t x \n Con Acceso: Ripio \t\n Con Acceso: Pavimento \t\n Agua \t x \n Cloacas \t x \n sumidero y entubado  \t\n Cuneta tierra \t x \n Energia: MT y BT \t\n Energia: Alum. Publ. \t\nFibra Optica\t\npasto alto\t si \nConsumo Energ. Declarado\t\nConsumo Energ. (Kva)"},"geometry":{"type":"Point","coordinates":[-58.80514254939556,-27.544099905408377]}},{"type":"Feature","properties":{"id":"pitnodisponible-22","description":"Manzana\t6\nLote\t2\nmedidas=32,16x54,06\nSuperficie m2\t1.564,23\nEstado lote\tNo Disponible\n Empresa con Boleto \t Comytel S.A. \n Sin Acceso  \t\n Con Acceso: Tierra \t\n Con Acceso: Ripio \t\n Con Acceso: Pavimento \t\n Agua \t x \n Cloacas \t x \n sumidero y entubado  \t\n Cuneta tierra \t\n Energia: MT y BT \t\n Energia: Alum. Publ. \t\nFibra Optica\t\npasto alto\t si \nConsumo Energ. Declarado\t100 hp\nConsumo Energ. (Kva)\t135 kwa"},"geometry":{"type":"Point","coordinates":[-58.8030799126276,-27.5437931557264]}},{"type":"Feature","properties":{"id":"pitnodisponible-23","description":"Manzana\t12\nLote\t3\nSuperficie m2\t5.461,33\nmedidas: 69.47*64.50 + ochava\nEstado lote\tNo Disponible\n Empresa con Boleto \tFrozen SRL - Xavier Albarracin\n Sin Acceso  \t\n Con Acceso: Tierra \t\n Con Acceso: Ripio \t\n Con Acceso: Pavimento \tx\n Agua \t x \n Cloacas \t x \n sumidero y entubado  \tx\n Cuneta tierra \t\n Energia: MT y BT \tx\n Energia: Alum. Publ. \tx\nFibra Optica\tx\npasto alto\t no \nConsumo Energ. Declarado\t100kva\nConsumo Energ. (Kva)\t135kva"},"geometry":{"type":"Point","coordinates":[-58.80506024646227,-27.543495645257146]}},{"type":"Feature","properties":{"id":"pitnodisponible-24","description":"MZ=5\nLote\t29\nSuperficie m2\t17.808,52m2\nEstado lote\tNo Disponible\nEmpresa con Boleto Patagonia Construcciones - Sinat\nSin Acceso x\nCon Acceso: Tierra \nCon Acceso: Ripio \nCon Acceso: Pavimento \nAgua \nCloacas \nsumidero y entubado \nCuneta tierra x\nEnergia: MT y BT \nEnergia: Alum. Publ. \nFibra Optica\t\npasto alto\t si \nConsumo Energ. Declarado 130kva\nConsumo Energ. (Kva)\t500kva( declarado por el propietario, sabe que debe ponerse su setin)"},"geometry":{"type":"Point","coordinates":[-58.80227450446027,-27.54482589882009]}},{"type":"Feature","properties":{"id":"pitnodisponible-25","description":"Manzana\t12\nLote\t5\nSuperficie m2\t5.153,95\nmedidas: 66.32*83.51\nEstado lote\tNo Disponible\n Empresa con Boleto \t Juan Carlos Gaillard \n Sin Acceso  \t\n Con Acceso: Tierra \t x \n Con Acceso: Ripio \t\n Con Acceso: Pavimento \t\n Agua \t x \n Cloacas \t x \n sumidero y entubado  \t\n Cuneta tierra \t x \n Energia: MT y BT \t\n Energia: Alum. Publ. \t\nFibra Optica\t\npasto alto\t no \nConsumo Energ. Declarado\t25hp\nConsumo Energ. (Kva)\t50kva"},"geometry":{"type":"Point","coordinates":[-58.80596866886002,-27.54401880279025]}},{"type":"Feature","properties":{"id":"pitnodisponible-26","description":"Manzana\t11\nLote\t4\nSuperficie m2\t5.138,06\nMEDIDAS: 54.91*91.97\nEstado lote\tNo Disponible\n Empresa con Boleto \t Checamba Materiales \n Sin Acceso  \t\n Con Acceso: Tierra \t x \n Con Acceso: Ripio \t\n Con Acceso: Pavimento \t\n Agua \t x \n Cloacas \t x \n sumidero y entubado  \t x \n Cuneta tierra \t x \n Energia: MT y BT \t x \n Energia: Alum. Publ. \t\nFibra Optica\t\npasto alto\tsi\nConsumo Energ. Declarado\t60hp\nConsumo Energ. (Kva)\t85kva"},"geometry":{"type":"Point","coordinates":[-58.80815688459621,-27.54322941881737]}},{"type":"Feature","properties":{"id":"pitnodisponible-27","description":"Manzana\t11\nLote\t5\nSuperficie m2\t6.761,62\nMEDIDAS: 56.46*91.97 + OCHAVA\nEstado lote\tNo Disponible\n Empresa con Boleto \t Canavesio \n Sin Acceso  \t\n Con Acceso: Tierra \t x \n Con Acceso: Ripio \t\n Con Acceso: Pavimento \t\n Agua \t x \n Cloacas \t x \n sumidero y entubado  \t x \n Cuneta tierra \t\n Energia: MT y BT \t x \n Energia: Alum. Publ. \t\nFibra Optica\tx\npasto alto\t no \nConsumo Energ. Declarado\t60hp\nConsumo Energ. (Kva)\t85kva"},"geometry":{"type":"Point","coordinates":[-58.80754186494432,-27.54335089230511]}},{"type":"Feature","properties":{"id":"pitnodisponible-28","description":"Manzana\t11\nLote\t7\nSuperficie m2\t7.112,82\nMEDIDAS: 78.15*96.67\nEstado lote\tNo Disponible\n Empresa con Boleto \t Logistica Hermanos \n Sin Acceso  \t\n Con Acceso: Tierra \t x \n Con Acceso: Ripio \t\n Con Acceso: Pavimento \t\n Agua \t x \n Cloacas \t x \n sumidero y entubado  \t x \n Cuneta tierra \t x \n Energia: MT y BT \t\n Energia: Alum. Publ. \t\nFibra Optica\t\npasto alto\t si \nConsumo Energ. Declarado\t100hp\nConsumo Energ. (Kva)\t135kva"},"geometry":{"type":"Point","coordinates":[-58.80838324984082,-27.54396160306116]}},{"type":"Feature","properties":{"id":"pitnodisponible-29","description":"MZ= 8\nLote\t5 al 12\nSuperficie m2\t16.198,89\n\nEstado lote\tNo Disponible\n Empresa con Boleto \t Vica Neumaticos SA \n Sin Acceso  \t\n Con Acceso: Tierra \t x \n Con Acceso: Ripio \t\n Con Acceso: Pavimento \t\n Agua \t x \n Cloacas \t x \n sumidero y entubado  \t\n Cuneta tierra \t x \n Energia: MT y BT \t\n Energia: Alum. Publ. \t\nFibra Optica\t\npasto alto\tNO\nConsumo Energ. Declarado\t100hp\nConsumo Energ. (Kva)\t135kva"},"geometry":{"type":"Point","coordinates":[-58.805467719772636,-27.54505265652405]}},{"type":"Feature","properties":{"id":"pitnodisponible-30","description":"Manzana\t11\nLote\t8\nMEDIDAS: 51.03*74.59\nSuperficie m2\t7.953,70\nEstado lote\tNo Disponible\n Empresa con Boleto \t Yacare Containers SAS \n Sin Acceso  \t\n Con Acceso: Tierra \t x \n Con Acceso: Ripio \t\n Con Acceso: Pavimento \t\n Agua \t x \n Cloacas \t x \n sumidero y entubado  \t x \n Cuneta tierra \t x \n Energia: MT y BT \t\n Energia: Alum. Publ. \t\nFibra Optica\t\npasto alto\tno\nConsumo Energ. Declarado\t25hp\nConsumo Energ. (Kva)\t40kva"},"geometry":{"type":"Point","coordinates":[-58.80915375537856,-27.54392166527807]}},{"type":"Feature","properties":{"id":"pitnodisponible-31","description":"MZ= 10\nLote\t1\nSuperficie m2\t38.127,24\nMEDIDAS: 160*171.50 IRREGULAR\nEstado lote\tNo Disponible\n Empresa con Boleto \t Urbalog SA \n Sin Acceso  \t\n Con Acceso: Tierra \t x \n Con Acceso: Ripio \t\n Con Acceso: Pavimento \t\n Agua \t x \n Cloacas \t x \n sumidero y entubado  \t\n Cuneta tierra \t x \n Energia: MT y BT \t\n Energia: Alum. Publ. \t\nFibra Optica\t\npasto alto\tsi\nConsumo Energ. Declarado\t100hp\nConsumo Energ. (Kva)\t130kva"},"geometry":{"type":"Point","coordinates":[-58.81368124699939,-27.543330349076335]}},{"type":"Feature","properties":{"id":"pitnodisponible-32","description":"Manzana\t10\nLote\t12\nMEDIDAS: 87.50X100\nSuperficie m2\t8.750,00\nEstado lote\tNo Disponible\n Empresa con Boleto \t Espindola Pedro Alfredo \n Sin Acceso  \t\n Con Acceso: Tierra \t x \n Con Acceso: Ripio \t\n Con Acceso: Pavimento \t\n Agua \t x \n Cloacas \t x \n sumidero y entubado  \t\n Cuneta tierra \t x \n Energia: MT y BT \t\n Energia: Alum. Publ. \t\nFibra Optica\t\npasto alto\tsi\nConsumo Energ. Declarado\t15hp\nConsumo Energ. (Kva)\t30kva"},"geometry":{"type":"Point","coordinates":[-58.8122908292917,-27.54383247734616]}},{"type":"Feature","properties":{"id":"pitnodisponible-33","description":"Manzana\t10\nLote\t3\nSuperficie m2\t8.750,00\nMEDIDAS: 87.50*100\nEstado lote\tNo Disponible\n Empresa con Boleto \t Espindola Jose Bernardo \n Sin Acceso  \t\n Con Acceso: Tierra \t x \n Con Acceso: Ripio \t\n Con Acceso: Pavimento \t\n Agua \t x \n Cloacas \t x \n sumidero y entubado  \t x \n Cuneta tierra \t\n Energia: MT y BT \t x \n Energia: Alum. Publ. \t\nFibra Optica\t\npasto alto\tsi\nConsumo Energ. Declarado\t15hp\nConsumo Energ. (Kva)\t30kva"},"geometry":{"type":"Point","coordinates":[-58.81224503580556,-27.54299535277461]}},{"type":"Feature","properties":{"id":"pitnodisponible-34","description":"Manzana\t10\nLote\t6\nMEDIDAS: 81X100\nSuperficie m2\t10.013,00\nEstado lote\tNo Disponible\n Empresa con Boleto \t Eretz \n Sin Acceso  \t\n Con Acceso: Tierra \t x \n Con Acceso: Ripio \t\n Con Acceso: Pavimento \t\n Agua \t x \n Cloacas \t\n sumidero y entubado  \t x \n Cuneta tierra \t x \n Energia: MT y BT \t\n Energia: Alum. Publ. \t\nFibra Optica\tx\npasto alto\tsi\nConsumo Energ. Declarado\t25hp\nConsumo Energ. (Kva)\t40kva"},"geometry":{"type":"Point","coordinates":[-58.81066247615799,-27.54315851500235]}},{"type":"Feature","properties":{"id":"pitnodisponible-35","description":"Manzana\t10\nLote\t10\nMEDIDAS: 50X100\nSuperficie m2\t5.000,00\nEstado lote\tNo Disponible\n Empresa con Boleto \t Comercializadora Shuk \n Sin Acceso  \t\n Con Acceso: Tierra \t x \n Con Acceso: Ripio \t\n Con Acceso: Pavimento \t\n Agua \t x \n Cloacas \t\n sumidero y entubado  \t\n Cuneta tierra \t x \n Energia: MT y BT \t\n Energia: Alum. Publ. \t\nFibra Optica\t\npasto alto\tsi\nConsumo Energ. Declarado\t100hp\nConsumo Energ. (Kva)\t135kva"},"geometry":{"type":"Point","coordinates":[-58.81109318899793,-27.54390460171939]}},{"type":"Feature","properties":{"id":"pitnodisponible-36","description":"Manzana\t10\nLote\t4Y11\nSuperficie m2\t10.000\nMEDIDAS  50 X 100 C/U\nEstado lote\tNo Disponible\n Empresa con Boleto \t Comercializadora Shuk \n Sin Acceso  \t\n Con Acceso: Tierra \t x \n Con Acceso: Ripio \t\n Con Acceso: Pavimento \t\n Agua \t x \n Cloacas \t x \n sumidero y entubado  \t x \n Cuneta tierra \t\n Energia: MT y BT \t x \n Energia: Alum. Publ. \t\nFibra Optica\t\npasto alto\tsi\nConsumo Energ. Declarado\t100hp\nConsumo Energ. (Kva)\t135kva"},"geometry":{"type":"Point","coordinates":[-58.81156631245858,-27.54340450442127]}},{"type":"Feature","properties":{"id":"pitnodisponible-37","description":"Manzana\t10\nLote\t13\nSuperficie m2\t7515.05\nMEDIDAS: 81X100 IRREGULAR\nEstado lote\tNo Disponible\n Empresa con Boleto \t Oncolitoral \n Sin Acceso  \t\n Con Acceso: Tierra \t x \n Con Acceso: Ripio \t\n Con Acceso: Pavimento \t\n Agua \t x \n Cloacas \t\n sumidero y entubado  \t x \n Cuneta tierra \t x \n Energia: MT y BT \t\n Energia: Alum. Publ. \t\nFibra Optica\t\npasto alto\tsi\nConsumo Energ. Declarado\t25hp\nConsumo Energ. (Kva)\t40kva"},"geometry":{"type":"Point","coordinates":[-58.81049092741106,-27.544072537857623]}},{"type":"Feature","properties":{"id":"pitnodisponible-38","description":"Manzana\t10\n\nLote\t7\nMEDIDAS: 49X51\nSuperficie m2\t2.499,00\nEstado lote\tNo Disponible\n Empresa con Boleto \t Lasa SA \n Sin Acceso  \t\n Con Acceso: Tierra \t x \n Con Acceso: Ripio \t\n Con Acceso: Pavimento \t\n Agua \t x \n Cloacas \t\n sumidero y entubado  \t x \n Cuneta tierra \t x \n Energia: MT y BT \t\n Energia: Alum. Publ. \t\nFibra Optica\tx\npasto alto\tsi\nConsumo Energ. Declarado\t25hp\nConsumo Energ. (Kva)\t40kva"},"geometry":{"type":"Point","coordinates":[-58.810057319626736,-27.543683320926878]}},{"type":"Feature","properties":{"id":"pitnodisponible-39","description":"Manzana\t13\nLote\t16y17\nSuperficie m2\t1200\nmedidas: 40*30\nEstado lote\tNo Disponible\n Empresa con Boleto \t Grunen SRL \n Sin Acceso  \t\n Con Acceso: Tierra \t\n Con Acceso: Ripio \t\n Con Acceso: Pavimento \t x \n Agua \t x \n Cloacas \t x \n sumidero y entubado  \t x \n Cuneta tierra \t\n Energia: MT y BT \t x \n Energia: Alum. Publ. \t x \nFibra Optica\tx\npasto alto\t no \nConsumo Energ. Declarado\t100hp\nConsumo Energ. (Kva)\t135kva"},"geometry":{"type":"Point","coordinates":[-58.80613024297712,-27.5425527215844]}},{"type":"Feature","properties":{"id":"pitnodisponible-40","description":"Manzana\t13\nLote\t3y4\nSuperficie m2\t2.000,00\nmedidas: 40*50\nEstado lote\tNo Disponible\n Empresa con Boleto \t             All Matic \n Sin Acceso  \t\n Con Acceso: Tierra \t x \n Con Acceso: Ripio \t\n Con Acceso: Pavimento \t\n Agua \t x \n Cloacas \t x \n sumidero y entubado  \t\n Cuneta tierra \t x \n Energia: MT y BT \t\n Energia: Alum. Publ. \t\nFibra Optica\tx\npasto alto\t si \nConsumo Energ. Declarado\t20hp\nConsumo Energ. (Kva)\t35kva"},"geometry":{"type":"Point","coordinates":[-58.80587355980241,-27.54222873625422]}},{"type":"Feature","properties":{"id":"pitnodisponible-41","description":"Manzana\t13\nLote\t15\nSuperficie m2\t600,00\nmedidas:20*30\nEstado lote\tNo Disponible\n Empresa con Boleto \t Avena - Tonutti \n Sin Acceso  \t\n Con Acceso: Tierra \t\n Con Acceso: Ripio \t\n Con Acceso: Pavimento \t x \n Agua \t x \n Cloacas \t x \n sumidero y entubado  \t x \n Cuneta tierra \t\n Energia: MT y BT \t x \n Energia: Alum. Publ. \t x \nFibra Optica\tx\npasto alto\t si \nConsumo Energ. Declarado\t25hp\nConsumo Energ. (Kva)\t40kva"},"geometry":{"type":"Point","coordinates":[-58.80585633024014,-27.54259186164443]}},{"type":"Feature","properties":{"id":"pitnodisponible-42","description":"MZ= 9\nLote\t12\nSuperficie m2\t10.202,98\nMEDIDAS= 105X95,76\nEstado lote\tNo Disponible\n Empresa con Boleto \tAlbo Distribuciones - Bogado\n Sin Acceso  \t\n Con Acceso: Tierra \t x \n Con Acceso: Ripio \t\n Con Acceso: Pavimento \t\n Agua \t x \n Cloacas \t\n sumidero y entubado  \t\n Cuneta tierra \tx\n Energia: MT y BT \t\n Energia: Alum. Publ. \t\nFibra Optica\t\npasto alto\tsi\nConsumo Energ. Declarado\t100hp\nConsumo Energ. (Kva)\t60kva (factibilidad dpec)"},"geometry":{"type":"Point","coordinates":[-58.81159309737438,-27.54489696764696]}},{"type":"Feature","properties":{"id":"pitnodisponible-43","description":"Manzana\t11\nLote\t1Y2\nSuperficie m2\t8.144,16\n\nEstado lote\tNo Disponible\n Empresa con Boleto \t Cantecor \n Sin Acceso  \t\n Con Acceso: Tierra \t x \n Con Acceso: Ripio \t\n Con Acceso: Pavimento \t\n Agua \t x \n Cloacas \t x \n sumidero y entubado  \t x \n Cuneta tierra \t x \n Energia: MT y BT \t x \n Energia: Alum. Publ. \t\nFibra Optica\tx\npasto alto\t no \nConsumo Energ. Declarado\t60hp\nConsumo Energ. (Kva)\t85kva"},"geometry":{"type":"Point","coordinates":[-58.80919252888617,-27.54310943906796]}},{"type":"Feature","properties":{"id":"pitnodisponible-44","description":"Lote\tE.P.5\nmedidas= 42,56x85,75+ ochava\nSuperficie m2\t5.033,29\nEstado lote\t E.P.5 \n Empresa                       \t CEC \n Sin Acceso  \t\n Con Acceso: Tierra \t x \n Con Acceso: Ripio \t\n Con Acceso: Pavimento \t x \n Agua \t x \n Cloacas \t x \n sumidero y entubado  \t x \n Cuneta tierra \t x \n Energia: MT y BT \t x \n Energia: Alum. Publ. \t x \nFibra Optica\tx\npasto alto\t no \nConsumo Energ. Declarado\t sin datos \nConsumo Energ. (Kva)\tsin datos"},"geometry":{"type":"Point","coordinates":[-58.80370800737774,-27.54378435557111]}},{"type":"Feature","properties":{"id":"pitnodisponible-45","description":"MZ= 7\nLote\t7\nmedidas= 40x30\nSuperficie m2\t700\nEstado lote\tNo Disponible\n Empresa con Boleto \t Tricobalto SASU \n Sin Acceso  \t\n Con Acceso: Tierra \t x \n Con Acceso: Ripio \t\n Con Acceso: Pavimento \t\n Agua \t\n Cloacas \t\n sumidero y entubado  \t\n Cuneta tierra \t x \n Energia: MT y BT \t\n Energia: Alum. Publ. \t\nFibra Optica\t\npasto alto\t si \nConsumo Energ. Declarado\t10hp\nConsumo Energ. (Kva)\t20kva"},"geometry":{"type":"Point","coordinates":[-58.80405308098283,-27.54512683585339]}},{"type":"Feature","properties":{"id":"pitnodisponible-46","description":"Mz= 8 \nLote\t2y3\nmedidas: 109,42x100,83 + ochava\nSuperficie m2\t14180,14\nEstado lote\tNo Disponible\n Empresa con Boleto \t Cloronor SA \n Sin Acceso  \t\n Con Acceso: Tierra \t x \n Con Acceso: Ripio \t\n Con Acceso: Pavimento \t\n Agua \t x \n Cloacas \t x \n sumidero y entubado  \t x \n Cuneta tierra \t\n Energia: MT y BT \t\n Energia: Alum. Publ. \t\nFibra Optica\t\npasto alto\t si \nConsumo Energ. Declarado\t100hp\nConsumo Energ. (Kva)\t111kva"},"geometry":{"type":"Point","coordinates":[-58.80801202271861,-27.545001775531105]}},{"type":"Feature","properties":{"id":"pitnodisponible-47","description":"MZ=9 \nLote\t11\nMEDIDAS: 32X94.82\nSuperficie m2\t3.335,02\nEstado lote\tReservado\n Empresa con Boleto \t Rs Argentina - Eugenio Vidal \n Sin Acceso  \t\n Con Acceso: Tierra \t x \n Con Acceso: Ripio \t\n Con Acceso: Pavimento \t\n Agua \t x \n Cloacas \t\n sumidero y entubado  \t\n Cuneta tierra \t x \n Energia: MT y BT \t\n Energia: Alum. Publ. \t\nFibra Optica\t\npasto alto\tsi\nConsumo Energ. Declarado\t25hp\nConsumo Energ. (Kva)\t40kva"},"geometry":{"type":"Point","coordinates":[-58.81090028236758,-27.54493755330843]}},{"type":"Feature","properties":{"id":"pitnodisponible-48","description":"MZ= 9\nLote\t7\nSuperficie m2\t3.466,97\nMEDIDAS: 35*99.59\nEstado lote\tNo Disponible\n Empresa con Boleto \t Forestal San Jose Obrero \n Sin Acceso  \t\n Con Acceso: Tierra \t x \n Con Acceso: Ripio \t\n Con Acceso: Pavimento \t\n Agua \t x \n Cloacas \t\n sumidero y entubado  \t\n Cuneta tierra \t x \n Energia: MT y BT \t\n Energia: Alum. Publ. \t\nFibra Optica\t\npasto alto\tsi\nConsumo Energ. Declarado\t25hp\nConsumo Energ. (Kva)\t50kva"},"geometry":{"type":"Point","coordinates":[-58.81230910597354,-27.544873801920883]}},{"type":"Feature","properties":{"id":"pitnodisponible-49","description":"Lote\t6\nMZ=9\nMEDIDAS: 35*100.47\nSuperficie m2\t3.499,87\nEstado lote\tDisponible\n Empresa con Boleto \t Expreso Ara Vera \n Sin Acceso  \t\n Con Acceso: Tierra \t x \n Con Acceso: Ripio \t\n Con Acceso: Pavimento \t\n Agua \t x \n Cloacas \t\n sumidero y entubado  \t\n Cuneta tierra \t x \n Energia: MT y BT \t\n Energia: Alum. Publ. \t\nFibra Optica\t\npasto alto\tsi\nConsumo Energ. Declarado\t25hp\nConsumo Energ. (Kva)\t40kva"},"geometry":{"type":"Point","coordinates":[-58.81265926800635,-27.544881284242074]}},{"type":"Feature","properties":{"id":"pitnodisponible-50","description":"Manzana\t13\nLote\t1\nSuperficie m2\t1.815,57\nmedidas: 38.03*50\nEstado lote\tNo Disponible\n Empresa con Boleto \t Inoxidables Norte SAS \n Sin Acceso  \t\n Con Acceso: Tierra \t x \n Con Acceso: Ripio \t\n Con Acceso: Pavimento \t\n Agua \t x \n Cloacas \t x \n sumidero y entubado  \t x \n Cuneta tierra \t x \n Energia: MT y BT \t\n Energia: Alum. Publ. \t\nFibra Optica\t\npasto alto\t no \nConsumo Energ. Declarado\t25hp\nConsumo Energ. (Kva)\t50kva"},"geometry":{"type":"Point","coordinates":[-58.80646574028878,-27.542135191395285]}},{"type":"Feature","properties":{"id":"pitnodisponible-51","description":"Manzana\t13\nLote\t5,6,13 y 14\nSuperficie m2\t3.200,00\nmedidas: 40x70\nEstado lote\tNo Disponible\n Empresa con Boleto \t Disanco \n Sin Acceso  \t\n Con Acceso: Tierra \t x \n Con Acceso: Ripio \t\n Con Acceso: Pavimento \t\n Agua \t x \n Cloacas \t x \n sumidero y entubado  \t x \n Cuneta tierra \t x \n Energia: MT y BT \t\n Energia: Alum. Publ. \t\nFibra Optica\tx\npasto alto\t si \nConsumo Energ. Declarado\t25hp\nConsumo Energ. (Kva)\t40kva"},"geometry":{"type":"Point","coordinates":[-58.80550644616816,-27.542401990306654]}},{"type":"Feature","properties":{"id":"pitnodisponible-52","description":"Manzana\t2\nLote\t13\nSuperficie m2\t1800\nmedidas: 45x40\nEstado lote\tNo Disponible\n Empresa con Boleto \t Promacon \n Sin Acceso  \t\n Con Acceso: Tierra \t x \n Con Acceso: Ripio \t\n Con Acceso: Pavimento \t\n Agua \t x \n Cloacas \t x \n sumidero y entubado  \t x \n Cuneta tierra \t x \n Energia: MT y BT \t\n Energia: Alum. Publ. \t\nFibra Optica\tx\npasto alto\tno\nConsumo Energ. Declarado\t20hp\nConsumo Energ. (Kva)\t35kva"},"geometry":{"type":"Point","coordinates":[-58.804641879918535,-27.5418302307746]}},{"type":"Feature","properties":{"id":"pitnodisponible-53","description":"Manzana\t2\nLote\t14\nSuperficie m2\t1800\nmedidas: 45x40\nEstado lote\tNo Disponible\n Empresa con Boleto \tGustavo Defazy - Marmoleria\n Sin Acceso  \t\n Con Acceso: Tierra \tx\n Con Acceso: Ripio \t\n Con Acceso: Pavimento \t\n Agua \t x \n Cloacas \t x \n sumidero y entubado  \t x \n Cuneta tierra \t\n Energia: MT y BT \t\n Energia: Alum. Publ. \t\nFibra Optica\tx\npasto alto\tno\nConsumo Energ. Declarado\t25hp\nConsumo Energ. (Kva)\t50kva"},"geometry":{"type":"Point","coordinates":[-58.80509898398081,-27.54176995509517]}},{"type":"Feature","properties":{"id":"pitnodisponible-54","description":"Manzana\t2\nLote\t12\nSuperficie m2\t1000\nmedidas: 25*40\nEstado lote\tNo Disponible\n Empresa con Boleto \t Elgert  \n Sin Acceso  \t\n Con Acceso: Tierra \t x \n Con Acceso: Ripio \t\n Con Acceso: Pavimento \t\n Agua \t x \n Cloacas \t x \n sumidero y entubado  \t x \n Cuneta tierra \t x \n Energia: MT y BT \t\n Energia: Alum. Publ. \t\nFibra Optica\tx\npasto alto\tno\nConsumo Energ. Declarado\t25hp\nConsumo Energ. (Kva)\t40kva"},"geometry":{"type":"Point","coordinates":[-58.805746938362226,-27.541658920550365]}},{"type":"Feature","properties":{"id":"pitnodisponible-55","description":"AV1- PLANTA ELEVADORA DE CLOACA\nMEDIDAS: 90.42*92.36\n\nMZ=9\nPC: AV1"},"geometry":{"type":"Point","coordinates":[-58.81027991155535,-27.5450321660788]}}]}