{"type":"FeatureCollection","name":"pitreservado","features":[{"type":"Feature","properties":{"id":"pitreservado-1","description":"RESERVA  JMS TEJIDOS MARCELO SANCHEZ \n\n\nManzana\t11\nLote\t3\nSuperficie m2\t2.902,70\nMEDIDAS: 32.90X95.17\nEstado lote\tReservado\n DE RESERVA \t JMS TEJIDOS MARCELO SANCHEZ \n Sin Acceso  \t\n Con Acceso: Tierra \t x \n Con Acceso: Ripio \t\n Con Acceso: Pavimento \t\n Agua \t x \n Cloacas \t x \n sumidero y entubado  \t x \n Cuneta tierra \t x \n Energia: MT y BT \t x \n Energia: Alum. Publ. \t\nFibra Optica\t\npasto alto\tsi\nConsumo Energ. Declarado\t\nConsumo Energ. (Kva)"},"geometry":{"type":"Point","coordinates":[-58.80856947330963,-27.543166064898]}},{"type":"Feature","properties":{"id":"pitreservado-2","description":"AMPLIACIÓN CANAVESIO (EN EJECUCION)\n\nManzana\t11\nLote\t6\nSuperficie m2\t5.460,47\nMEDIDAS:86.22*76.33\nEstado lote\tReservado A CANAVESIO\n Empresa con Boleto \t\n Sin Acceso  \t\n Con Acceso: Tierra \t x \n Con Acceso: Ripio \t\n Con Acceso: Pavimento \t\n Agua \t x \n Cloacas \t x \n sumidero y entubado  \t x \n Cuneta tierra \t\n Energia: MT y BT \t\n Energia: Alum. Publ. \t\nFibra Optica\t\npasto alto\t si \nConsumo Energ. Declarado\t\nConsumo Energ. (Kva)"},"geometry":{"type":"Point","coordinates":[-58.80765475515701,-27.54396973023377]}},{"type":"Feature","properties":{"id":"pitreservado-3","description":"Reserva: CLARG\nmedidas:  (211x186,17) \n\n\nLote\t1\nSuperficie m2\t39,096.57\nEstado lote\tReservado\n\t \n Sin Acceso  \t\n Con Acceso: Tierra \t x \n Con Acceso: Ripio \t\n Con Acceso: Pavimento \t\n Agua \t x \n Cloacas \t x \n sumidero y entubado  \t\n Cuneta tierra \t x \n Energia: MT y BT \t\n Energia: Alum. Publ. \t\nFibra Optica\t\npasto alto\tsi\nConsumo Energ. Declarado\t25hp\nConsumo Energ. (Kva)\t50kva"},"geometry":{"type":"Point","coordinates":[-58.81367222222222,-27.541325]}},{"type":"Feature","properties":{"id":"pitreservado-4","description":"RESERVA            DELVALLE GROUP - Jose Maria \n\nManzana\t3\nLote\t4\nSuperficie m2\t300,00\nEstado lote\tDisponible\n\n Sin Acceso  \t\n Con Acceso: Tierra \t\n Con Acceso: Ripio \t\n Con Acceso: Pavimento \t x \n Agua \t x \n Cloacas \t x \n sumidero y entubado  \t x \n Cuneta tierra \t\n Energia: MT y BT \t x \n Energia: Alum. Publ. \t x \nFibra Optica\tx\npasto alto\t no \nConsumo Energ. Declarado\t\nConsumo Energ. (Kva)"},"geometry":{"type":"Point","coordinates":[-58.803702144289176,-27.542383110358784]}},{"type":"Feature","properties":{"id":"pitreservado-5","description":"RESERVA         PEREZ Y MARFIL\nFraccionador gases ind\n\nManzana\t13\nLote\t18\nSuperficie m2\t1.055,00\nmedidas: 38.03*30+ochava\nEstado lote\tDisponible\n  \t\n Sin Acceso  \t\n Con Acceso: Tierra \t\n Con Acceso: Ripio \t\n Con Acceso: Pavimento \t x \n Agua \t x \n Cloacas \t x \n sumidero y entubado  \t x \n Cuneta tierra \t\n Energia: MT y BT \t x \n Energia: Alum. Publ. \t x \nFibra Optica\tx\npasto alto\t si \nConsumo Energ. Declarado\t\nConsumo Energ. (Kva)"},"geometry":{"type":"Point","coordinates":[-58.80649753859301,-27.542491713869463]}},{"type":"Feature","properties":{"id":"pitreservado-6","description":"AMPLIACIÓN RESERVA           INOX NORTE\n\n\n\nManzana\t13\nLote\t2\nSuperficie m2\t1.000,00\nmedidas: 20*50\nEstado lote\t      Disponible\n\t\n Sin Acceso  \t\n Con Acceso: Tierra \t x \n Con Acceso: Ripio \t\n Con Acceso: Pavimento \t\n Agua \t x \n Cloacas \t x \n sumidero y entubado  \t\n Cuneta tierra \t x \n Energia: MT y BT \t\n Energia: Alum. Publ. \t\nFibra Optica\tx\npasto alto\t no \nConsumo Energ. Declarado\t\nConsumo Energ. (Kva)"},"geometry":{"type":"Point","coordinates":[-58.806175588365235,-27.54217633052151]}},{"type":"Feature","properties":{"id":"pitreservado-7","description":"RESERVA            Federico Schneebauer\n\nLote\t3\nmedidas: 32,16x46,33\nSuperficie m2\t1.295,83\nEstado lote\treserva\n Empresa \tFederico Schneebauer\n Sin Acceso  \t\n Con Acceso: Tierra \t\n Con Acceso: Ripio \t\n Con Acceso: Pavimento \t\n Agua \t x \n Cloacas \t x \n sumidero y entubado  \t\n Cuneta tierra \t\n Energia: MT y BT \t\n Energia: Alum. Publ. \t\nFibra Optica\t\npasto alto\t si \nConsumo Energ. Declarado\t\nConsumo Energ. (Kva)"},"geometry":{"type":"Point","coordinates":[-58.80284130868627,-27.54376549762706]}}]}