{
"type": "FeatureCollection",
"name": "planificacionsur4",
"crs": { "type": "name", "properties": { "name": "urn:ogc:def:crs:OGC:1.3:CRS84" } },
"features": [
{ "type": "Feature", "properties": { "Name": null, "description": null, "timestamp": null, "begin": null, "end": null, "altitudeMode": null, "tessellate": null, "extrude": null, "visibility": null, "drawOrder": null, "icon": null, "Layer": null, "AREA": null, "id": "planificacionsur-1" }, "geometry": null },
{ "type": "Feature", "properties": { "Name": null, "description": null, "timestamp": null, "begin": null, "end": null, "altitudeMode": null, "tessellate": null, "extrude": null, "visibility": null, "drawOrder": null, "icon": null, "Layer": null, "AREA": null, "id": "planificacionsur-2" }, "geometry": null },
{ "type": "Feature", "properties": { "Name": null, "description": null, "timestamp": null, "begin": null, "end": null, "altitudeMode": null, "tessellate": null, "extrude": null, "visibility": null, "drawOrder": null, "icon": null, "Layer": null, "AREA": null, "id": "planificacionsur-3" }, "geometry": null },
{ "type": "Feature", "properties": { "Name": null, "description": null, "timestamp": null, "begin": null, "end": null, "altitudeMode": null, "tessellate": null, "extrude": null, "visibility": null, "drawOrder": null, "icon": null, "Layer": null, "AREA": null, "id": "planificacionsur-4" }, "geometry": null },
{ "type": "Feature", "properties": { "Name": null, "description": null, "timestamp": null, "begin": null, "end": null, "altitudeMode": null, "tessellate": null, "extrude": null, "visibility": null, "drawOrder": null, "icon": null, "Layer": null, "AREA": null, "id": "planificacionsur-5" }, "geometry": null },
{ "type": "Feature", "properties": { "Name": null, "description": null, "timestamp": null, "begin": null, "end": null, "altitudeMode": null, "tessellate": null, "extrude": null, "visibility": null, "drawOrder": null, "icon": null, "Layer": null, "AREA": null, "id": "planificacionsur-6" }, "geometry": null },
{ "type": "Feature", "properties": { "Name": "NULL7", "description": null, "timestamp": null, "begin": null, "end": null, "altitudeMode": null, "tessellate": null, "extrude": null, "visibility": null, "drawOrder": null, "icon": null, "Layer": null, "AREA": null, "id": "planificacionsur-7" }, "geometry": null },
{ "type": "Feature", "properties": { "Name": null, "description": null, "timestamp": null, "begin": null, "end": null, "altitudeMode": null, "tessellate": null, "extrude": null, "visibility": null, "drawOrder": null, "icon": null, "Layer": null, "AREA": null, "id": "planificacionsur-8" }, "geometry": { "type": "Polygon", "coordinates": [ [ [ -58.825678186355447, -27.544146658515192 ], [ -58.825039068413602, -27.539642624044664 ], [ -58.830369661452423, -27.539371108108092 ], [ -58.831455725198687, -27.543465320937095 ], [ -58.825678186355447, -27.544146658515192 ] ] ] } },
{ "type": "Feature", "properties": { "Name": null, "description": null, "timestamp": null, "begin": null, "end": null, "altitudeMode": null, "tessellate": null, "extrude": null, "visibility": null, "drawOrder": null, "icon": null, "Layer": null, "AREA": null, "id": "planificacionsur-9" }, "geometry": { "type": "Polygon", "coordinates": [ [ [ -58.825757166192162, -27.545240729433765 ], [ -58.825678550317754, -27.544147386439874 ], [ -58.831458272935272, -27.543468960560823 ], [ -58.830373665038564, -27.539367832446572 ], [ -58.832254986588275, -27.5392610094876 ], [ -58.833253426391209, -27.543013643621599 ], [ -58.833485042951715, -27.545271370516733 ], [ -58.825757166192162, -27.545240729433765 ] ] ] } },
{ "type": "Feature", "properties": { "Name": null, "description": null, "timestamp": null, "begin": null, "end": null, "altitudeMode": null, "tessellate": null, "extrude": null, "visibility": null, "drawOrder": null, "icon": null, "Layer": null, "AREA": null, "id": "planificacionsur-10" }, "geometry": null },
{ "type": "Feature", "properties": { "Name": null, "description": null, "timestamp": null, "begin": null, "end": null, "altitudeMode": null, "tessellate": null, "extrude": null, "visibility": null, "drawOrder": null, "icon": null, "Layer": null, "AREA": null, "id": "planificacionsur-11" }, "geometry": null },
{ "type": "Feature", "properties": { "Name": null, "description": null, "timestamp": null, "begin": null, "end": null, "altitudeMode": null, "tessellate": null, "extrude": null, "visibility": null, "drawOrder": null, "icon": null, "Layer": null, "AREA": null, "id": "planificacionsur-12" }, "geometry": null },
{ "type": "Feature", "properties": { "Name": null, "description": null, "timestamp": null, "begin": null, "end": null, "altitudeMode": null, "tessellate": null, "extrude": null, "visibility": null, "drawOrder": null, "icon": null, "Layer": null, "AREA": null, "id": "planificacionsur-13" }, "geometry": null },
{ "type": "Feature", "properties": { "Name": null, "description": null, "timestamp": null, "begin": null, "end": null, "altitudeMode": null, "tessellate": null, "extrude": null, "visibility": null, "drawOrder": null, "icon": null, "Layer": null, "AREA": null, "id": "planificacionsur-14" }, "geometry": null },
{ "type": "Feature", "properties": { "Name": null, "description": null, "timestamp": null, "begin": null, "end": null, "altitudeMode": null, "tessellate": -1, "extrude": 0, "visibility": -1, "drawOrder": null, "icon": null, "Layer": "parque.ind.fase.1", "AREA": null, "id": "planificacionsur-15" }, "geometry": { "type": "MultiPolygon", "coordinates": [ ] } },
{ "type": "Feature", "properties": { "Name": null, "description": null, "timestamp": null, "begin": null, "end": null, "altitudeMode": null, "tessellate": -1, "extrude": 0, "visibility": -1, "drawOrder": null, "icon": null, "Layer": "Traza 2do puente", "AREA": null, "id": "planificacionsur-16" }, "geometry": { "type": "MultiPolygon", "coordinates": [ ] } },
{ "type": "Feature", "properties": { "Name": null, "description": null, "timestamp": null, "begin": null, "end": null, "altitudeMode": null, "tessellate": -1, "extrude": 0, "visibility": -1, "drawOrder": null, "icon": null, "Layer": "fuelle planta lc", "AREA": 216056, "id": "planificacionsur-17" }, "geometry": { "type": "MultiPolygon", "coordinates": [ [ [ [ -58.830370390825401, -27.539369115708201 ], [ -58.831457295332903, -27.5434694680531 ], [ -58.825673936803497, -27.544144304856498 ], [ -58.825756418816297, -27.5452427171866 ], [ -58.8334850506564, -27.545271384269899 ], [ -58.8333745748455, -27.5441952811173 ], [ -58.833253066196299, -27.543011691380901 ], [ -58.832829515769902, -27.541419492142801 ], [ -58.832255314869499, -27.539260901470701 ], [ -58.830370390825401, -27.539369115708201 ] ] ] ] } },
{ "type": "Feature", "properties": { "Name": null, "description": null, "timestamp": null, "begin": null, "end": null, "altitudeMode": null, "tessellate": -1, "extrude": 0, "visibility": -1, "drawOrder": null, "icon": null, "Layer": "planta.lc", "AREA": null, "id": "planificacionsur-18" }, "geometry": { "type": "MultiPolygon", "coordinates": [ [ [ [ -58.831457295332903, -27.5434694680531 ], [ -58.830370390825401, -27.539369115708201 ], [ -58.825039688941096, -27.539641488508799 ], [ -58.825668982909598, -27.544144882799099 ], [ -58.831457295332903, -27.5434694680531 ] ] ] ] } },
{ "type": "Feature", "properties": { "Name": null, "description": null, "timestamp": null, "begin": null, "end": null, "altitudeMode": null, "tessellate": -1, "extrude": 0, "visibility": -1, "drawOrder": null, "icon": null, "Layer": "planif.sector.sur", "AREA": null, "id": "planificacionsur-19" }, "geometry": { "type": "MultiPolygon", "coordinates": [ ] } },
{ "type": "Feature", "properties": { "Name": null, "description": null, "timestamp": null, "begin": null, "end": null, "altitudeMode": null, "tessellate": -1, "extrude": 0, "visibility": -1, "drawOrder": null, "icon": null, "Layer": "reserva natural extensión", "AREA": 2739978, "id": "planificacionsur-20" }, "geometry": { "type": "MultiPolygon", "coordinates": [ ] } },
{ "type": "Feature", "properties": { "Name": null, "description": null, "timestamp": null, "begin": null, "end": null, "altitudeMode": null, "tessellate": -1, "extrude": 0, "visibility": -1, "drawOrder": null, "icon": null, "Layer": "Parque.Industrial", "AREA": null, "id": "planificacionsur-21" }, "geometry": { "type": "MultiPolygon", "coordinates": [ ] } },
{ "type": "Feature", "properties": { "Name": null, "description": null, "timestamp": null, "begin": null, "end": null, "altitudeMode": null, "tessellate": -1, "extrude": 0, "visibility": -1, "drawOrder": null, "icon": null, "Layer": "reserva natural sta. cat", "AREA": null, "id": "planificacionsur-22" }, "geometry": { "type": "MultiPolygon", "coordinates": [ ] } },
{ "type": "Feature", "properties": { "Name": null, "description": null, "timestamp": null, "begin": null, "end": null, "altitudeMode": null, "tessellate": -1, "extrude": 0, "visibility": -1, "drawOrder": null, "icon": null, "Layer": "parque.fotovoltaico", "AREA": null, "id": "planificacionsur-23" }, "geometry": { "type": "MultiPolygon", "coordinates": [ ] } },
{ "type": "Feature", "properties": { "Name": null, "description": null, "timestamp": null, "begin": null, "end": null, "altitudeMode": null, "tessellate": -1, "extrude": 0, "visibility": -1, "drawOrder": null, "icon": null, "Layer": "PLC- area de amortiguamiento", "AREA": 433827, "id": "planificacionsur-24" }, "geometry": { "type": "MultiPolygon", "coordinates": [ ] } },
{ "type": "Feature", "properties": { "Name": null, "description": null, "timestamp": null, "begin": null, "end": null, "altitudeMode": null, "tessellate": -1, "extrude": 0, "visibility": -1, "drawOrder": null, "icon": null, "Layer": null, "AREA": null, "id": "planificacionsur-25" }, "geometry": null },
{ "type": "Feature", "properties": { "Name": null, "description": null, "timestamp": null, "begin": null, "end": null, "altitudeMode": null, "tessellate": -1, "extrude": 0, "visibility": -1, "drawOrder": null, "icon": null, "Layer": null, "AREA": null, "id": "planificacionsur-26" }, "geometry": { "type": "Polygon", "coordinates": [ [ [ -58.830368387583697, -27.539366983200999 ], [ -58.8314554218965, -27.543465199617 ], [ -58.825675699277902, -27.544147022478398 ], [ -58.825037551902298, -27.5396411681951 ], [ -58.830368387583697, -27.539366983200999 ] ] ] } },
{ "type": "Feature", "properties": { "Name": null, "description": null, "timestamp": null, "begin": null, "end": null, "altitudeMode": null, "tessellate": null, "extrude": null, "visibility": null, "drawOrder": null, "icon": null, "Layer": null, "AREA": null, "id": null }, "geometry": null },
{ "type": "Feature", "properties": { "Name": null, "description": null, "timestamp": null, "begin": null, "end": null, "altitudeMode": null, "tessellate": null, "extrude": null, "visibility": null, "drawOrder": null, "icon": null, "Layer": null, "AREA": null, "id": null }, "geometry": null },
{ "type": "Feature", "properties": { "Name": null, "description": null, "timestamp": null, "begin": null, "end": null, "altitudeMode": null, "tessellate": null, "extrude": null, "visibility": null, "drawOrder": null, "icon": null, "Layer": null, "AREA": null, "id": null }, "geometry": { "type": "Polygon", "coordinates": [ [ [ -58.816317902131495, -27.540134032147378 ], [ -58.816517573950797, -27.543397418444023 ], [ -58.81612447005655, -27.543628288985087 ], [ -58.816161908522673, -27.544483133961453 ], [ -58.815899839259856, -27.544841919261767 ], [ -58.81382824413464, -27.545559489862367 ], [ -58.813516256916991, -27.545621887305899 ], [ -58.808318549870897, -27.545715483471195 ], [ -58.804674539168722, -27.545802839892129 ], [ -58.804212798086596, -27.545802839892129 ], [ -58.803158281290926, -27.545734202704246 ], [ -58.802209840149267, -27.545596928328479 ], [ -58.801548427247837, -27.54545341420836 ], [ -58.801011809233486, -27.545316139832586 ], [ -58.800244320678061, -27.54507278980282 ], [ -58.79919604362675, -27.544673446164222 ], [ -58.794984216188425, -27.542988715188898 ], [ -58.795121490564192, -27.541971636859351 ], [ -58.801529708014776, -27.540967038018508 ], [ -58.803532665952133, -27.540655050800861 ], [ -58.816317902131495, -27.540134032147378 ] ] ] } },
{ "type": "Feature", "properties": { "Name": null, "description": null, "timestamp": null, "begin": null, "end": null, "altitudeMode": null, "tessellate": null, "extrude": null, "visibility": null, "drawOrder": null, "icon": null, "Layer": null, "AREA": null, "id": null }, "geometry": { "type": "Polygon", "coordinates": [ [ [ -58.819943193600665, -27.546333218162143 ], [ -58.819612487149953, -27.546401855350027 ], [ -58.817590809979563, -27.547113186206275 ], [ -58.817316261228029, -27.547468851634399 ], [ -58.817347459949801, -27.548323696610769 ], [ -58.817054191965205, -27.548479690219594 ], [ -58.817141548386161, -27.551749316260601 ], [ -58.816617409860505, -27.551749316260601 ], [ -58.813510017172661, -27.551830432937212 ], [ -58.813478818450896, -27.550056785604859 ], [ -58.811937601595695, -27.55013478240927 ], [ -58.811962560573107, -27.55046860873216 ], [ -58.81192824197916, -27.550477968348691 ], [ -58.811847125302577, -27.551828873001124 ], [ -58.810062558417613, -27.552359251271159 ], [ -58.807841209427927, -27.554281092531898 ], [ -58.803651221094867, -27.553880188957244 ], [ -58.801907212548201, -27.553886428701599 ], [ -58.800759099587239, -27.553680517137948 ], [ -58.800197522595461, -27.553368529920295 ], [ -58.799873055889137, -27.553206296567151 ], [ -58.797539391501097, -27.552158019515836 ], [ -58.794868780917966, -27.548844715264366 ], [ -58.79328388585229, -27.546398735477972 ], [ -58.793308844829703, -27.545837158486197 ], [ -58.794157450061718, -27.545300540471832 ], [ -58.794719027053489, -27.544626648081703 ], [ -58.794762705263956, -27.544582969871236 ], [ -58.794650389865609, -27.543831080676693 ], [ -58.794201128272206, -27.543653247962663 ], [ -58.793882901310205, -27.543522213331247 ], [ -58.793976497475498, -27.543840440293252 ], [ -58.794213607760916, -27.544027632623845 ], [ -58.794244806482681, -27.544451935239852 ], [ -58.793851702588441, -27.544994792998569 ], [ -58.79310293326607, -27.545450294336341 ], [ -58.792416561387235, -27.545606287945166 ], [ -58.792235608801001, -27.545724843087875 ], [ -58.792023457492995, -27.546018111072467 ], [ -58.791973539538184, -27.546448653432851 ], [ -58.793021816589494, -27.546847997071445 ], [ -58.793421160228093, -27.547184943266512 ], [ -58.793508516649034, -27.547322217642279 ], [ -58.793670750002214, -27.547721561280873 ], [ -58.793633311536091, -27.548183302363 ], [ -58.793034296078197, -27.54910678452725 ], [ -58.792285526755833, -27.549805635894792 ], [ -58.792460239597723, -27.551041105276695 ], [ -58.79243528062031, -27.551590202779764 ], [ -58.792547596018665, -27.552026984884478 ], [ -58.79243528062031, -27.552488725966604 ], [ -58.79258503448478, -27.552601041364966 ], [ -58.793209008920087, -27.552538643921437 ], [ -58.793895380798922, -27.55227657465861 ], [ -58.794369601369759, -27.552351451590845 ], [ -58.796316401607911, -27.553312372221214 ], [ -58.796740704223915, -27.553374769664746 ], [ -58.798400476221829, -27.5540985800097 ], [ -58.799348917363488, -27.555321569902897 ], [ -58.799985371287505, -27.555571159677019 ], [ -58.800871414985636, -27.555695954564079 ], [ -58.801757458683767, -27.555658516097964 ], [ -58.802768297268962, -27.55582074945114 ], [ -58.803953848696054, -27.555995462293026 ], [ -58.806674377233982, -27.556794149570219 ], [ -58.807498023488584, -27.55724341116364 ], [ -58.813488178067516, -27.558840785718019 ], [ -58.815659609102376, -27.557592836847409 ], [ -58.819054030030436, -27.556744231615394 ], [ -58.821624804703895, -27.556544559796098 ], [ -58.822772917664857, -27.557343247073288 ], [ -58.824070784490296, -27.559614514017799 ], [ -58.825368651315735, -27.557942262531185 ], [ -58.82604254370586, -27.55771763173448 ], [ -58.827889508034367, -27.556145216157514 ], [ -58.829212333837212, -27.555346528880321 ], [ -58.830310528843349, -27.553774113303351 ], [ -58.831733190555845, -27.551802354087787 ], [ -58.832207411126674, -27.55013010260117 ], [ -58.832457000900803, -27.54808346645337 ], [ -58.833031057381277, -27.547734040769598 ], [ -58.83305601635869, -27.546336338034514 ], [ -58.826067502683273, -27.546236502124867 ], [ -58.819943193600665, -27.546333218162143 ] ] ] } },
{ "type": "Feature", "properties": { "Name": null, "description": null, "timestamp": null, "begin": null, "end": null, "altitudeMode": null, "tessellate": null, "extrude": null, "visibility": null, "drawOrder": null, "icon": null, "Layer": null, "AREA": null, "id": null }, "geometry": { "type": "Polygon", "coordinates": [ [ [ -58.811897043257481, -27.550479528284942 ], [ -58.811819046453053, -27.551814833576493 ], [ -58.810059438545494, -27.552338972102152 ], [ -58.807838089555808, -27.554242094129844 ], [ -58.806474705414665, -27.554111059498428 ], [ -58.803666820455803, -27.553836510746887 ], [ -58.801894733059534, -27.553855229979948 ], [ -58.800746620098572, -27.553643078671943 ], [ -58.800266159783391, -27.553374769664764 ], [ -58.800253680294681, -27.551103502720252 ], [ -58.801096045782344, -27.550273616721295 ], [ -58.804181599364917, -27.550318854867854 ], [ -58.804378151312036, -27.550431170266204 ], [ -58.804755655845398, -27.550378132439203 ], [ -58.804918669166625, -27.550256457424325 ], [ -58.80501148536387, -27.550190940108617 ], [ -58.806182997366186, -27.55017222087556 ], [ -58.806192356982713, -27.550410891097062 ], [ -58.811897043257481, -27.550479528284942 ] ] ] } }
]
}
