{"type":"FeatureCollection","name":"usosuelopit","features":[{"type":"Feature","properties":{"id":"usosuelopit-1","Name":"Manzanas 13","uso":"USO INDUSTRIAL","description":"Manzanas 2 y 13\nUSO INDUSTRIAL\nFOS 0,7\nFOT 2 (HASTA DOS PLANTAS)","layer":"USOS DE SUELO"},"geometry":{"type":"Polygon","coordinates":[[[-58.80432301712681,-27.54222693072277],[-58.80593855315298,-27.54197698934333],[-58.80594211442768,-27.54198673564622],[-58.8064496053002,-27.54190097692599],[-58.80662933133783,-27.54204920740331],[-58.8067185799493,-27.54243664793091],[-58.80656198194936,-27.54261384782465],[-58.80471406634534,-27.54289944412841],[-58.8044311404761,-27.54269653471406],[-58.80432301712681,-27.54222693072277]]]}},{"type":"Feature","properties":{"id":"usosuelopit-2","Name":"Manzana 3","uso":"USO INDUSTRIAL","description":"Manzana 3\nUSO INDUSTRIAL\nFOS 0,7\nFOT 2 (HASTA DOS PLANTAS)","layer":"USOS DE SUELO"},"geometry":{"type":"Polygon","coordinates":[[[-58.80370369239643,-27.54164827718004],[-58.80388690908843,-27.5427031856503],[-58.80364977360046,-27.54307926852941],[-58.8028721870876,-27.54318536617966],[-58.80232451375712,-27.54314965636113],[-58.80166506820562,-27.54303531636175],[-58.80163468842874,-27.54228041088093],[-58.80175308829094,-27.54217524451905],[-58.80153209810361,-27.54105045416561],[-58.80221550333331,-27.5409077248989],[-58.80238445437375,-27.54181430144608],[-58.80370369239643,-27.54164827718004]]]}},{"type":"Feature","properties":{"id":"usosuelopit-3","Name":"MANZANA 6","uso":"USO INDUSTRIAL","description":"MANZANA 5 - 6 - 7\nUSO INDUSTRIAL\nFOS 0,7\nFOT 2 (HASTA DOS PLANTAS)","layer":"USOS DE SUELO"},"geometry":{"type":"Polygon","coordinates":[[[-58.80258681833026,-27.54350689158136],[-58.80316413922614,-27.54347034978058],[-58.80327336196203,-27.54397860291114],[-58.80414264621385,-27.54395137304721],[-58.80420008367425,-27.5444085592779],[-58.80389223079383,-27.54440828104723],[-58.80324191685007,-27.5444210198258],[-58.80278849656619,-27.54430600385647],[-58.80217814794253,-27.54418945315444],[-58.80163638368231,-27.54407371412476],[-58.80155735338992,-27.5440592955446],[-58.80145445990719,-27.54404129752417],[-58.80140220777424,-27.54402664391485],[-58.80137444791178,-27.54401798696355],[-58.80159898947172,-27.54339749440376],[-58.80258681833026,-27.54350689158136]]]}},{"type":"Feature","properties":{"id":"usosuelopit-4","Name":"MANZANAS  8","uso":"USO INDUSTRIAL","description":"MANZANAS  8\nUSO INDUSTRIAL\nFOS 0,7\nFOT 2 (HASTA DOS PLANTAS)","layer":"USOS DE SUELO"},"geometry":{"type":"Polygon","coordinates":[[[-58.80978766253507,-27.54537690375879],[-58.80472739056085,-27.54554516825373],[-58.80468984318257,-27.54455215207208],[-58.80510521840596,-27.54453583423999],[-58.80554113762496,-27.54454505780515],[-58.80670898601684,-27.54448725943874],[-58.80722391763052,-27.54481093459471],[-58.80762114092585,-27.54452436868758],[-58.80976483028857,-27.54455728056912],[-58.80978766253507,-27.54537690375879]]]}},{"type":"Feature","properties":{"id":"usosuelopit-5","Name":"MANZANA 1","uso":"USO COMERCIAL","description":"MANZANA 1\nUSO COMERCIAL","layer":"USOS DE SUELO"},"geometry":{"type":"Polygon","coordinates":[[[-58.81147003077651,-27.54037188300905],[-58.81151800759429,-27.54215091853212],[-58.80854928610017,-27.54230209033019],[-58.80712052214161,-27.54251910482749],[-58.80691292099021,-27.54243821843388],[-58.80658717913945,-27.54065201464475],[-58.81147003077651,-27.54037188300905]]]}},{"type":"Feature","properties":{"id":"usosuelopit-6","Name":"MANZANAS  10","uso":"USO LOGÍSTICO","description":"MANZANAS 1- 10 - 9\nUSO LOGÍSTICO","layer":"USOS DE SUELO"},"geometry":{"type":"Polygon","coordinates":[[[-58.81263454758905,-27.54234986488115],[-58.8126690077205,-27.54231842407718],[-58.81466070959083,-27.54225865509929],[-58.81467104303136,-27.54410006460292],[-58.81239162899583,-27.54422396694805],[-58.81069192322764,-27.54431501603832],[-58.8106559741565,-27.54432956232496],[-58.80986173102018,-27.5443493200251],[-58.80967855592155,-27.54241705915999],[-58.81263454758905,-27.54234986488115]]]}},{"type":"Feature","properties":{"id":"usosuelopit-7","Name":"MANZANA 4","uso":"USO TECNOLÓGICO","description":"MANZANA 4\nUSO TECNOLÓGICO\nEDIFICIOS HASTA 6 PLANTAS","layer":"USOS DE SUELO"},"geometry":{"type":"Polygon","coordinates":[[[-58.80155630782945,-27.54102711682357],[-58.80178326492696,-27.54219802126996],[-58.8016612134255,-27.542287362406],[-58.80166616605502,-27.54299475089424],[-58.80146811647945,-27.54366646405483],[-58.80069087388717,-27.54495608368831],[-58.7973008729853,-27.54371537007445],[-58.80023570874488,-27.5434152055311],[-58.80017402239646,-27.54295967836705],[-58.79635751379705,-27.54333574783002],[-58.79500775545726,-27.5428005361785],[-58.79511762164856,-27.54199696267026],[-58.80155630782945,-27.54102711682357]]]}},{"type":"Feature","properties":{"id":"usosuelopit-8","Name":"MANZANA 9","uso":"","description":"MANZANA 9 LOGISTICA","layer":"USOS DE SUELO"},"geometry":{"type":"Polygon","coordinates":[[[-58.81069252094215,-27.54448933235],[-58.81451927685652,-27.54429229300495],[-58.81457762096665,-27.54514807849616],[-58.81428974000652,-27.54524104461049],[-58.81073815049955,-27.54536151834408],[-58.81069252094215,-27.54448933235]]]}},{"type":"Feature","properties":{"id":"usosuelopit-9","Name":"MANZANA 1","uso":"","description":"MANZANA 1 LOGISTICA","layer":"USOS DE SUELO"},"geometry":{"type":"Polygon","coordinates":[[[-58.81472442287154,-27.54033419573558],[-58.81472213626089,-27.54198574628785],[-58.81263044059251,-27.5420809142826],[-58.81254260103844,-27.54050011695215],[-58.81472442287154,-27.54033419573558]]]}},{"type":"Feature","properties":{"id":"usosuelopit-10","Name":"MANZANA 2","uso":"INDUSTRIAL","description":"MANZANA 2 \nINDUSTRIAL","layer":"USOS DE SUELO"},"geometry":{"type":"Polygon","coordinates":[[[-58.80583182221476,-27.54144436139894],[-58.80590063557341,-27.54181357090839],[-58.80430202556706,-27.54204172503245],[-58.80423080314764,-27.5417107011852],[-58.80583182221476,-27.54144436139894]]]}},{"type":"Feature","properties":{"id":"usosuelopit-11","Name":"MANZANA 5","uso":"USO INDUSTRIAL","description":"MANZANA 5 \nUSO INDUSTRIAL\nFOS 0,7\nFOT 2 (HASTA DOS PLANTAS)","layer":"USOS DE SUELO"},"geometry":{"type":"Polygon","coordinates":[[[-58.80128305040605,-27.54419106560965],[-58.80304294209969,-27.54452147685633],[-58.80316763837913,-27.54462012864508],[-58.80317375646706,-27.54469569552964],[-58.80319333147361,-27.5451187186251],[-58.80316699418137,-27.54517825918241],[-58.80311720430054,-27.54523512052022],[-58.8030189239226,-27.54527773411335],[-58.80200225072679,-27.54512128561402],[-58.80084492153586,-27.54482261007018],[-58.80128305040605,-27.54419106560965]]]}},{"type":"Feature","properties":{"id":"usosuelopit-12","Name":"MANZANA 7","uso":"USO INDUSTRIAL","description":"MANZANA  7\nUSO INDUSTRIAL\nFOS 0,7\nFOT 2 (HASTA DOS PLANTAS)","layer":"USOS DE SUELO"},"geometry":{"type":"Polygon","coordinates":[[[-58.80422398270061,-27.54553584183114],[-58.80392065710697,-27.54553969597912],[-58.80389116249004,-27.54458543999515],[-58.8041949728482,-27.5445689099394],[-58.80422398270061,-27.54553584183114]]]}},{"type":"Feature","properties":{"id":"usosuelopit-13","Name":"MANZANA 11","uso":"USO INDUSTRIAL","description":"MANZANA 11\nUSO INDUSTRIAL\nFOS 0,7\nFOT 2 (HASTA DOS PLANTAS)","layer":"USOS DE SUELO"},"geometry":{"type":"Polygon","coordinates":[[[-58.80936554487594,-27.54253777517345],[-58.80942402255995,-27.54255952763998],[-58.80948548103531,-27.54259999120543],[-58.80954617459599,-27.5427029306027],[-58.80963182121705,-27.54415989550113],[-58.8095551010997,-27.54430156587086],[-58.80943646410963,-27.54435976828976],[-58.80761587287574,-27.54430805748319],[-58.80744729174127,-27.54412108236439],[-58.80723962065486,-27.54403407133626],[-58.80704773639495,-27.5430451069295],[-58.80718718842303,-27.54283191917227],[-58.80936554487594,-27.54253777517345]]]}},{"type":"Feature","properties":{"id":"usosuelopit-14","Name":"MANZANA 12","uso":"USO INDUSTRIAL","description":"MANZANA 12\nUSO INDUSTRIAL\nFOS 0,7\nFOT 2 (HASTA DOS PLANTAS)","layer":"USOS DE SUELO"},"geometry":{"type":"Polygon","coordinates":[[[-58.80619550493489,-27.5435951557258],[-58.80606150027549,-27.5429911193462],[-58.80661394140439,-27.5429034986756],[-58.80684946051873,-27.5430815896173],[-58.80702558163249,-27.5440483357805],[-58.80691966028149,-27.5441136134789],[-58.80686447450044,-27.54418009170852],[-58.80677601900319,-27.54431955673683],[-58.80469495010007,-27.54439964837951],[-58.80466412887352,-27.54391913552195],[-58.80461174942584,-27.5434718534659],[-58.80491356266505,-27.54319305984863],[-58.80544609104232,-27.54311560513421],[-58.80557028738779,-27.54369290867714],[-58.80619550493489,-27.5435951557258]]]}},{"type":"Feature","properties":{"id":"usosuelopit-15","Name":"EP 3 Y EP 4","uso":"EP 4 ET Loma Pelada Original","description":"EP 3 estacionamiento\nEP 4 ET Loma Pelada Original","layer":"USOS DE SUELO — EQUIPAMIENTO PARQUE (EP)"},"geometry":{"type":"Polygon","coordinates":[[[-58.80222056230938,-27.54091391905927],[-58.80286299810489,-27.5407820282861],[-58.8030907004362,-27.54077562033162],[-58.80354496103648,-27.5407516921949],[-58.80368150450855,-27.54149240551686],[-58.80236265417557,-27.54168976236368],[-58.80222056230938,-27.54091391905927]]]}},{"type":"Feature","properties":{"id":"usosuelopit-16","Name":"EP 1 Y EP 2","uso":"EP 2 espacio edificio administrativo (posible lugar ET Loma Pelada)","description":"EP 1 sistema de captación y abastecimiento de agua\nEP 2 espacio edificio administrativo (posible lugar ET Loma Pelada)","layer":"USOS DE SUELO — EQUIPAMIENTO PARQUE (EP)"},"geometry":{"type":"Polygon","coordinates":[[[-58.80657665096872,-27.54065415444589],[-58.80676792586729,-27.54166435502063],[-58.80640402637663,-27.54172181039112],[-58.80632573475253,-27.54137032908003],[-58.80423267227066,-27.54169842034441],[-58.8040408545664,-27.54071254038205],[-58.80657665096872,-27.54065415444589]]]}},{"type":"Feature","properties":{"id":"usosuelopit-17","Name":"EP 7","uso":"Estación de Servicio","description":"Estacionamiento livianos\nEstación de Servicio","layer":"USOS DE SUELO — EQUIPAMIENTO PARQUE (EP)"},"geometry":{"type":"Polygon","coordinates":[[[-58.81629285554164,-27.54014945637933],[-58.81636670280029,-27.54188006832024],[-58.81476616934326,-27.54196026064293],[-58.81476340791293,-27.54024779092666],[-58.81629285554164,-27.54014945637933]]]}},{"type":"Feature","properties":{"id":"usosuelopit-18","Name":"EP 6","uso":"ZONA DE DESCANSO CHOFERES","description":"ESTACIONAMIENTO TRANSPORTE\nZONA DE DESCANSO CHOFERES","layer":"USOS DE SUELO — EQUIPAMIENTO PARQUE (EP)"},"geometry":{"type":"Polygon","coordinates":[[[-58.8165173757789,-27.54333976844782],[-58.81604665604531,-27.54361000978735],[-58.81613247767464,-27.54445185376959],[-58.81566872251064,-27.5448166524282],[-58.81457280837992,-27.54516344085233],[-58.81462078269442,-27.54429480519697],[-58.81493279927753,-27.54398239068787],[-58.81482632421978,-27.54245449124796],[-58.81494305458467,-27.54229007816166],[-58.81638395619093,-27.54219615692259],[-58.8165173757789,-27.54333976844782]]]}},{"type":"Feature","properties":{"id":"usosuelopit-19","Name":"EP 5","uso":"CENTRO INTEGRADO DE SEGURIDAD (vigilancia, bomberos, primeros auxilios)","description":"CEC\nCENTRO INTEGRADO DE SEGURIDAD (vigilancia, bomberos, primeros auxilios)","layer":"USOS DE SUELO — EQUIPAMIENTO PARQUE (EP)"},"geometry":{"type":"Polygon","coordinates":[[[-58.80381115717023,-27.54335046016192],[-58.80408552265293,-27.54359370299861],[-58.80413501924574,-27.5439304500909],[-58.80327036573173,-27.54396938762976],[-58.80316233696692,-27.54346529692842],[-58.80381115717023,-27.54335046016192]]]}}]}