{"type":"FeatureCollection","name":"verdumzalazar","features":[{"type":"Feature","properties":{"id":"verdumzalazar-1","Name":null,"description":null,"layer":"Polígonos"},"geometry":{"type":"Polygon","coordinates":[[[-58.829839849,-27.5345457795],[-58.82914859420001,-27.5346506316],[-58.8292484944,-27.5355700973],[-58.8300665637,-27.5354460098],[-58.8298753332,-27.5349104793],[-58.829839849,-27.5345457795]]]}},{"type":"Feature","properties":{"id":"verdumzalazar-2","Name":null,"description":null,"layer":"Polígonos"},"geometry":{"type":"Polygon","coordinates":[[[-58.8288980272,-27.5323443979],[-58.8289518315,-27.5328396224],[-58.8297128156,-27.5327554933],[-58.8297323291,-27.5323477626],[-58.829716228,-27.5322465778],[-58.8288980272,-27.5323443979]]]}},{"type":"Feature","properties":{"id":"verdumzalazar-3","Name":null,"description":null,"layer":"Polígonos"},"geometry":{"type":"Polygon","coordinates":[[[-58.8286973933,-27.5323683839],[-58.8272998208,-27.5325354571],[-58.8266983255,-27.5318893099],[-58.8269254574,-27.533063623],[-58.8287510028,-27.5328618239],[-58.8286973933,-27.5323683839]]]}},{"type":"Feature","properties":{"id":"verdumzalazar-4","Name":null,"description":"AB OPCION 4","layer":"Proy. Mra. Verdum-Zalazar-Carauine — Area Features"},"geometry":{"type":"Polygon","coordinates":[[[-58.8301285701,-27.5356196543],[-58.83036677259999,-27.5362867178],[-58.8308519886,-27.5368981871],[-58.831157014,-27.5375681083],[-58.8312154038,-27.5381742857],[-58.8314011945,-27.5389027862],[-58.8236429956,-27.5392941788],[-58.8229363799,-27.535592759],[-58.8268853817,-27.5349938984],[-58.8270951451,-27.5360797492],[-58.8301285701,-27.5356196543]]]}},{"type":"Feature","properties":{"id":"verdumzalazar-5","Name":null,"description":"AB OPCION 4","layer":"Proy. Mra. Verdum-Zalazar-Carauine — Area Features"},"geometry":{"type":"Polygon","coordinates":[[[-58.8274598977,-27.5358413798],[-58.8272844972,-27.5349333665],[-58.82894864530001,-27.5346809599],[-58.8290485438,-27.5356004257],[-58.8274598977,-27.5358413798]]]}},{"type":"Feature","properties":{"id":"verdumzalazar-6","Name":null,"description":"AB OPCION 4","layer":"Proy. Mra. Verdum-Zalazar-Carauine — Area Features"},"geometry":{"type":"Polygon","coordinates":[[[-58.8290577933,-27.5338149037],[-58.8297611712,-27.5337371374],[-58.8297959713,-27.5340948102],[-58.8290996798,-27.5342004265],[-58.8290577933,-27.5338149037]]]}},{"type":"Feature","properties":{"id":"verdumzalazar-7","Name":null,"description":"AB OPCION 4","layer":"Proy. Mra. Verdum-Zalazar-Carauine — Area Features"},"geometry":{"type":"Polygon","coordinates":[[[-58.82786645339999,-27.533148827],[-58.82877131579999,-27.5330487907],[-58.82889973150001,-27.5342307547],[-58.8280989173,-27.5343522196],[-58.82786645339999,-27.533148827]]]}},{"type":"Feature","properties":{"id":"verdumzalazar-8","Name":null,"description":"AB OPCION 4","layer":"Proy. Mra. Verdum-Zalazar-Carauine — Area Features"},"geometry":{"type":"Polygon","coordinates":[[[-58.8289721447,-27.5330265874],[-58.8297036674,-27.532945709],[-58.8296972386,-27.533080037],[-58.8297611712,-27.5337371374],[-58.8290577933,-27.5338149037],[-58.8290577933,-27.5338149037],[-58.8289721447,-27.5330265874]]]}},{"type":"Feature","properties":{"id":"verdumzalazar-9","Name":null,"description":"AB OPCION 4","layer":"Proy. Mra. Verdum-Zalazar-Carauine — Area Features"},"geometry":{"type":"Polygon","coordinates":[[[-58.8280989173,-27.5343522196],[-58.8271986598,-27.5344887619],[-58.8269592036,-27.5332491192],[-58.8278664531,-27.5331488252],[-58.8280989173,-27.5343522196]]]}}]}