{
"type": "FeatureCollection",
"name": "zona-arroyo",
"crs": { "type": "name", "properties": { "name": "urn:ogc:def:crs:OGC:1.3:CRS84" } },
"features": [
{ "type": "Feature", "properties": { "fid": 1 }, "geometry": { "type": "Polygon", "coordinates": [ [ [ -58.795868359356604, -27.527484725807962 ], [ -58.795728508088679, -27.527726502576243 ], [ -58.795453546273777, -27.527586651308315 ], [ -58.795519916367027, -27.527482355447489 ], [ -58.795607619704541, -27.527349615260984 ], [ -58.795868359356604, -27.527484725807962 ] ] ] } },
{ "type": "Feature", "properties": { "fid": 2 }, "geometry": { "type": "Polygon", "coordinates": [ [ [ -58.795608490071324, -27.527347578232547 ], [ -58.79564863805183, -27.527281171102445 ], [ -58.796006414335579, -27.527465614776666 ], [ -58.796082265870687, -27.527344726392595 ], [ -58.796099450984087, -27.527313615411387 ], [ -58.797071298777617, -27.527749761738235 ], [ -58.797020336027472, -27.527823242912863 ], [ -58.796967002916851, -27.527890798186316 ], [ -58.796904188364344, -27.527974945983072 ], [ -58.796886410660804, -27.527999834768028 ], [ -58.796721670607987, -27.528247537437355 ], [ -58.796686115200906, -27.528294944646795 ], [ -58.796551004653999, -27.52886857188102 ], [ -58.794979455661093, -27.528038945715814 ], [ -58.795108047716695, -27.527926946183509 ], [ -58.795319009798703, -27.527720724822444 ], [ -58.795442268543248, -27.5275974660779 ], [ -58.795447601854306, -27.527589466111319 ], [ -58.795729674750476, -27.527734058100108 ], [ -58.795871303788687, -27.527484577660424 ], [ -58.795608490071324, -27.527347578232547 ] ] ] } },
{ "type": "Feature", "properties": { "fid": 3 }, "geometry": { "type": "Polygon", "coordinates": [ [ [ -58.797001965733848, -27.525446067654485 ], [ -58.796984188030308, -27.525446067654482 ], [ -58.796947447442996, -27.525502956305811 ], [ -58.796689078151545, -27.525699696224986 ], [ -58.796657078285172, -27.525735251632067 ], [ -58.79641293115656, -27.526032731871325 ], [ -58.796228043039726, -27.52632665656985 ], [ -58.796066858527645, -27.526601618384603 ], [ -58.795652045445031, -27.527272430398174 ], [ -58.796006414335608, -27.527454948154524 ], [ -58.796095895443422, -27.527308578395385 ], [ -58.797072632105426, -27.527748280262944 ], [ -58.797105224561918, -27.527701613791155 ], [ -58.797141372559118, -27.527637021468291 ], [ -58.797181076097026, -27.527555836622128 ], [ -58.797198853800566, -27.527494799839971 ], [ -58.797207742652333, -27.52745924443289 ], [ -58.797211298193041, -27.527401170601326 ], [ -58.797205372291863, -27.527346059720351 ], [ -58.797171002065028, -27.527229912057219 ], [ -58.79701811381458, -27.526969172405298 ], [ -58.796971891785375, -27.526876728346888 ], [ -58.796898410610751, -27.526625470136853 ], [ -58.796881818087442, -27.526531840898208 ], [ -58.796874707006026, -27.52641569323508 ], [ -58.796877669956636, -27.526355841633162 ], [ -58.796881225497344, -27.526317915865608 ], [ -58.796899003200885, -27.526262212394517 ], [ -58.796927447526535, -27.52617687941753 ], [ -58.796961817753377, -27.526096287161483 ], [ -58.796983150997626, -27.526041768870627 ], [ -58.796993225029624, -27.526005620873431 ], [ -58.797003891651748, -27.525935695239507 ], [ -58.796997965750563, -27.525845621541571 ], [ -58.796986113948208, -27.525729473878442 ], [ -58.796981373227268, -27.525698362897241 ], [ -58.796977817686567, -27.525630215033672 ], [ -58.796987002833397, -27.525543104286324 ], [ -58.797013076798585, -27.525461326850021 ], [ -58.797001965733848, -27.525446067654485 ] ] ] } }
]
}
